{"type":"FeatureCollection","features":[{"type":"Feature","properties":{"Tipo":"Regional","Nome":"Campo Mourão","Regional":"Campo Mourão","Chefe":"Médico Veterinário Emanuel Roberto Silva Vaccarelli","Endereço":"Rua São José, 640, Campo Mourão - PR","CEP":"87300-430","Telefone":"(44) 3523-6546","Município":"Campo Mourão","ibge":"4104303","Checagem da coordenada":"no município declarado","Fonte":"https://www.adapar.pr.gov.br/Pagina/Escritorio-Regional-de-Campo-Mourao"},"geometry":{"type":"Point","coordinates":[-52.36942,-24.04263]}},{"type":"Feature","properties":{"Tipo":"Local","Nome":"Campina da Lagoa","Regional":"Campo Mourão","Endereço":"Rua Ver. Homero Franco, 600, Campina da Lagoa - PR","CEP":"87.345-000","Telefone":"(44) 3542-2761","E-mail":"adaparcml@adapar.pr.gov.br","Circunscrição":"Altamira do Paraná, Campina da Lagoa e Nova Cantu","Município":"Campina da Lagoa","ibge":"4103909","Checagem da coordenada":"sem coordenada no site: ponto no centro do município","Fonte":"https://www.adapar.pr.gov.br/Pagina/Escritorio-Regional-de-Campo-Mourao"},"geometry":{"type":"Point","coordinates":[-52.7783,-24.61714]}},{"type":"Feature","properties":{"Tipo":"Local","Nome":"Campo Mourão","Regional":"Campo Mourão","Endereço":"Av. João Bento, 1899, Campo Mourão - PR","CEP":"87300-030","Telefone":"(44) 3525-1375 (DESA) / (44) 3523-8766 (DESA – Reprodução Avícola) / (44) 3523-8906 (DESV)","E-mail":"adaparcpm@adapar.pr.gov.br","Circunscrição":"Araruna, Campo Mourão, Corumbataí do Sul, Farol e Luiziana","Município":"Campo Mourão","ibge":"4104303","Checagem da coordenada":"no município declarado","Fonte":"https://www.adapar.pr.gov.br/Pagina/Escritorio-Regional-de-Campo-Mourao"},"geometry":{"type":"Point","coordinates":[-52.36936,-24.04277]}},{"type":"Feature","properties":{"Tipo":"Local","Nome":"Engenheiro Beltrão","Regional":"Campo Mourão","Endereço":"Rua Avelino Vieira, 249, Engenheiro Beltrão - PR","CEP":"87270-000","Telefone":"(44) 3537-1933","E-mail":"adaparebt@adapar.pr.gov.br","Circunscrição":"Barbosa Ferraz, Engenheiro Beltrão, Fênix, Peabiru, Quinta do Sol e Terra Boa","Município":"Engenheiro Beltrão","ibge":"4107504","Checagem da coordenada":"endereço geocodificado (Nominatim)","Fonte":"https://www.adapar.pr.gov.br/Pagina/Escritorio-Regional-de-Campo-Mourao"},"geometry":{"type":"Point","coordinates":[-52.25505,-23.79526]}},{"type":"Feature","properties":{"Tipo":"Local","Nome":"Goioerê","Regional":"Campo Mourão","Endereço":"Rua Antonio Moulin, 460, Goioerê - PR","CEP":"87360-000","Telefone":"(44) 3522-3652","E-mail":"adapargre@adapar.pr.gov.br","Circunscrição":"Goioerê, Janiópolis, Moreira Sales, Quarto Centenário e Rancho Alegre D'Oeste","Município":"Goioerê","ibge":"4108601","Checagem da coordenada":"endereço geocodificado (Nominatim)","Fonte":"https://www.adapar.pr.gov.br/Pagina/Escritorio-Regional-de-Campo-Mourao"},"geometry":{"type":"Point","coordinates":[-53.02468,-24.18847]}},{"type":"Feature","properties":{"Tipo":"Local","Nome":"Iretama","Regional":"Campo Mourão","Endereço":"Travessa Artur Bernardes, 65, Iretama - PR","CEP":"87280-000","Telefone":"(44) 3573-1806","E-mail":"adapariet@adapar.pr.gov.br","Circunscrição":"Iretama e Roncador","Município":"Iretama","ibge":"4110805","Checagem da coordenada":"no município declarado","Fonte":"https://www.adapar.pr.gov.br/Pagina/Escritorio-Regional-de-Campo-Mourao"},"geometry":{"type":"Point","coordinates":[-52.10043,-24.42269]}},{"type":"Feature","properties":{"Tipo":"Local","Nome":"Mamborê","Regional":"Campo Mourão","Endereço":"Rua Ricardo Kauffman, 404, Mamborê - PR","CEP":"87340-000","Telefone":"(44) 3568-2998","E-mail":"adaparmmr@adapar.pr.gov.br","Circunscrição":"Boa Esperança, Juranda, Mamborê e Ubiratã","Município":"Mamborê","ibge":"4114005","Checagem da coordenada":"no município declarado","Fonte":"https://www.adapar.pr.gov.br/Pagina/Escritorio-Regional-de-Campo-Mourao"},"geometry":{"type":"Point","coordinates":[-52.53115,-24.30519]}},{"type":"Feature","properties":{"Tipo":"Regional","Nome":"Cascavel","Regional":"Cascavel","Chefe":"Médica Veterinária Odete Volz Medeiros","Endereço":"Avenida Brasil, 2040 - Cascavel - PR","CEP":"85816-290","Telefone":"(45) 2101-4960 / (45) 2101-4969","Município":"Cascavel","ibge":"4104808","Checagem da coordenada":"no município declarado","Fonte":"https://www.adapar.pr.gov.br/Pagina/Escritorio-Regional-de-Cascavel"},"geometry":{"type":"Point","coordinates":[-53.44175,-24.94244]}},{"type":"Feature","properties":{"Tipo":"Local","Nome":"Capitão Leônidas Marques","Regional":"Cascavel","Endereço":"Avenida Iguaçu, 430, Capitão Leônidas Marques - PR","CEP":"85790-000","Telefone":"(45) 3286-1013","E-mail":"adaparcqs@adapar.pr.gov.br","Circunscrição":"Capitão Leônidas Marques e Santa Lúcia e Lindoeste","Município":"Capitão Leônidas Marques","ibge":"4104600","Checagem da coordenada":"no município declarado","Fonte":"https://www.adapar.pr.gov.br/Pagina/Escritorio-Regional-de-Cascavel"},"geometry":{"type":"Point","coordinates":[-53.61227,-25.47972]}},{"type":"Feature","properties":{"Tipo":"Local","Nome":"Cascavel","Regional":"Cascavel","Endereço":"Avenida Brasil, 2040 - Cascavel - PR","CEP":"85816-290","Telefone":"(45) 2101-4955 / (45) 2101-4968","E-mail":"adaparcsc@adapar.pr.gov.br","Circunscrição":"Cascavel e Santa Tereza do Oeste","Município":"Cascavel","ibge":"4104808","Checagem da coordenada":"no município declarado","Fonte":"https://www.adapar.pr.gov.br/Pagina/Escritorio-Regional-de-Cascavel"},"geometry":{"type":"Point","coordinates":[-53.42146,-24.95215]}},{"type":"Feature","properties":{"Tipo":"Local","Nome":"Catanduvas","Regional":"Cascavel","Endereço":"Rua Presidente Kennedy, 305, Catanduvas - PR","CEP":"85470-000","Telefone":"(45) 3234-1419","E-mail":"adaparctd@adapar.pr.gov.br","Circunscrição":"Campo Bonito, Catanduvas e Ibema","Município":"Catanduvas","ibge":"4105003","Checagem da coordenada":"no município declarado","Fonte":"https://www.adapar.pr.gov.br/Pagina/Escritorio-Regional-de-Cascavel"},"geometry":{"type":"Point","coordinates":[-53.15475,-25.19791]}},{"type":"Feature","properties":{"Tipo":"Local","Nome":"Corbélia","Regional":"Cascavel","Endereço":"Rua Margarida, 603, Corbélia - PR","CEP":"85420-000","Telefone":"(45) 3242-2216","E-mail":"adaparcbl@adapar.pr.gov.br","Circunscrição":"Braganey, Corbélia e Iguatu","Município":"Corbélia","ibge":"4106308","Checagem da coordenada":"endereço geocodificado (Nominatim)","Fonte":"https://www.adapar.pr.gov.br/Pagina/Escritorio-Regional-de-Cascavel"},"geometry":{"type":"Point","coordinates":[-53.30005,-24.79564]}},{"type":"Feature","properties":{"Tipo":"Local","Nome":"Foz do Iguaçu","Regional":"Cascavel","Endereço":"Avenida Juscelino Kubitschek, 1254, Foz do Iguaçu - PR (Anexo ao CEASA)","CEP":"85864-000","Telefone":"(45) 3522-4017 / (45) 3578-7003","E-mail":"adaparfoz@adapar.pr.gov.br","Circunscrição":"Foz do Iguaçu e Santa Terezinha de Itaipu","Município":"Foz do Iguaçu","ibge":"4108304","Checagem da coordenada":"no município declarado","Fonte":"https://www.adapar.pr.gov.br/Pagina/Escritorio-Regional-de-Cascavel"},"geometry":{"type":"Point","coordinates":[-54.5863,-25.53594]}},{"type":"Feature","properties":{"Tipo":"Local","Nome":"Matelândia","Regional":"Cascavel","Endereço":"Avenida Duque de Caxias, 1075 - Centro, Matelândia - PR","CEP":"85887-000","Telefone":"(45) 3262-1358","E-mail":"adaparmtd@adapar.pr.gov.br","Circunscrição":"Céu Azul, Matelândia, Ramilândia e Vera Cruz do Oeste","Município":"Matelândia","ibge":"4115606","Checagem da coordenada":"endereço geocodificado (Nominatim)","Fonte":"https://www.adapar.pr.gov.br/Pagina/Escritorio-Regional-de-Cascavel"},"geometry":{"type":"Point","coordinates":[-53.98065,-25.2401]}},{"type":"Feature","properties":{"Tipo":"Local","Nome":"Medianeira","Regional":"Cascavel","Endereço":"Avenida Soledade, 1640, Medianeira - PR","CEP":"85884-000","Telefone":"(45)3264-4730 / (45) 3264-3499","E-mail":"&","Circunscrição":"Medianeira e Serranópolis do Iguaçu","Município":"Medianeira","ibge":"4115804","Checagem da coordenada":"endereço geocodificado (Nominatim)","Fonte":"https://www.adapar.pr.gov.br/Pagina/Escritorio-Regional-de-Cascavel"},"geometry":{"type":"Point","coordinates":[-54.0977,-25.29705]}},{"type":"Feature","properties":{"Tipo":"Local","Nome":"Missal","Regional":"Cascavel","Endereço":"Rua Marechal Deodoro, 142, Missal - PR","CEP":"85890-000","Telefone":"(45) 3244-2432","E-mail":"adaparmlw@adapar.pr.gov.br","Circunscrição":"Diamante D'Oeste e Missal","Município":"Missal","ibge":"4116059","Checagem da coordenada":"no município declarado","Fonte":"https://www.adapar.pr.gov.br/Pagina/Escritorio-Regional-de-Cascavel"},"geometry":{"type":"Point","coordinates":[-54.25096,-25.09137]}},{"type":"Feature","properties":{"Tipo":"Local","Nome":"Nova Aurora","Regional":"Cascavel","Endereço":"Rua Maringá, 135, Nova Aurora - PR","CEP":"85.410-000","Telefone":"(45) 3243-1255","E-mail":"adaparnaa@adapar.pr.gov.br","Circunscrição":"Anahy, Cafelândia e Nova Aurora","Município":"Nova Aurora","ibge":"4116703","Checagem da coordenada":"endereço geocodificado (Nominatim)","Fonte":"https://www.adapar.pr.gov.br/Pagina/Escritorio-Regional-de-Cascavel"},"geometry":{"type":"Point","coordinates":[-53.26491,-24.52628]}},{"type":"Feature","properties":{"Tipo":"Local","Nome":"São Miguel do Iguaçu","Regional":"Cascavel","Endereço":"Rua Getúlio Vargas, 89, Centro, São Miguel do Iguaçu - PR","CEP":"85877-000","Telefone":"& (45) 3565-2226","E-mail":"adaparsli@adapar.pr.gov.br","Circunscrição":"Itaipulândia e São Miguel do Iguaçu","Município":"São Miguel do Iguaçu","ibge":"4125704","Checagem da coordenada":"endereço geocodificado (Nominatim)","Fonte":"https://www.adapar.pr.gov.br/Pagina/Escritorio-Regional-de-Cascavel"},"geometry":{"type":"Point","coordinates":[-54.23761,-25.34246]}},{"type":"Feature","properties":{"Tipo":"Local","Nome":"Três Barras do Paraná","Regional":"Cascavel","Endereço":"Av. Brasil, 1338 - Centro, Três Barras do Paraná - PR","CEP":"85485-000","Telefone":"(45) 3235-1212 - Ramal 242","E-mail":"adapartre@adapar.pr.gov.br","Circunscrição":"Boa Vista da Aparecida e Três Barras do Paraná","Município":"Três Barras do Paraná","ibge":"4127858","Checagem da coordenada":"no município declarado","Fonte":"https://www.adapar.pr.gov.br/Pagina/Escritorio-Regional-de-Cascavel"},"geometry":{"type":"Point","coordinates":[-53.18992,-25.42263]}},{"type":"Feature","properties":{"Tipo":"Regional","Nome":"Cianorte","Regional":"Cianorte","Chefe":"Médico Veterinário Filipe Penha Tinôco","Endereço":"Av. Espírito Santo, n° 486 - Zona 01, Cianorte/PR","CEP":"87200-097","Telefone":"(44) 3629-3800","Município":"Cianorte","ibge":"4105508","Checagem da coordenada":"no município declarado","Fonte":"https://www.adapar.pr.gov.br/Pagina/Escritorio-Regional-de-Cianorte"},"geometry":{"type":"Point","coordinates":[-52.61748,-23.65996]}},{"type":"Feature","properties":{"Tipo":"Local","Nome":"Cianorte","Regional":"Cianorte","Endereço":"Av. Espírito Santo, n° 486 - Zona 01, Cianorte/PR","CEP":"87200-097","Telefone":"(44) 3629-3800","E-mail":"adaparcne@adapar.pr.gov.br","Circunscrição":"Cianorte, Jussara, São Tomé e Japurá","Município":"Cianorte","ibge":"4105508","Checagem da coordenada":"no município declarado","Fonte":"https://www.adapar.pr.gov.br/Pagina/Escritorio-Regional-de-Cianorte"},"geometry":{"type":"Point","coordinates":[-52.61748,-23.65996]}},{"type":"Feature","properties":{"Tipo":"Local","Nome":"Cidade Gaúcha","Regional":"Cianorte","Endereço":"Av. Comendador Gentil Geraldi, 3060. Centro. Cidade Gaúcha - PR","CEP":"87.820-000","Telefone":"(44) 36751531","E-mail":"adaparcdh@adapar.pr.gov.br","Circunscrição":"Guaporema, Cidade Gaúcha e Tapira","Município":"Cidade Gaúcha","ibge":"4105607","Checagem da coordenada":"no município declarado","Fonte":"https://www.adapar.pr.gov.br/Pagina/Escritorio-Regional-de-Cianorte"},"geometry":{"type":"Point","coordinates":[-52.93758,-23.3751]}},{"type":"Feature","properties":{"Tipo":"Local","Nome":"Rondon","Regional":"Cianorte","Endereço":"Av. Rio de Janeiro, 479. Centro. Rondon - PR","CEP":"87800-000","Telefone":"(44) 3672-1394","E-mail":"adaparrdn@adapar.pr.gov.br","Circunscrição":"Rondon, Indianápolis e São Manoel do Paraná","Município":"Rondon","ibge":"4122602","Checagem da coordenada":"link do mapa fora do município: ponto no centro do município","Fonte":"https://www.adapar.pr.gov.br/Pagina/Escritorio-Regional-de-Cianorte"},"geometry":{"type":"Point","coordinates":[-52.80221,-23.45409]}},{"type":"Feature","properties":{"Tipo":"Local","Nome":"Tapejara","Regional":"Cianorte","Endereço":"Rua Antonio Schimit Vilela, 704. Centro. Tapejara - PR","CEP":"87.430-000","Telefone":"(44) 3677-2622","E-mail":"adapartap@adapar.pr.gov.br","Circunscrição":"Tapejara e Tuneiras do Oeste","Município":"Tapejara","ibge":"4126801","Checagem da coordenada":"no município declarado","Fonte":"https://www.adapar.pr.gov.br/Pagina/Escritorio-Regional-de-Cianorte"},"geometry":{"type":"Point","coordinates":[-52.86719,-23.73353]}},{"type":"Feature","properties":{"Tipo":"Regional","Nome":"Cornélio Procópio","Regional":"Cornélio Procópio","Chefe":"Engenheiro Agrônomo Valdir Lourenço","Endereço":"Av. Minas Gerais, 1351, Cornélio Procópio - PR","CEP":"86300-000","Telefone":"(43) 3520-3700 / (43) 3520-3716","Município":"Cornélio Procópio","ibge":"4106407","Checagem da coordenada":"no município declarado","Fonte":"https://www.adapar.pr.gov.br/Pagina/Escritorio-Regional-de-Cornelio-Procopio"},"geometry":{"type":"Point","coordinates":[-50.66011,-23.18199]}},{"type":"Feature","properties":{"Tipo":"Local","Nome":"Assaí","Regional":"Cornélio Procópio","Endereço":"Rua Manoel Ribas, 676, Assaí - PR","CEP":"86.220-000","Telefone":"(43) 3262-1776","E-mail":"adaparass@adapar.pr.gov.br","Circunscrição":"Assaí, Jataizinho, Nova Santa Bárbara, Santa Cecília do Pavão e São Sebastião da Amoreira","Município":"Assaí","ibge":"4101903","Checagem da coordenada":"no município declarado","Fonte":"https://www.adapar.pr.gov.br/Pagina/Escritorio-Regional-de-Cornelio-Procopio"},"geometry":{"type":"Point","coordinates":[-50.84615,-23.36761]}},{"type":"Feature","properties":{"Tipo":"Local","Nome":"Bandeirantes","Regional":"Cornélio Procópio","Endereço":"Rua Dino Veiga, n° 299, Centro, Bandeirantes - PR","CEP":"86360-000","Telefone":"(43) 3542-4838","E-mail":"adaparbnt@adapar.pr.gov.br","Circunscrição":"Abatiá, Andirá, Bandeirantes e Itambaracá","Município":"Bandeirantes","ibge":"4102406","Checagem da coordenada":"endereço geocodificado (Nominatim)","Fonte":"https://www.adapar.pr.gov.br/Pagina/Escritorio-Regional-de-Cornelio-Procopio"},"geometry":{"type":"Point","coordinates":[-50.3707,-23.10519]}},{"type":"Feature","properties":{"Tipo":"Local","Nome":"Cornélio Procópio","Regional":"Cornélio Procópio","Endereço":"Avenida Minas Gerais, 1351, Cornélio Procópio - PR","CEP":"86300-000","Telefone":"(43) 3520-3700","E-mail":"adaparcpp@adapar.pr.gov.br","Circunscrição":"Cornélio Procópio, Nova América da Colina, Rancho Alegre, Sertaneja e Uraí","Município":"Cornélio Procópio","ibge":"4106407","Checagem da coordenada":"endereço geocodificado (Nominatim)","Fonte":"https://www.adapar.pr.gov.br/Pagina/Escritorio-Regional-de-Cornelio-Procopio"},"geometry":{"type":"Point","coordinates":[-50.65504,-23.1815]}},{"type":"Feature","properties":{"Tipo":"Local","Nome":"Ribeirão do Pinhal","Regional":"Cornélio Procópio","Endereço":"Rua Raul Curupanã, 578, Ribeirão do Pinhal - PR","CEP":"86.490-000","Telefone":"(43) 3551-1737","E-mail":"adaparrhl@adapar.pr.gov.br","Circunscrição":"Congonhinhas, Nova Fátima, Ribeirão do Pinhal e Santo Antônio do Paraíso","Município":"Ribeirão do Pinhal","ibge":"4121901","Checagem da coordenada":"no município declarado","Fonte":"https://www.adapar.pr.gov.br/Pagina/Escritorio-Regional-de-Cornelio-Procopio"},"geometry":{"type":"Point","coordinates":[-50.35849,-23.405]}},{"type":"Feature","properties":{"Tipo":"Local","Nome":"Santa Mariana","Regional":"Cornélio Procópio","Endereço":"Rua Laura Merchione Spagolla, n° 107, Santa Mariana - PR","CEP":"86.350-000","Telefone":"(43) 3531-1782","E-mail":"adaparsnm@adapar.pr.gov.br","Circunscrição":"Leópolis, Santa Amélia e Santa Mariana","Município":"Santa Mariana","ibge":"4123907","Checagem da coordenada":"no município declarado","Fonte":"https://www.adapar.pr.gov.br/Pagina/Escritorio-Regional-de-Cornelio-Procopio"},"geometry":{"type":"Point","coordinates":[-50.57144,-23.03045]}},{"type":"Feature","properties":{"Tipo":"Local","Nome":"Sapopema","Regional":"Cornélio Procópio","Endereço":"Av. Manoel Ribas, 265, Sapopema - PR","CEP":"84290-000","Telefone":"(43) 3548-1912","E-mail":"adaparspe@adapar.pr.gov.br","Circunscrição":"São Jerônimo da Serra e Sapopema","Município":"Sapopema","ibge":"4126207","Checagem da coordenada":"no município declarado","Fonte":"https://www.adapar.pr.gov.br/Pagina/Escritorio-Regional-de-Cornelio-Procopio"},"geometry":{"type":"Point","coordinates":[-50.57968,-23.91101]}},{"type":"Feature","properties":{"Tipo":"Regional","Nome":"Curitiba","Regional":"Curitiba","Chefe":"Médica Veterinária Elaine Marcondes Carneiro","Endereço":"Rua dos Funcionários, 1560, Curitiba - PR","CEP":"80035-050","Telefone":"(41) 3313-4122","Município":"Curitiba","ibge":"4106902","Checagem da coordenada":"no município declarado","Fonte":"https://www.adapar.pr.gov.br/Pagina/Escritorio-Regional-de-Curitiba"},"geometry":{"type":"Point","coordinates":[-49.24763,-25.41071]}},{"type":"Feature","properties":{"Tipo":"Local","Nome":"Adrianópolis","Regional":"Curitiba","Endereço":"Estrada da Plumbum, Km 1, Adrianópolis - PR","CEP":"83490-000","Telefone":"(41) 3678- 1570","E-mail":"adaparadp@adapar.pr.gov.br","Circunscrição":"Adrianópolis e Tunas do Paraná","Município":"Adrianópolis","ibge":"4100202","Checagem da coordenada":"no município declarado","Fonte":"https://www.adapar.pr.gov.br/Pagina/Escritorio-Regional-de-Curitiba"},"geometry":{"type":"Point","coordinates":[-48.99063,-24.6604]}},{"type":"Feature","properties":{"Tipo":"Local","Nome":"Campo Largo","Regional":"Curitiba","Endereço":"Av. Padre Natal Pigato, 814 - Vila de Lurdes, Campo Largo - PR","CEP":"83601-630","Telefone":"(41) 3393-3675","E-mail":"adaparclg@adapar.pr.gov.br","Circunscrição":"Araucária, Balsa Nova e Campo Largo","Município":"Campo Largo","ibge":"4104204","Checagem da coordenada":"no município declarado","Fonte":"https://www.adapar.pr.gov.br/Pagina/Escritorio-Regional-de-Curitiba"},"geometry":{"type":"Point","coordinates":[-49.51863,-25.45638]}},{"type":"Feature","properties":{"Tipo":"Local","Nome":"Cerro Azul","Regional":"Curitiba","Endereço":"Rua Barão do Cerro Azul, 65 - Centro, Cerro Azul - PR","CEP":"83570-000","Telefone":"(41) 3662-1347","E-mail":"adaparcrz@adapar.pr.gov.br","Circunscrição":"Cerro Azul e Doutor Ulysses","Município":"Cerro Azul","ibge":"4105201","Checagem da coordenada":"endereço geocodificado (Nominatim)","Fonte":"https://www.adapar.pr.gov.br/Pagina/Escritorio-Regional-de-Curitiba"},"geometry":{"type":"Point","coordinates":[-49.26125,-24.82596]}},{"type":"Feature","properties":{"Tipo":"Local","Nome":"Colombo","Regional":"Curitiba","Endereço":"Rua Pedro Pavin, 1022, Centro - Colombo - PR","CEP":"83414-010","Telefone":"(41) 3656-3460","E-mail":"adaparcbx@adapar.pr.gov.br","Circunscrição":"Bocaiúva do Sul, Campina Grande do Sul e Colombo","Município":"Colombo","ibge":"4105805","Checagem da coordenada":"endereço geocodificado (Nominatim)","Fonte":"https://www.adapar.pr.gov.br/Pagina/Escritorio-Regional-de-Curitiba"},"geometry":{"type":"Point","coordinates":[-49.22894,-25.28715]}},{"type":"Feature","properties":{"Tipo":"Local","Nome":"Curitiba","Regional":"Curitiba","Endereço":"Rua dos Funcionários, 1560, Curitiba - PR","CEP":"80035-050","Telefone":"(41) 3313-4091 / 3313-4122","E-mail":"adaparcta@adapar.pr.gov.br","Circunscrição":"Curitiba, Pinhais, Piraquara e Quatro Barras","Município":"Curitiba","ibge":"4106902","Checagem da coordenada":"endereço geocodificado (Nominatim)","Fonte":"https://www.adapar.pr.gov.br/Pagina/Escritorio-Regional-de-Curitiba"},"geometry":{"type":"Point","coordinates":[-49.25463,-25.40316]}},{"type":"Feature","properties":{"Tipo":"Local","Nome":"Rio Branco do Sul","Regional":"Curitiba","Endereço":"Rua Paraná, 63, Rio Branco do Sul - PR","CEP":"83540-000","Telefone":"(41) 3652-3546","E-mail":"adaparrbl@adapar.pr.gov.br","Circunscrição":"Almirante Tamandaré, Campo Magro, Itaperuçu e Rio Branco do Sul","Município":"Rio Branco do Sul","ibge":"4122206","Checagem da coordenada":"no município declarado","Fonte":"https://www.adapar.pr.gov.br/Pagina/Escritorio-Regional-de-Curitiba"},"geometry":{"type":"Point","coordinates":[-49.31171,-25.19331]}},{"type":"Feature","properties":{"Tipo":"Local","Nome":"Rio Negro","Regional":"Curitiba","Endereço":"Rua Severo de Almeida, 339 - São João, Rio Negro - PR","CEP":"83880-000","Telefone":"(47) 3645-0124","E-mail":"adaparron@adapar.pr.gov.br","Circunscrição":"Agudos do Sul, Campo do Tenente, Piên e Rio Negro","Município":"Rio Negro","ibge":"4122305","Checagem da coordenada":"endereço geocodificado (Nominatim)","Fonte":"https://www.adapar.pr.gov.br/Pagina/Escritorio-Regional-de-Curitiba"},"geometry":{"type":"Point","coordinates":[-49.78693,-26.08889]}},{"type":"Feature","properties":{"Tipo":"Local","Nome":"São José dos Pinhais","Regional":"Curitiba","Endereço":"Rua Scharffernberg de Quadros nº 147, Centro, São José dos Pinhais - PR","CEP":"83005-000","Telefone":"(41) 3383-1278/ 3385-4226","E-mail":"adaparsjp@adapar.pr.gov.br","Circunscrição":"Fazenda Rio Grande, Mandirituba, Tijuca do Sul e São José dos Pinhais","Município":"São José dos Pinhais","ibge":"4125506","Checagem da coordenada":"no município declarado","Fonte":"https://www.adapar.pr.gov.br/Pagina/Escritorio-Regional-de-Curitiba"},"geometry":{"type":"Point","coordinates":[-49.20703,-25.53694]}},{"type":"Feature","properties":{"Tipo":"Regional","Nome":"Dois Vizinhos","Regional":"Dois Vizinhos","Chefe":"Médico Veterinário Rafael Milhoreto Sponchiado","Endereço":"Rua Souza Naves, 77, Dois Vizinhos - PR","CEP":"85660-000","Telefone":"(46) 3536-8250 / (46) 3536-8252 / (46) 3536-2848","Município":"Dois Vizinhos","ibge":"4107207","Checagem da coordenada":"endereço geocodificado (Nominatim)","Fonte":"https://www.adapar.pr.gov.br/Pagina/Escritorio-Regional-de-Dois-Vizinhos"},"geometry":{"type":"Point","coordinates":[-53.05876,-25.74702]}},{"type":"Feature","properties":{"Tipo":"Local","Nome":"Dois Vizinhos","Regional":"Dois Vizinhos","Endereço":"Rua Souza Naves, 77 - Centro, Dois Vizinhos - PR","CEP":"85660-000","Telefone":"(46) 3536-8261","E-mail":"adapardvz@adapar.pr.gov.br","Circunscrição":"Boa Esperança do Iguaçu, Cruzeiro do Iguaçu e Dois Vizinhos","Município":"Dois Vizinhos","ibge":"4107207","Checagem da coordenada":"endereço geocodificado (Nominatim)","Fonte":"https://www.adapar.pr.gov.br/Pagina/Escritorio-Regional-de-Dois-Vizinhos"},"geometry":{"type":"Point","coordinates":[-53.05876,-25.74702]}},{"type":"Feature","properties":{"Tipo":"Local","Nome":"Planalto","Regional":"Dois Vizinhos","Endereço":"Avenida Rio Grande do Sul, 1598, centro, Planalto-PR","CEP":"85750-000","Telefone":"(46) 3555-2163","E-mail":"adaparpnt@adapar.pr.gov.br","Circunscrição":"Bela Vista da Caroba, Capanema e Planalto","Município":"Planalto","ibge":"4119806","Checagem da coordenada":"no município declarado","Fonte":"https://www.adapar.pr.gov.br/Pagina/Escritorio-Regional-de-Dois-Vizinhos"},"geometry":{"type":"Point","coordinates":[-53.77466,-25.71362]}},{"type":"Feature","properties":{"Tipo":"Local","Nome":"Realeza","Regional":"Dois Vizinhos","Endereço":"Rua Padre Fernando Zanchet, 3137- Centro, Realeza - PR","CEP":"85770-000","Telefone":"(46) 3543-2122","E-mail":"adaparrlz@adapar.pr.gov.br","Circunscrição":"Ampére, Realeza e Santa Izabel do Oeste","Município":"Realeza","ibge":"4121406","Checagem da coordenada":"no município declarado","Fonte":"https://www.adapar.pr.gov.br/Pagina/Escritorio-Regional-de-Dois-Vizinhos"},"geometry":{"type":"Point","coordinates":[-53.53037,-25.7689]}},{"type":"Feature","properties":{"Tipo":"Local","Nome":"Salto do Lontra","Regional":"Dois Vizinhos","Endereço":"Rua Irmã Maria Bernarda, 536 Centro, Salto do Lontra - PR","CEP":"85670-000","Telefone":"(46) 3538-1538","E-mail":"adaparstl@adapar.pr.gov.br","Circunscrição":"Nova Esperança do Sudoeste, Nova Prata do Iguaçu e Salto do Lontra","Município":"Salto do Lontra","ibge":"4123006","Checagem da coordenada":"centro da busca do link do mapa (vizinhança)","Fonte":"https://www.adapar.pr.gov.br/Pagina/Escritorio-Regional-de-Dois-Vizinhos"},"geometry":{"type":"Point","coordinates":[-53.31064,-25.78486]}},{"type":"Feature","properties":{"Tipo":"Local","Nome":"São Jorge D'Oeste","Regional":"Dois Vizinhos","Endereço":"Av. Prefeito Adelarte U. Debortoli, 609, São Jorge D'Oeste - PR","CEP":"85875-000","Telefone":"(46) 3534-1532","E-mail":"adaparsjd@adapar.pr.gov.br","Circunscrição":"São Jorge D’Oeste e Verê","Município":"São Jorge d'Oeste","ibge":"4125209","Checagem da coordenada":"no município declarado","Fonte":"https://www.adapar.pr.gov.br/Pagina/Escritorio-Regional-de-Dois-Vizinhos"},"geometry":{"type":"Point","coordinates":[-52.91698,-25.71033]}},{"type":"Feature","properties":{"Tipo":"Regional","Nome":"Francisco Beltrão","Regional":"Francisco Beltrão","Chefe":"Engenheira Agrônoma Ellis Cristina Picinini","Endereço":"Rua Tenente Camargo - 1312 - Sala 7 - Setor A - Bairro Presidente Kennedy - Francisco Beltrão - PR","CEP":"85605-090","Telefone":"(46) 3905-3300 - whatsapp 46 3905 3311","Município":"Francisco Beltrão","ibge":"4108403","Checagem da coordenada":"no município declarado","Fonte":"https://www.adapar.pr.gov.br/Pagina/Escritorio-Regional-de-Francisco-Beltrao"},"geometry":{"type":"Point","coordinates":[-53.04948,-26.07488]}},{"type":"Feature","properties":{"Tipo":"Local","Nome":"Barracão","Regional":"Francisco Beltrão","Endereço":"Rua República Argentina, 527, Centro, Barracão - PR","CEP":"85700-000","Telefone":"(49) 3644-0745","E-mail":"adaparbac@adapar.pr.gov.br","Circunscrição":"Barracão, Bom Jesus do Sul","Município":"Barracão","ibge":"4102604","Checagem da coordenada":"endereço geocodificado (Nominatim)","Fonte":"https://www.adapar.pr.gov.br/Pagina/Escritorio-Regional-de-Francisco-Beltrao"},"geometry":{"type":"Point","coordinates":[-53.63672,-26.24933]}},{"type":"Feature","properties":{"Tipo":"Local","Nome":"Francisco Beltrão","Regional":"Francisco Beltrão","Endereço":"Rua Tenente Camargo - 1312 - Sala 7 - Setor A - Bairro Presidente Kennedy - Francisco Beltrão - PR","CEP":"85605-090","Telefone":"(46) 3905-3300 // WhatsApp 46 3905 3311","E-mail":"adaparfnb@adapar.pr.gov.br","Circunscrição":"Francisco Beltrão, Marmeleiro, Enéas Marques e Renascença","Município":"Francisco Beltrão","ibge":"4108403","Checagem da coordenada":"no município declarado","Fonte":"https://www.adapar.pr.gov.br/Pagina/Escritorio-Regional-de-Francisco-Beltrao"},"geometry":{"type":"Point","coordinates":[-53.04948,-26.07488]}},{"type":"Feature","properties":{"Tipo":"Local","Nome":"Salgado Filho","Regional":"Francisco Beltrão","Endereço":"Rua Rui Barbosa, 156, Bairro Centro, Salgado Filho - PR","CEP":"85620-000","Telefone":"(46) 3564-1253","E-mail":"adaparslf@adapar.pr.gov.br","Circunscrição":"Flor da Serra do Sul, Manfrinópolis e Salgado Filho","Município":"Salgado Filho","ibge":"4122800","Checagem da coordenada":"endereço geocodificado (Nominatim)","Fonte":"https://www.adapar.pr.gov.br/Pagina/Escritorio-Regional-de-Francisco-Beltrao"},"geometry":{"type":"Point","coordinates":[-53.36188,-26.17672]}},{"type":"Feature","properties":{"Tipo":"Local","Nome":"Santo Antônio do Sudoeste","Regional":"Francisco Beltrão","Endereço":"Avenida Brasil, 864, Bairro Centro, Santo Antônio do Sudoeste - PR","CEP":"85710-000","Telefone":"(46) 3563-1471","E-mail":"adaparssu@adapar.pr.gov.br","Circunscrição":"Pinhal de São Bento, Pranchita, Pérola dÒeste e Santo Antônio do Sudoeste","Município":"Santo Antônio do Sudoeste","ibge":"4124400","Checagem da coordenada":"endereço geocodificado (Nominatim)","Fonte":"https://www.adapar.pr.gov.br/Pagina/Escritorio-Regional-de-Francisco-Beltrao"},"geometry":{"type":"Point","coordinates":[-53.72577,-26.0736]}},{"type":"Feature","properties":{"Tipo":"Regional","Nome":"Guarapuava","Regional":"Guarapuava","Chefe":"Médica Veterinária Marcia Maria Zago","Endereço":"Rua Vicente Machado, 1827, Centro, Guarapuava - PR","Telefone":"(42) 3303-2100","Município":"Guarapuava","ibge":"4109401","Checagem da coordenada":"no município declarado","Fonte":"https://www.adapar.pr.gov.br/Pagina/Escritorio-Regional-de-Guarapuava"},"geometry":{"type":"Point","coordinates":[-51.46655,-25.39327]}},{"type":"Feature","properties":{"Tipo":"Local","Nome":"Candói","Regional":"Guarapuava","Endereço":"Av. Newton Marcondes de Oliveira, 2605, Candói - PR","CEP":"85140-000","Telefone":"(42) 3638-2055","E-mail":"adaparcdi@adapar.pr.gov.br","Circunscrição":"Candói e Foz do Jordão","Município":"Candói","ibge":"4104428","Checagem da coordenada":"no município declarado","Fonte":"https://www.adapar.pr.gov.br/Pagina/Escritorio-Regional-de-Guarapuava"},"geometry":{"type":"Point","coordinates":[-52.04905,-25.57146]}},{"type":"Feature","properties":{"Tipo":"Local","Nome":"Cantagalo","Regional":"Guarapuava","Endereço":"Rua Santo Antônio, 290, Cantagalo - PR","CEP":"85160-000","Telefone":"(42) 3636-1553","E-mail":"adaparkgl@adapar.pr.gov.br","Circunscrição":"Cantagalo e Goioxim","Município":"Cantagalo","ibge":"4104451","Checagem da coordenada":"no município declarado","Fonte":"https://www.adapar.pr.gov.br/Pagina/Escritorio-Regional-de-Guarapuava"},"geometry":{"type":"Point","coordinates":[-52.12442,-25.37309]}},{"type":"Feature","properties":{"Tipo":"Local","Nome":"Guarapuava","Regional":"Guarapuava","Endereço":"Rua Vicente Machado, 1811, Centro, Guarapuava - PR","CEP":"85010-260","Telefone":"(42) 3303-2100 / (42) 3623-5298","E-mail":"adapargrp@adapar.pr.gov.br","Circunscrição":"Guarapuava","Município":"Guarapuava","ibge":"4109401","Checagem da coordenada":"no município declarado","Fonte":"https://www.adapar.pr.gov.br/Pagina/Escritorio-Regional-de-Guarapuava"},"geometry":{"type":"Point","coordinates":[-51.46655,-25.39327]}},{"type":"Feature","properties":{"Tipo":"Local","Nome":"Pinhão","Regional":"Guarapuava","Endereço":"Rua Sete de Setembro, 159 - Centro, Pinhão - PR","CEP":"85170-000","Telefone":"(42) 3677-2528","E-mail":"adaparpho@adapar.pr.gov.br","Circunscrição":"Pinhão e Reserva do Iguaçu","Município":"Pinhão","ibge":"4119301","Checagem da coordenada":"no município declarado","Fonte":"https://www.adapar.pr.gov.br/Pagina/Escritorio-Regional-de-Guarapuava"},"geometry":{"type":"Point","coordinates":[-51.66053,-25.69494]}},{"type":"Feature","properties":{"Tipo":"Local","Nome":"Prudentópolis","Regional":"Guarapuava","Endereço":"Rua Cel. João Pedro Martins, 1921 - Centro, Prudentópolis - PR","CEP":"84400-000","Telefone":"(42) 3446-4200","E-mail":"adaparpdt@adapar.pr.gov.br","Circunscrição":"Prudentópolis","Município":"Prudentópolis","ibge":"4120606","Checagem da coordenada":"endereço geocodificado (Nominatim)","Fonte":"https://www.adapar.pr.gov.br/Pagina/Escritorio-Regional-de-Guarapuava"},"geometry":{"type":"Point","coordinates":[-50.97735,-25.22219]}},{"type":"Feature","properties":{"Tipo":"Local","Nome":"Turvo","Regional":"Guarapuava","Endereço":"Rua Elias Rickli, 475 - Centro, Turvo - PR","Telefone":"(42) 3642-1075","CEP":"85150-000","E-mail":"adapartuo@adapar.pr.gov.br","Circunscrição":"Campina do Simão e Turvo","Município":"Turvo","ibge":"4127965","Checagem da coordenada":"endereço geocodificado (Nominatim)","Fonte":"https://www.adapar.pr.gov.br/Pagina/Escritorio-Regional-de-Guarapuava"},"geometry":{"type":"Point","coordinates":[-51.5373,-25.04398]}},{"type":"Feature","properties":{"Tipo":"Regional","Nome":"Irati","Regional":"Irati","Chefe":"Engenheiro Agrônomo Roberto Chueire Vieira","Endereço":"Rua Dezenove de Dezembro, 566 - Centro - Irati - PR","CEP":"84500-016","Telefone":"(42) 3422-4761","Município":"Irati","ibge":"4110706","Checagem da coordenada":"no município declarado","Fonte":"https://www.adapar.pr.gov.br/Pagina/Escritorio-Regional-de-Irati"},"geometry":{"type":"Point","coordinates":[-50.64975,-25.4641]}},{"type":"Feature","properties":{"Tipo":"Local","Nome":"Imbituva","Regional":"Irati","Endereço":"Rua Sete de Setembro, 77, Imbituva - PR","CEP":"84430-000","Telefone":"(42) 3436-1921","E-mail":"adapariuv@adapar.pr.gov.br","Circunscrição":"Guamiranga, Imbituva e Ivaí","Município":"Imbituva","ibge":"4110102","Checagem da coordenada":"centro da busca do link do mapa (vizinhança)","Fonte":"https://www.adapar.pr.gov.br/Pagina/Escritorio-Regional-de-Irati"},"geometry":{"type":"Point","coordinates":[-50.6053,-25.23123]}},{"type":"Feature","properties":{"Tipo":"Local","Nome":"Irati","Regional":"Irati","Endereço":"Rua Dezenove de Dezembro, 566 - Centro - Irati - PR","CEP":"84500-004","Telefone":"(42) 3422-7554","E-mail":"adapariri@adapar.pr.gov.br","Circunscrição":"Inácio Martins e Irati","Município":"Irati","ibge":"4110706","Checagem da coordenada":"no município declarado","Fonte":"https://www.adapar.pr.gov.br/Pagina/Escritorio-Regional-de-Irati"},"geometry":{"type":"Point","coordinates":[-50.65169,-25.47073]}},{"type":"Feature","properties":{"Tipo":"Local","Nome":"Rio Azul","Regional":"Irati","Endereço":"Rua Expedicionário Antonio Cação, 109, Rio Azul - PR","CEP":"84560-000","Telefone":"(42) 3463-1560","E-mail":"adaparrzl@adapar.pr.gov.br","Circunscrição":"Mallet, Rebouças e Rio Azul","Município":"Rio Azul","ibge":"4122008","Checagem da coordenada":"no município declarado","Fonte":"https://www.adapar.pr.gov.br/Pagina/Escritorio-Regional-de-Irati"},"geometry":{"type":"Point","coordinates":[-50.7908,-25.72419]}},{"type":"Feature","properties":{"Tipo":"Local","Nome":"Teixeira Soares","Regional":"Irati","Endereço":"Rua Souza Naves 279 - Anexo nova Rodoviaria, Teixeira Soares- PR","CEP":"84530-000","Telefone":"(42)3460-1830","E-mail":"adapartex@adapar.pr.gov.br","Circunscrição":"Fernandes Pinheiro e Teixeira Soares","Município":"Teixeira Soares","ibge":"4127007","Checagem da coordenada":"no município declarado","Fonte":"https://www.adapar.pr.gov.br/Pagina/Escritorio-Regional-de-Irati"},"geometry":{"type":"Point","coordinates":[-50.46082,-25.37515]}},{"type":"Feature","properties":{"Tipo":"Regional","Nome":"Ivaiporã","Regional":"Ivaiporã","Chefe":"Médica Veterinária Maria Andreola","Endereço":"Av. Souza Naves, 2410, Ivaiporã - PR","CEP":"86870-000","Telefone":"(43) 3472-8369 / (43) 3472-8363","Município":"Ivaiporã","ibge":"4111506","Checagem da coordenada":"endereço geocodificado (Nominatim)","Fonte":"https://www.adapar.pr.gov.br/Pagina/Escritorio-Regional-de-Ivaipora"},"geometry":{"type":"Point","coordinates":[-51.67328,-24.25447]}},{"type":"Feature","properties":{"Tipo":"Local","Nome":"Faxinal","Regional":"Ivaiporã","Endereço":"Rua Ismael Pinto Siqueira, 1179, Faxinal - PR","CEP":"86840-000","Telefone":"(43) 3461-2205","E-mail":"adaparfxl@adapar.pr.gov.br","Circunscrição":"Borrazópolis, Cruzmaltina e Faxinal","Município":"Faxinal","ibge":"4107603","Checagem da coordenada":"no município declarado","Fonte":"https://www.adapar.pr.gov.br/Pagina/Escritorio-Regional-de-Ivaipora"},"geometry":{"type":"Point","coordinates":[-51.32048,-23.9991]}},{"type":"Feature","properties":{"Tipo":"Local","Nome":"Grandes Rios","Regional":"Ivaiporã","Endereço":"Avenida Brasil, s/n, Praça Marli Elizabete Nascimento, Grandes Rios - PR","CEP":"86845-000","Telefone":"(43) 3474-1357","E-mail":"adapargde@adapar.pr.gov.br","Circunscrição":"Grandes Rios, Rio Branco do Ivaí e Rosário de Ivaí","Município":"Grandes Rios","ibge":"4108700","Checagem da coordenada":"centro da busca do link do mapa (vizinhança)","Fonte":"https://www.adapar.pr.gov.br/Pagina/Escritorio-Regional-de-Ivaipora"},"geometry":{"type":"Point","coordinates":[-51.50631,-24.14499]}},{"type":"Feature","properties":{"Tipo":"Local","Nome":"Ivaiporã","Regional":"Ivaiporã","Endereço":"Avenida Souza Naves, 2410, Ivaiporã - PR","CEP":"86870-000","Telefone":"(43) 3472-8365 / (43) 3472-8370","E-mail":"adaparivp@adapar.pr.gov.br","Circunscrição":"Arapuã, Ariranha do Ivaí, Ivaiporã, Jardim Alegre e Lidianópolis","Município":"Ivaiporã","ibge":"4111506","Checagem da coordenada":"endereço geocodificado (Nominatim)","Fonte":"https://www.adapar.pr.gov.br/Pagina/Escritorio-Regional-de-Ivaipora"},"geometry":{"type":"Point","coordinates":[-51.67328,-24.25447]}},{"type":"Feature","properties":{"Tipo":"Local","Nome":"São João do Ivaí","Regional":"Ivaiporã","Endereço":"Avenida Curitiba, 589, São João do Ivaí - PR","CEP":"86930-000","Telefone":"(43) 3477-1882","E-mail":"adaparsji@adapar.pr.gov.br","Circunscrição":"Godoy Moreira, Lunardelli, São João do Ivaí e São Pedro do Ivaí","Município":"São João do Ivaí","ibge":"4125001","Checagem da coordenada":"endereço geocodificado (Nominatim)","Fonte":"https://www.adapar.pr.gov.br/Pagina/Escritorio-Regional-de-Ivaipora"},"geometry":{"type":"Point","coordinates":[-51.81936,-23.99163]}},{"type":"Feature","properties":{"Tipo":"Regional","Nome":"Jacarezinho","Regional":"Jacarezinho","Chefe":"Engenheiro Agrônomo Mario Roberto Ferri","Endereço":"Rua do Rosário, 641, Jacarezinho - PR","CEP":"86400-000","Telefone":"(43) 3525-7724 / 3525-2627","Município":"Jacarezinho","ibge":"4111803","Checagem da coordenada":"endereço geocodificado (Nominatim)","Fonte":"https://www.adapar.pr.gov.br/Pagina/Escritorio-Regional-de-Jacarezinho"},"geometry":{"type":"Point","coordinates":[-49.97203,-23.15856]}},{"type":"Feature","properties":{"Tipo":"Local","Nome":"Ibaiti","Regional":"Jacarezinho","Endereço":"Rua Teófilo Marques Silveira , 212 - Centro, Ibaiti - PR","CEP":"84900-000","Telefone":"(43) 3546-2650 // (43) 3546-3711","E-mail":"adaparibt@adapar.pr.gov.br","Circunscrição":"Ibaiti, Jaboti, Japira, Figueira, Curiúva e Pinhalão","Município":"Ibaiti","ibge":"4109708","Checagem da coordenada":"centro da busca do link do mapa (vizinhança)","Fonte":"https://www.adapar.pr.gov.br/Pagina/Escritorio-Regional-de-Jacarezinho"},"geometry":{"type":"Point","coordinates":[-50.18297,-23.85978]}},{"type":"Feature","properties":{"Tipo":"Local","Nome":"Jacarezinho","Regional":"Jacarezinho","Endereço":"Rua do Rosário, 641, Jacarezinho - PR","CEP":"86400-000","Telefone":"(43) 3525-5049 / (43) 3525-1557","E-mail":"adaparjca@adapar.pr.gov.br","Circunscrição":"Barra do Jacaré, Cambará, Jacarezinho e Ribeirão Claro","Município":"Jacarezinho","ibge":"4111803","Checagem da coordenada":"endereço geocodificado (Nominatim)","Fonte":"https://www.adapar.pr.gov.br/Pagina/Escritorio-Regional-de-Jacarezinho"},"geometry":{"type":"Point","coordinates":[-49.97203,-23.15856]}},{"type":"Feature","properties":{"Tipo":"Local","Nome":"Joaquim Távora","Regional":"Jacarezinho","Endereço":"Avenida Paraná, 57 - Centro - Joaquim Távora - PR","CEP":"86550-000","Telefone":"(43) 3559-1872","E-mail":"adaparjqa@adapar.pr.gov.br","Circunscrição":"Carlópolis, Joaquim Távora e Quatiguá","Município":"Joaquim Távora","ibge":"4112801","Checagem da coordenada":"no município declarado","Fonte":"https://www.adapar.pr.gov.br/Pagina/Escritorio-Regional-de-Jacarezinho"},"geometry":{"type":"Point","coordinates":[-49.92355,-23.5033]}},{"type":"Feature","properties":{"Tipo":"Local","Nome":"Santo Antônio da Platina","Regional":"Jacarezinho","Endereço":"Avenida José Palma Rennó, 1325 - Rennó Park - Santo Antônio da Platina - PR","CEP":"86430-000","Telefone":"(43) 3534-3391 / (43) 3534-3365","E-mail":"adaparsnp@adapar.pr.gov.br","Circunscrição":"Conselheiro Mairinck, Guapirama, Jundiaí do Sul e Santo Antônio da Platina","Município":"Santo Antônio da Platina","ibge":"4124103","Checagem da coordenada":"endereço geocodificado (Nominatim)","Fonte":"https://www.adapar.pr.gov.br/Pagina/Escritorio-Regional-de-Jacarezinho"},"geometry":{"type":"Point","coordinates":[-50.09216,-23.30463]}},{"type":"Feature","properties":{"Tipo":"Local","Nome":"Siqueira Campos","Regional":"Jacarezinho","Endereço":"Rua Benjamin Constant, 1889, Centro, Siqueira Campos - PR","CEP":"84940-000","Telefone":"(43) 3571-2045 / (43) 3571-1923","E-mail":"adaparsqc@adapar.pr.gov.br","Circunscrição":"Salto do Itararé, Siqueira Campos, Tomazina","Município":"Siqueira Campos","ibge":"4126603","Checagem da coordenada":"no município declarado","Fonte":"https://www.adapar.pr.gov.br/Pagina/Escritorio-Regional-de-Jacarezinho"},"geometry":{"type":"Point","coordinates":[-49.83429,-23.68672]}},{"type":"Feature","properties":{"Tipo":"Local","Nome":"Wenceslau Braz","Regional":"Jacarezinho","Endereço":"Rua Frei Damião, 36 - Vila Santo Antonio, Wenceslau Braz - PR","CEP":"84950-000","Telefone":"(43) 3528-2472","E-mail":"adaparwbz@adapar.pr.gov.br","Circunscrição":"Santana do Itararé, São José da Boa Vista e Wenceslau Braz","Município":"Wenceslau Braz","ibge":"4128500","Checagem da coordenada":"no município declarado","Fonte":"https://www.adapar.pr.gov.br/Pagina/Escritorio-Regional-de-Jacarezinho"},"geometry":{"type":"Point","coordinates":[-49.80433,-23.87314]}},{"type":"Feature","properties":{"Tipo":"Regional","Nome":"Laranjeiras do Sul","Regional":"Laranjeiras do Sul","Chefe":"Engenheira Agrônoma Cristiane do Rocio Kruger","Endereço":"Avenida Santos Dumond n° 2341. Laranjeiras do Sul - PR","CEP":"85.301.040","Telefone":"(42) 3635-5731","E-mail":"urslaranjeirasdosul@adapar.pr.gov.br","Município":"Laranjeiras do Sul","ibge":"4113304","Checagem da coordenada":"no município declarado","Fonte":"https://www.adapar.pr.gov.br/Pagina/Escritorio-Regional-de-Laranjeiras-do-Sul"},"geometry":{"type":"Point","coordinates":[-52.41408,-25.40675]}},{"type":"Feature","properties":{"Tipo":"Local","Nome":"Laranjeiras do Sul","Regional":"Laranjeiras do Sul","Endereço":"Avenida Santos Dumond n° 2341 . Laranjeiras do Sul - PR","CEP":"85301-040","Telefone":"( 42) 3635-1181","E-mail":"adaparnlj@adapar.pr.gov.br","Circunscrição":"Laranjeiras do Sul, Marquinho, Virmond","Município":"Laranjeiras do Sul","ibge":"4113304","Checagem da coordenada":"sem coordenada no site: ponto no centro do município","Fonte":"https://www.adapar.pr.gov.br/Pagina/Escritorio-Regional-de-Laranjeiras-do-Sul"},"geometry":{"type":"Point","coordinates":[-52.37751,-25.31604]}},{"type":"Feature","properties":{"Tipo":"Local","Nome":"Nova Laranjeiras","Regional":"Laranjeiras do Sul","Endereço":"Rua Rio Grande do Sul, S/N, Nova Laranjeiras - PR","CEP":"85350-000","Telefone":"(42) 3637-1491","E-mail":"adaparnlj@adapar.pr.gov.br","Circunscrição":"Nova Laranjeiras","Município":"Nova Laranjeiras","ibge":"4117057","Checagem da coordenada":"no município declarado","Fonte":"https://www.adapar.pr.gov.br/Pagina/Escritorio-Regional-de-Laranjeiras-do-Sul"},"geometry":{"type":"Point","coordinates":[-52.53326,-25.31074]}},{"type":"Feature","properties":{"Tipo":"Local","Nome":"Quedas do Iguaçu","Regional":"Laranjeiras do Sul","Endereço":"Jacaranda, 387, Centro, Quedas do Iguaçu - PR","CEP":"85460-000","Telefone":"(46) 3532-1195","E-mail":"adaparqig@adapar.pr.gov.br","Circunscrição":"Espigão Alto do Iguaçu e Quedas do Iguaçu","Município":"Quedas do Iguaçu","ibge":"4120903","Checagem da coordenada":"endereço geocodificado (Nominatim)","Fonte":"https://www.adapar.pr.gov.br/Pagina/Escritorio-Regional-de-Laranjeiras-do-Sul"},"geometry":{"type":"Point","coordinates":[-52.91266,-25.4562]}},{"type":"Feature","properties":{"Tipo":"Local","Nome":"Rio Bonito do Iguaçu","Regional":"Laranjeiras do Sul","Endereço":"Rua Sete de Setembro, 653, Rio Bonito do Iguaçu- PR","CEP":"85340-000","Telefone":"(42) 3653-1969","E-mail":"adaparrbi@adapar.pr.gov.br","Circunscrição":"Porto Barreiro e Rio Bonito do Iguaçu","Município":"Rio Bonito do Iguaçu","ibge":"4122156","Checagem da coordenada":"endereço geocodificado (Nominatim)","Fonte":"https://www.adapar.pr.gov.br/Pagina/Escritorio-Regional-de-Laranjeiras-do-Sul"},"geometry":{"type":"Point","coordinates":[-52.52486,-25.49036]}},{"type":"Feature","properties":{"Tipo":"Local","Nome":"Guaraniaçu","Regional":"Laranjeiras do Sul","Endereço":"Rua José Humberto Fernandes, 740 - CEP: 85.400-000. Guaraniaçu - PR","CEP":"85400-000","Telefone":"( 45) 3232-1494","E-mail":"adapargnu@adapar.pr.gov.br","Circunscrição":"Guaraniaçu, Diamante do Sul","Município":"Guaraniaçu","ibge":"4109302","Checagem da coordenada":"endereço geocodificado (Nominatim)","Fonte":"https://www.adapar.pr.gov.br/Pagina/Escritorio-Regional-de-Laranjeiras-do-Sul"},"geometry":{"type":"Point","coordinates":[-52.8678,-25.09899]}},{"type":"Feature","properties":{"Tipo":"Regional","Nome":"Londrina","Regional":"Londrina","Chefe":"Médico Veterinário Marcelo Takeo Matsubara","Endereço":"Rod. Celso Garcia Cid, 375 - Conj. Ernani Moura Lima II, Londrina - PR","CEP":"86.047-902","Telefone":"(43) 2104-7900","Município":"Londrina","ibge":"4113700","Checagem da coordenada":"no município declarado","Fonte":"https://www.adapar.pr.gov.br/Pagina/Escritorio-Regional-de-Londrina"},"geometry":{"type":"Point","coordinates":[-51.16194,-23.35564]}},{"type":"Feature","properties":{"Tipo":"Local","Nome":"Bela Vista do Paraíso","Regional":"Londrina","Endereço":"Avenida Paraná, 31, Centro, Bela Vista do Paraíso - PR","CEP":"86130-000","Telefone":"(43) 3242-2124 (linha Prefeitura Municipal)","E-mail":"adaparbvp@adapar.pr.gov.br","Circunscrição":"Alvorada do Sul, Bela Vista do Paraíso e Primeiro de Maio","Município":"Bela Vista do Paraíso","ibge":"4102802","Checagem da coordenada":"endereço geocodificado (Nominatim)","Fonte":"https://www.adapar.pr.gov.br/Pagina/Escritorio-Regional-de-Londrina"},"geometry":{"type":"Point","coordinates":[-51.19354,-23.00386]}},{"type":"Feature","properties":{"Tipo":"Local","Nome":"Centenário do Sul","Regional":"Londrina","Endereço":"Rua Sulaiman Felício, 452, Centro, Centenário do Sul - PR","CEP":"86630-000","Telefone":"(43) 3675-3017","E-mail":"adaparcul@adapar.pr.gov.br","Circunscrição":"Cafeara, Centenário do Sul, Guaraci e Lupionópolis","Município":"Centenário do Sul","ibge":"4105102","Checagem da coordenada":"no município declarado","Fonte":"https://www.adapar.pr.gov.br/Pagina/Escritorio-Regional-de-Londrina"},"geometry":{"type":"Point","coordinates":[-51.59775,-22.81902]}},{"type":"Feature","properties":{"Tipo":"Local","Nome":"Londrina","Regional":"Londrina","Endereço":"Rod. Celso Garcia Cid, 375 - Conj. Ernani Moura Lima II, Londrina - PR","CEP":"86.047-902","Telefone":"(43) 2104-7921","E-mail":"adaparlda@adapar.pr.gov.br","Circunscrição":"Londrina e Tamarana","Município":"Londrina","ibge":"4113700","Checagem da coordenada":"endereço geocodificado (Nominatim)","Fonte":"https://www.adapar.pr.gov.br/Pagina/Escritorio-Regional-de-Londrina"},"geometry":{"type":"Point","coordinates":[-51.14529,-23.36387]}},{"type":"Feature","properties":{"Tipo":"Local","Nome":"Porecatu","Regional":"Londrina","Endereço":"Rua Presidente Kennedy, 233, Porecatu - PR","CEP":"86160-000","Telefone":"(43) 3623-2842","E-mail":"adaparpru@adapar.pr.gov.br","Circunscrição":"Florestópolis, Mirasselva, Porecatu e Prado Ferreira","Município":"Porecatu","ibge":"4120002","Checagem da coordenada":"no município declarado","Fonte":"https://www.adapar.pr.gov.br/Pagina/Escritorio-Regional-de-Londrina"},"geometry":{"type":"Point","coordinates":[-51.37952,-22.75679]}},{"type":"Feature","properties":{"Tipo":"Local","Nome":"Rolândia","Regional":"Londrina","Endereço":"Avenida dos Expedicionários, 610, Centro, Rolândia - PR","CEP":"86600-000","Telefone":"(43) 3256-3354 (Prefeitura Municipal)","E-mail":"adaparrla@adapar.pr.gov.br","Circunscrição":"Cambé, Jaguapitã e Rolândia","Município":"Rolândia","ibge":"4122404","Checagem da coordenada":"endereço geocodificado (Nominatim)","Fonte":"https://www.adapar.pr.gov.br/Pagina/Escritorio-Regional-de-Londrina"},"geometry":{"type":"Point","coordinates":[-51.35819,-23.32275]}},{"type":"Feature","properties":{"Tipo":"Local","Nome":"Sertanópolis","Regional":"Londrina","Endereço":"Rua Senador Souza Naves, 609 - Centro, Sertanópolis - PR","CEP":"86170-000","Telefone":"(43) 3232-5047","E-mail":"adaparsos@adapar.pr.gov.br","Circunscrição":"Ibiporã e Sertanópolis","Município":"Sertanópolis","ibge":"4126504","Checagem da coordenada":"no município declarado","Fonte":"https://www.adapar.pr.gov.br/Pagina/Escritorio-Regional-de-Londrina"},"geometry":{"type":"Point","coordinates":[-51.04354,-23.05764]}},{"type":"Feature","properties":{"Tipo":"Regional","Nome":"Maringá","Regional":"Maringá","Chefe":"Médica Veterinária Ana Paula Moser","Endereço":"Rua Arthur Thomas, 368, Zona 1 - Maringá","CEP":"87013-250","Telefone":"(44) 2103-5880","Município":"Maringá","ibge":"4115200","Checagem da coordenada":"rua geocodificada sem o número (Nominatim)","Fonte":"https://www.adapar.pr.gov.br/Pagina/Escritorio-Regional-de-Maringa"},"geometry":{"type":"Point","coordinates":[-51.93692,-23.42469]}},{"type":"Feature","properties":{"Tipo":"Local","Nome":"Astorga","Regional":"Maringá","Endereço":"Rua Pará, 333, Centro, Astorga - PR","CEP":"86730-000","Telefone":"(44) 3234-3336","E-mail":"adaparatg@adapar.pr.gov.br","Circunscrição":"Ângulo, Astorga, Flórida, Iguaraçu, Munhoz de Melo, Pitangueiras e Santa Fé","Município":"Astorga","ibge":"4102109","Checagem da coordenada":"endereço geocodificado (Nominatim)","Fonte":"https://www.adapar.pr.gov.br/Pagina/Escritorio-Regional-de-Maringa"},"geometry":{"type":"Point","coordinates":[-51.66288,-23.24311]}},{"type":"Feature","properties":{"Tipo":"Local","Nome":"Colorado","Regional":"Maringá","Endereço":"Rua Santa Catarina, 325, Colorado - PR","CEP":"86690-000","Telefone":"(44) 3323-2150","E-mail":"adaparclo@adapar.pr.gov.br","Circunscrição":"Colorado, Itaguajé, Lobato, Nossa Senhora das Graças, Santa Inês e Santo Inácio","Município":"Colorado","ibge":"4105904","Checagem da coordenada":"no município declarado","Fonte":"https://www.adapar.pr.gov.br/Pagina/Escritorio-Regional-de-Maringa"},"geometry":{"type":"Point","coordinates":[-51.97689,-22.83668]}},{"type":"Feature","properties":{"Tipo":"Local","Nome":"Mandaguaçu","Regional":"Maringá","Endereço":"Rua Juventino Baraldi, 203, Mandaguaçu - PR","CEP":"87160-000","Telefone":"(44) 3245-4448","E-mail":"adaparmgc@adapar.pr.gov.br","Circunscrição":"Mandaguaçu, Ourizona, e São Jorge do Ivaí","Município":"Mandaguaçu","ibge":"4114104","Checagem da coordenada":"endereço geocodificado (Nominatim)","Fonte":"https://www.adapar.pr.gov.br/Pagina/Escritorio-Regional-de-Maringa"},"geometry":{"type":"Point","coordinates":[-52.09557,-23.35159]}},{"type":"Feature","properties":{"Tipo":"Local","Nome":"Mandaguari","Regional":"Maringá","Endereço":"Rua Padre Antônio Lock, 515, Mandaguari - PR","CEP":"86975-000","Telefone":"(44) 3233-0241","E-mail":"adaparmdg@adapar.pr.gov.br","Circunscrição":"Mandaguari e Marialva","Município":"Mandaguari","ibge":"4114203","Checagem da coordenada":"endereço geocodificado (Nominatim)","Fonte":"https://www.adapar.pr.gov.br/Pagina/Escritorio-Regional-de-Maringa"},"geometry":{"type":"Point","coordinates":[-51.66827,-23.52336]}},{"type":"Feature","properties":{"Tipo":"Local","Nome":"Maringá","Regional":"Maringá","Endereço":"Rua Artur Thomas, 410, Maringá - PR","CEP":"87013-250","Telefone":"(44) 2103-5850","E-mail":"adaparmga@adapar.pr.gov.br","Circunscrição":"Doutor Camargo, Floresta, Itambé, Ivatuba, Maringá, Paiçandu e Sarandi","Município":"Maringá","ibge":"4115200","Checagem da coordenada":"sem coordenada no site: ponto no centro do município","Fonte":"https://www.adapar.pr.gov.br/Pagina/Escritorio-Regional-de-Maringa"},"geometry":{"type":"Point","coordinates":[-51.97055,-23.40536]}},{"type":"Feature","properties":{"Tipo":"Local","Nome":"Nova Esperança","Regional":"Maringá","Endereço":"Av. Brasil, 656, Nova Esperança - PR","CEP":"87600-000","Telefone":"(44) 3252-1065","E-mail":"adaparnea@adapar.pr.gov.br","Circunscrição":"Atalaia, Floraí, Nova Esperança, Presidente Castelo Branco e Uniflor","Município":"Nova Esperança","ibge":"4116901","Checagem da coordenada":"endereço geocodificado (Nominatim)","Fonte":"https://www.adapar.pr.gov.br/Pagina/Escritorio-Regional-de-Maringa"},"geometry":{"type":"Point","coordinates":[-52.20465,-23.18181]}},{"type":"Feature","properties":{"Tipo":"Regional","Nome":"Paranaguá","Regional":"Paranaguá","Chefe":"Médico Veterinário Elio Ricardo Creddo","Endereço":"Avenida Coronel José Lobo, 218, Oceania, Paranaguá - PR","CEP":"83203-280","Telefone":"(41) 2152-6350","Município":"Paranaguá","ibge":"4118204","Checagem da coordenada":"sem coordenada no site: ponto no centro do município","Fonte":"https://www.adapar.pr.gov.br/Pagina/Escritorio-Regional-de-Paranagua"},"geometry":{"type":"Point","coordinates":[-48.50262,-25.56211]}},{"type":"Feature","properties":{"Tipo":"Local","Nome":"Antonina","Regional":"Paranaguá","Endereço":"Avenida Thiago Peixoto, 687, Batel, Antonina - PR","CEP":"83370-000","Telefone":"(41) 3432-4384","E-mail":"adaparaon@adapar.pr.gov.br","Circunscrição":"Antonina, Guaraqueçaba","Município":"Antonina","ibge":"4101200","Checagem da coordenada":"no município declarado","Fonte":"https://www.adapar.pr.gov.br/Pagina/Escritorio-Regional-de-Paranagua"},"geometry":{"type":"Point","coordinates":[-48.7113,-25.43063]}},{"type":"Feature","properties":{"Tipo":"Local","Nome":"Guaratuba","Regional":"Paranaguá","Endereço":"Rua Joaquim Menelau de Almeida Torres, 234, Cohapar, Guaratuba. - PR","CEP":"83280-000","Telefone":"(41) 3472-1003","E-mail":"adaparuba@adapar.pr.gov.br","Circunscrição":"Guaratuba","Município":"Guaratuba","ibge":"4109609","Checagem da coordenada":"sem coordenada no site: ponto no centro do município","Fonte":"https://www.adapar.pr.gov.br/Pagina/Escritorio-Regional-de-Paranagua"},"geometry":{"type":"Point","coordinates":[-48.72491,-25.79532]}},{"type":"Feature","properties":{"Tipo":"Local","Nome":"Paranaguá","Regional":"Paranaguá","Endereço":"Avenida Coronel José Lobo, 218, Oceania, Paranaguá - PR","CEP":"83203-280","Telefone":"(41) 2152-6350","E-mail":"adaparpng@adapar.pr.gov.br","Circunscrição":"Matinhos, Morretes, Paranaguá e Pontal do Paraná","Município":"Paranaguá","ibge":"4118204","Checagem da coordenada":"sem coordenada no site: ponto no centro do município","Fonte":"https://www.adapar.pr.gov.br/Pagina/Escritorio-Regional-de-Paranagua"},"geometry":{"type":"Point","coordinates":[-48.50262,-25.56211]}},{"type":"Feature","properties":{"Tipo":"Regional","Nome":"Paranavaí","Regional":"Paranavaí","Chefe":"Médico Veterinário Eduardo Hiroyuki Hamada","Endereço":"Rua Antônio Felipe, 2686, Paranavaí - PR","CEP":"87704-030","Telefone":"(44) 3421-1450","Município":"Paranavaí","ibge":"4118402","Checagem da coordenada":"no município declarado","Fonte":"https://www.adapar.pr.gov.br/Pagina/Escritorio-Regional-de-Paranavai"},"geometry":{"type":"Point","coordinates":[-52.4481,-23.07203]}},{"type":"Feature","properties":{"Tipo":"Local","Nome":"Loanda","Regional":"Paranavaí","Endereço":"Rua Minas Gerais, s/n, (anexo a prefeitura) - Loanda - PR","CEP":"87900-000","Telefone":"(44) 3425-1401","E-mail":"adaparlnd@adapar.pr.gov.br","Circunscrição":"Loanda, Planaltina do Paraná, Santa Isabel do Ivaí, Santa Mônica e São Pedro do Paraná","Município":"Loanda","ibge":"4113502","Checagem da coordenada":"centro da busca do link do mapa (vizinhança)","Fonte":"https://www.adapar.pr.gov.br/Pagina/Escritorio-Regional-de-Paranavai"},"geometry":{"type":"Point","coordinates":[-53.13945,-22.92279]}},{"type":"Feature","properties":{"Tipo":"Local","Nome":"Nova Londrina","Regional":"Paranavaí","Endereço":"Avenida Itio Kondo, 735, Nova Londrina - PR","CEP":"87970-000","E-mail":"adaparnld@adapar.pr.gov.br","Circunscrição":"Diamante do Norte, Itaúna do Sul, Marilena e Nova Londrina","Telefone":"(44) 3429-1255","Município":"Nova Londrina","ibge":"4117107","Checagem da coordenada":"endereço geocodificado (Nominatim)","Fonte":"https://www.adapar.pr.gov.br/Pagina/Escritorio-Regional-de-Paranavai"},"geometry":{"type":"Point","coordinates":[-52.99252,-22.76357]}},{"type":"Feature","properties":{"Tipo":"Local","Nome":"Paraíso do Norte","Regional":"Paranavaí","Endereço":"Avenida Tapejara, 1000, Paraíso do Norte - PR","CEP":"87780-000","Telefone":"(44) 3431-1538","E-mail":"adaparpio@adapar.pr.gov.br","Circunscrição":"Mirador, Nova Aliança do Ivaí, Paraíso do Norte, São Carlos do Ivaí e Tamboara","Município":"Paraíso do Norte","ibge":"4118006","Checagem da coordenada":"endereço geocodificado (Nominatim)","Fonte":"https://www.adapar.pr.gov.br/Pagina/Escritorio-Regional-de-Paranavai"},"geometry":{"type":"Point","coordinates":[-52.6054,-23.29032]}},{"type":"Feature","properties":{"Tipo":"Local","Nome":"Paranacity","Regional":"Paranavaí","Endereço":"Avenida Brasil, 1352, Paranacity - PR","CEP":"87660-000","Telefone":"(44) 3463-1221 / 3463-2426","E-mail":"adaparpiy@adapar.pr.gov.br","Circunscrição":"Cruzeiro do Sul, Inajá, Jardim Olinda, Paranacity e Paranapoema","Município":"Paranacity","ibge":"4118105","Checagem da coordenada":"endereço geocodificado (Nominatim)","Fonte":"https://www.adapar.pr.gov.br/Pagina/Escritorio-Regional-de-Paranavai"},"geometry":{"type":"Point","coordinates":[-52.16095,-22.92589]}},{"type":"Feature","properties":{"Tipo":"Local","Nome":"Paranavaí","Regional":"Paranavaí","Endereço":"Rua Manoel Ribas, 331 - Centro, Paranavaí - PR","CEP":"87701-000","E-mail":"adaparpva@adapar.pr.gov.br","Circunscrição":"Alto Paraná, Amaporã, São João do Caiuá e Paranavaí","Município":"Paranavaí","ibge":"4118402","Checagem da coordenada":"endereço geocodificado (Nominatim)","Fonte":"https://www.adapar.pr.gov.br/Pagina/Escritorio-Regional-de-Paranavai"},"geometry":{"type":"Point","coordinates":[-52.45101,-23.07589]}},{"type":"Feature","properties":{"Tipo":"Local","Nome":"Querência do Norte","Regional":"Paranavaí","Endereço":"Josep Capeleto, 1414, Querência do Norte - PR","CEP":"87930-000","E-mail":"adaparqne@adapar.pr.gov.br","Circunscrição":"Querência do Norte","Telefone":"(44) 3462-1436","Município":"Querência do Norte","ibge":"4121000","Checagem da coordenada":"no município declarado","Fonte":"https://www.adapar.pr.gov.br/Pagina/Escritorio-Regional-de-Paranavai"},"geometry":{"type":"Point","coordinates":[-53.48906,-23.08424]}},{"type":"Feature","properties":{"Tipo":"Local","Nome":"Terra Rica","Regional":"Paranavaí","Endereço":"Av. Claudio Domingos Soletti, 1120 - Terra Rica - PR - Anexo prefeitura","CEP":"87890-000","Telefone":"(44) 3441-1744","E-mail":"adapartra@adapar.pr.gov.br","Circunscrição":"Guairaçá, Terra Rica e Santo Antônio do Caiuá","Município":"Terra Rica","ibge":"4127304","Checagem da coordenada":"sem coordenada no site: ponto no centro do município","Fonte":"https://www.adapar.pr.gov.br/Pagina/Escritorio-Regional-de-Paranavai"},"geometry":{"type":"Point","coordinates":[-52.69522,-22.71931]}},{"type":"Feature","properties":{"Tipo":"Regional","Nome":"Pato Branco","Regional":"Pato Branco","Chefe":"Engenheiro Agrônomo Pedro Castro Tondo","Endereço":"Rua Silveira Martins, 456, Pato Branco - PR","CEP":"85.504-018","Telefone":"(46) 3309-2122","Município":"Pato Branco","ibge":"4118501","Checagem da coordenada":"endereço geocodificado (Nominatim)","Fonte":"https://www.adapar.pr.gov.br/Pagina/Escritorio-Regional-de-Pato-Branco"},"geometry":{"type":"Point","coordinates":[-52.67169,-26.21675]}},{"type":"Feature","properties":{"Tipo":"Local","Nome":"Chopinzinho","Regional":"Pato Branco","Endereço":"Rua Presidente Dutra, 4262 - Sala 01. Edifício São Francisco - Centro - Chopinzinho - PR","CEP":"85560-000","Telefone":"(46) 3242-2902","E-mail":"adaparchz@adapar.pr.gov.br","Circunscrição":"Chopinzinho, São João, Saudade do Iguaçu e Sulina","Município":"Chopinzinho","ibge":"4105409","Checagem da coordenada":"no município declarado","Fonte":"https://www.adapar.pr.gov.br/Pagina/Escritorio-Regional-de-Pato-Branco"},"geometry":{"type":"Point","coordinates":[-52.52963,-25.85615]}},{"type":"Feature","properties":{"Tipo":"Local","Nome":"Clevelândia","Regional":"Pato Branco","Endereço":"Rua Doutor Francisco Beltrão 667 ,Centro, Clevelândia - PR","CEP":"85530-000","Telefone":"(46) 3252-1456","E-mail":"adaparcld@adapar.pr.gov.br","Circunscrição":"Clevelândia e Mariópolis","Município":"Clevelândia","ibge":"4105706","Checagem da coordenada":"endereço geocodificado (Nominatim)","Fonte":"https://www.adapar.pr.gov.br/Pagina/Escritorio-Regional-de-Pato-Branco"},"geometry":{"type":"Point","coordinates":[-52.35538,-26.4068]}},{"type":"Feature","properties":{"Tipo":"Local","Nome":"Coronel Vivida","Regional":"Pato Branco","Endereço":"Rua Sete de Setembro, 62, Coronel Vivida - PR","CEP":"85550-000","Telefone":"(46) 3232-3669","E-mail":"adaparcvv@adapar.pr.gov.br","Circunscrição":"Coronel Vivida, Honório Serpa e Mangueirinha","Município":"Coronel Vivida","ibge":"4106506","Checagem da coordenada":"no município declarado","Fonte":"https://www.adapar.pr.gov.br/Pagina/Escritorio-Regional-de-Pato-Branco"},"geometry":{"type":"Point","coordinates":[-52.56422,-25.98054]}},{"type":"Feature","properties":{"Tipo":"Local","Nome":"Palmas","Regional":"Pato Branco","Endereço":"Avenida Clevelândia, 490 - Centro - Palmas - PR","CEP":"85555-000","Telefone":"(46) 3263-1667.","E-mail":"adaparplm@adapar.pr.gov.br","Circunscrição":"Coronel Domingos Soares e Palmas","Município":"Palmas","ibge":"4117602","Checagem da coordenada":"no município declarado","Fonte":"https://www.adapar.pr.gov.br/Pagina/Escritorio-Regional-de-Pato-Branco"},"geometry":{"type":"Point","coordinates":[-51.9872,-26.49145]}},{"type":"Feature","properties":{"Tipo":"Local","Nome":"Pato Branco","Regional":"Pato Branco","Endereço":"Rua Silveira Martins, 456, Pato Branco - PR","CEP":"85.504-018","Telefone":"(46) 3309-2123","E-mail":"adaparpbc@adapar.pr.gov.br","Circunscrição":"Bom Sucesso do Sul, Itapejara D’Oeste, Pato Branco e Vitorino.","Município":"Pato Branco","ibge":"4118501","Checagem da coordenada":"endereço geocodificado (Nominatim)","Fonte":"https://www.adapar.pr.gov.br/Pagina/Escritorio-Regional-de-Pato-Branco"},"geometry":{"type":"Point","coordinates":[-52.67169,-26.21675]}},{"type":"Feature","properties":{"Tipo":"Regional","Nome":"Pitanga","Regional":"Pitanga","Chefe":"à definir","Endereço":"Rua Tomaz Ribeiro, 336, Pitanga - PR","CEP":"85200-000","Telefone":"(42) 3646-3188","Município":"Pitanga","ibge":"4119608","Checagem da coordenada":"sem coordenada no site: ponto no centro do município","Fonte":"https://www.adapar.pr.gov.br/Pagina/Escritorio-Regional-de-Pitanga"},"geometry":{"type":"Point","coordinates":[-51.79706,-24.67036]}},{"type":"Feature","properties":{"Tipo":"Local","Nome":"Cândido de Abreu","Regional":"Pitanga","Endereço":"Rua Paulo VI esquina com a Rua Estados Unidos s/n- Bairro: Jardim Bela Vista - Cândido de Abreu - PR","CEP":"84470-000","Telefone":"(43) 3476-1366","E-mail":"adaparcby@adapar.pr.gov.br","Circunscrição":"Cândido de Abreu","Município":"Cândido de Abreu","ibge":"4104402","Checagem da coordenada":"sem coordenada no site: ponto no centro do município","Fonte":"https://www.adapar.pr.gov.br/Pagina/Escritorio-Regional-de-Pitanga"},"geometry":{"type":"Point","coordinates":[-51.25642,-24.68625]}},{"type":"Feature","properties":{"Tipo":"Local","Nome":"Manoel Ribas","Regional":"Pitanga","Endereço":"Rua Paraíba, 246, Bairro Bella Casa 4, Manoel Ribas - PR","CEP":"85260-000","Telefone":"(43) 3435-2455","E-mail":"adaparmnr@adapar.pr.gov.br","Circunscrição":"Manoel Ribas e Nova Tebas","Município":"Manoel Ribas","ibge":"4114500","Checagem da coordenada":"endereço geocodificado (Nominatim)","Fonte":"https://www.adapar.pr.gov.br/Pagina/Escritorio-Regional-de-Pitanga"},"geometry":{"type":"Point","coordinates":[-51.67227,-24.5238]}},{"type":"Feature","properties":{"Tipo":"Local","Nome":"Palmital","Regional":"Pitanga","Endereço":"Avenida Maximiliano Vicentin, 1070, Palmital - PR","CEP":"85270-000","Telefone":"(42) 3657-2157","E-mail":"adaparpml@adapar.pr.gov.br","Circunscrição":"Laranjal e Palmital","Município":"Palmital","ibge":"4117800","Checagem da coordenada":"sem coordenada no site: ponto no centro do município","Fonte":"https://www.adapar.pr.gov.br/Pagina/Escritorio-Regional-de-Pitanga"},"geometry":{"type":"Point","coordinates":[-52.21525,-24.89068]}},{"type":"Feature","properties":{"Tipo":"Local","Nome":"Pitanga","Regional":"Pitanga","Endereço":"Rua Tomaz Ribeiro, 336, Pitanga - PR","CEP":"85200-000","Telefone":"(42) 3646-3188","E-mail":"adaparpig@adapar.pr.gov.br","Circunscrição":"Boa Ventura de São Roque, Pitanga, Santa Maria do Oeste e Mato Rico","Município":"Pitanga","ibge":"4119608","Checagem da coordenada":"sem coordenada no site: ponto no centro do município","Fonte":"https://www.adapar.pr.gov.br/Pagina/Escritorio-Regional-de-Pitanga"},"geometry":{"type":"Point","coordinates":[-51.79706,-24.67036]}},{"type":"Feature","properties":{"Tipo":"Regional","Nome":"Ponta Grossa","Regional":"Ponta Grossa","Chefe":"Engenheiro Agrônomo Luiz Antônio Scheuer","Endereço":"Rua Nestor Guimarães, 166, Ponta Grossa - PR","CEP":"84040-130","Telefone":"(42) 2102-2744 (GERAL)","Município":"Ponta Grossa","ibge":"4119905","Checagem da coordenada":"endereço geocodificado (Nominatim)","Fonte":"https://www.adapar.pr.gov.br/Pagina/Escritorio-Regional-de-Ponta-Grossa"},"geometry":{"type":"Point","coordinates":[-50.16223,-25.10397]}},{"type":"Feature","properties":{"Tipo":"Local","Nome":"Arapoti","Regional":"Ponta Grossa","Endereço":"Rua Abraão Antonio, n°361. Centro - Arapoti - PR","CEP":"84990-000","Telefone":"(43) 3557-6630","E-mail":"adaparapo@adapar.pr.gov.br","Circunscrição":"Arapoti, Ventania","Município":"Arapoti","ibge":"4101606","Checagem da coordenada":"endereço geocodificado (Nominatim)","Fonte":"https://www.adapar.pr.gov.br/Pagina/Escritorio-Regional-de-Ponta-Grossa"},"geometry":{"type":"Point","coordinates":[-49.82068,-24.14947]}},{"type":"Feature","properties":{"Tipo":"Local","Nome":"Castro","Regional":"Ponta Grossa","Endereço":"Rua Tiradentes, 317, Centro - Castro - PR","CEP":"84165-630","Telefone":"(42) 3233-6410 / (42) 3232-0492","E-mail":"adaparcat@adapar.pr.gov.br","Circunscrição":"Castro","Município":"Castro","ibge":"4104907","Checagem da coordenada":"endereço geocodificado (Nominatim)","Fonte":"https://www.adapar.pr.gov.br/Pagina/Escritorio-Regional-de-Ponta-Grossa"},"geometry":{"type":"Point","coordinates":[-50.00459,-24.7889]}},{"type":"Feature","properties":{"Tipo":"Local","Nome":"Jaguariaíva","Regional":"Ponta Grossa","Endereço":"Praça Getúlio Vargas, n° 60 - Estação Cidadã - 2º piso - Jaguariaíva - PR","CEP":"84200-000","Telefone":"(43) 3535-1170","E-mail":"adaparjiv@adapar.pr.gov.br","Circunscrição":"Jaguariaíva e Piraí do Sul","Município":"Jaguariaíva","ibge":"4112009","Checagem da coordenada":"endereço geocodificado (Nominatim)","Fonte":"https://www.adapar.pr.gov.br/Pagina/Escritorio-Regional-de-Ponta-Grossa"},"geometry":{"type":"Point","coordinates":[-49.71277,-24.25574]}},{"type":"Feature","properties":{"Tipo":"Local","Nome":"Ortigueira","Regional":"Ponta Grossa","Endereço":"Rua Amaro da Silveira, 425, Ortigueira - PR","CEP":"84350-000","Telefone":"(42) 3277-2187","E-mail":"adaparorg@adapar.pr.gov.br","Circunscrição":"Ortigueira","Município":"Ortigueira","ibge":"4117305","Checagem da coordenada":"endereço geocodificado (Nominatim)","Fonte":"https://www.adapar.pr.gov.br/Pagina/Escritorio-Regional-de-Ponta-Grossa"},"geometry":{"type":"Point","coordinates":[-50.92314,-24.21366]}},{"type":"Feature","properties":{"Tipo":"Local","Nome":"Palmeira","Regional":"Ponta Grossa","Endereço":"Rua XV de Novembro, 137, Palmeira - PR","CEP":"84130-000","Telefone":"(42) 3252-3893","E-mail":"adaparpei@adapar.pr.gov.br","Circunscrição":"Palmeira e Porto Amazonas","Município":"Palmeira","ibge":"4117701","Checagem da coordenada":"no município declarado","Fonte":"https://www.adapar.pr.gov.br/Pagina/Escritorio-Regional-de-Ponta-Grossa"},"geometry":{"type":"Point","coordinates":[-49.99595,-25.4197]}},{"type":"Feature","properties":{"Tipo":"Local","Nome":"Ponta Grossa","Regional":"Ponta Grossa","Endereço":"Rua Nestor Guimarães, 166, Ponta Grossa - PR","CEP":"84040-130","Telefone":"(42) 2102-2744 (GERAL) / (42) 2102-2712 (GTA)","E-mail":"adaparpgo@adapar.pr.gov.br","Circunscrição":"Carambeí, Ipiranga e Ponta Grossa","Município":"Ponta Grossa","ibge":"4119905","Checagem da coordenada":"endereço geocodificado (Nominatim)","Fonte":"https://www.adapar.pr.gov.br/Pagina/Escritorio-Regional-de-Ponta-Grossa"},"geometry":{"type":"Point","coordinates":[-50.16223,-25.10397]}},{"type":"Feature","properties":{"Tipo":"Local","Nome":"Reserva","Regional":"Ponta Grossa","Endereço":"Rua Quintino Bocaiuva, 678, Reserva - PR","CEP":"84320-000","Telefone":"(42) 3276-1587","E-mail":"adaparrrv@adapar.pr.gov.br","Circunscrição":"Imbaú e Reserva","Município":"Reserva","ibge":"4121703","Checagem da coordenada":"endereço geocodificado (Nominatim)","Fonte":"https://www.adapar.pr.gov.br/Pagina/Escritorio-Regional-de-Ponta-Grossa"},"geometry":{"type":"Point","coordinates":[-50.84919,-24.65321]}},{"type":"Feature","properties":{"Tipo":"Local","Nome":"Sengés","Regional":"Ponta Grossa","Endereço":"PR 239 km 0 + 300m - Divisa PR/SP - Sengés - PR","CEP":"84220-000","Telefone":"(43) 99687-0131","E-mail":"adaparsgx@adapar.pr.gov.br","Circunscrição":"Sengés","Município":"Sengés","ibge":"4126306","Checagem da coordenada":"rua geocodificada sem o número (Nominatim)","Fonte":"https://www.adapar.pr.gov.br/Pagina/Escritorio-Regional-de-Ponta-Grossa"},"geometry":{"type":"Point","coordinates":[-49.46442,-24.11418]}},{"type":"Feature","properties":{"Tipo":"Local","Nome":"Tibagi","Regional":"Ponta Grossa","Endereço":"Praça Leopoldo Mercer, 20, Tibagi - PR","CEP":"84300-000","Telefone":"(42) 3275-2739","E-mail":"adapartbg@adapar.pr.gov.br","Circunscrição":"Telêmaco Borba e Tibagi","Município":"Tibagi","ibge":"4127502","Checagem da coordenada":"rua geocodificada sem o número (Nominatim)","Fonte":"https://www.adapar.pr.gov.br/Pagina/Escritorio-Regional-de-Ponta-Grossa"},"geometry":{"type":"Point","coordinates":[-50.41052,-24.51479]}},{"type":"Feature","properties":{"Tipo":"Regional","Nome":"Toledo","Regional":"Toledo","Chefe":"Engenheiro Agrônomo Antônio Carlos Dezaneti","Endereço":"Avenida Parigot de Souza, 4300 - Jardim Santa Maria, Toledo - PR","CEP":"85903-170","Telefone":"(45) 2103-5168","Município":"Toledo","ibge":"4127700","Checagem da coordenada":"endereço geocodificado (Nominatim)","Fonte":"https://www.adapar.pr.gov.br/Pagina/Escritorio-Regional-de-Toledo"},"geometry":{"type":"Point","coordinates":[-53.75262,-24.71978]}},{"type":"Feature","properties":{"Tipo":"Local","Nome":"Assis Chateaubriand","Regional":"Toledo","Endereço":"Rua 21 de abril, 193, Assis Chateaubriand - PR","CEP":"85935-000","Telefone":"(44) 3528-6192","E-mail":"adaparasd@adapar.pr.gov.br","Circunscrição":"Assis Chateaubriand, Formosa do Oeste, Iracema do Oeste, Jesuitas e Tupãssi","Município":"Assis Chateaubriand","ibge":"4102000","Checagem da coordenada":"sem coordenada no site: ponto no centro do município","Fonte":"https://www.adapar.pr.gov.br/Pagina/Escritorio-Regional-de-Toledo"},"geometry":{"type":"Point","coordinates":[-53.57626,-24.4418]}},{"type":"Feature","properties":{"Tipo":"Local","Nome":"Guaíra","Regional":"Toledo","CEP":"85980-000","Telefone":"(44) 3642-2235","E-mail":"adapargia@adapar.pr.gov.br","Circunscrição":"Guaíra e Terra Roxa","Endereço":"Av. Almirante Tamandaré, s/n (BR-163 Km 350)","Município":"Guaíra","ibge":"4108809","Checagem da coordenada":"no município declarado","Fonte":"https://www.adapar.pr.gov.br/Pagina/Escritorio-Regional-de-Toledo"},"geometry":{"type":"Point","coordinates":[-54.25439,-24.08116]}},{"type":"Feature","properties":{"Tipo":"Local","Nome":"Marechal Cândido Rondon","Regional":"Toledo","Endereço":"Rua Pernambuco, 815, Marechal Cândido Rondon - PR","CEP":"85960-000","Telefone":"(45) 3254-6981 / (45) 3254-6848","E-mail":"adaparmrh@adapar.pr.gov.br","Circunscrição":"Marechal Cândido Rondon, Mercedes, Quatro Pontes, Pato Bragado e Entre Rios do Oeste","Município":"Marechal Cândido Rondon","ibge":"4114609","Checagem da coordenada":"endereço geocodificado (Nominatim)","Fonte":"https://www.adapar.pr.gov.br/Pagina/Escritorio-Regional-de-Toledo"},"geometry":{"type":"Point","coordinates":[-54.05851,-24.5552]}},{"type":"Feature","properties":{"Tipo":"Local","Nome":"Palotina","Regional":"Toledo","Endereço":"Rua Getúlio Vargas, 548 - Centro - Palotina - PR","CEP":"85950-000","Telefone":"(44) 3649-2260","E-mail":"adaparpot@adapar.pr.gov.br","Circunscrição":"Palotina, Nova Santa Rosa e Maripá","Município":"Palotina","ibge":"4117909","Checagem da coordenada":"no município declarado","Fonte":"https://www.adapar.pr.gov.br/Pagina/Escritorio-Regional-de-Toledo"},"geometry":{"type":"Point","coordinates":[-53.83987,-24.28691]}},{"type":"Feature","properties":{"Tipo":"Local","Nome":"Santa Helena","Regional":"Toledo","Endereço":"Av. Curitiba, 242 - Centro, Santa Helena - PR","CEP":"85892-000","Telefone":"(45) 3268-3506","E-mail":"adaparsha@adapar.pr.gov.br","Circunscrição":"Santa Helena e São José das Palmeiras","Município":"Santa Helena","ibge":"4123501","Checagem da coordenada":"no município declarado","Fonte":"https://www.adapar.pr.gov.br/Pagina/Escritorio-Regional-de-Toledo"},"geometry":{"type":"Point","coordinates":[-54.33306,-24.86136]}},{"type":"Feature","properties":{"Tipo":"Local","Nome":"Toledo","Regional":"Toledo","Endereço":"Avenida Parigot de Souza, 4300 - Jardim Santa Maria, Toledo - PR","CEP":"85903-170","Telefone":"(45) 2103-5153","E-mail":"adapartoo@adapar.pr.gov.br","Circunscrição":"Ouro Verde do Oeste, São Pedro do Iguaçu e Toledo","Município":"Toledo","ibge":"4127700","Checagem da coordenada":"endereço geocodificado (Nominatim)","Fonte":"https://www.adapar.pr.gov.br/Pagina/Escritorio-Regional-de-Toledo"},"geometry":{"type":"Point","coordinates":[-53.75262,-24.71978]}},{"type":"Feature","properties":{"Tipo":"Regional","Nome":"Umuarama","Regional":"Umuarama","Chefe":"Engenheiro Agrônomo Roberto Carlos Machado","Endereço":"PR-323 - Km 303 - Parque de Exposições Dário Pimenta da Nóbrega, Umuarama - PR","CEP":"87507-013","Telefone":"(44) 3361-1311","Município":"Umuarama","ibge":"4128104","Checagem da coordenada":"no município declarado","Fonte":"https://www.adapar.pr.gov.br/Pagina/Escritorio-Regional-de-Umuarama"},"geometry":{"type":"Point","coordinates":[-53.27074,-23.77746]}},{"type":"Feature","properties":{"Tipo":"Local","Nome":"Altônia","Regional":"Umuarama","Endereço":"Rua XV de Novembro, 1390, Centro - PR","CEP":"87.550-000","Telefone":"(44) 3659-4156","E-mail":"adaparaoa@adapar.pr.gov.br","Circunscrição":"Altônia e São Jorge do Patrocínio","Município":"Altônia","ibge":"4100509","Checagem da coordenada":"sem coordenada no site: ponto no centro do município","Fonte":"https://www.adapar.pr.gov.br/Pagina/Escritorio-Regional-de-Umuarama"},"geometry":{"type":"Point","coordinates":[-53.91778,-23.915]}},{"type":"Feature","properties":{"Tipo":"Local","Nome":"Cruzeiro do Oeste","Regional":"Umuarama","Endereço":"Rua Leopoldo José de Souza, 1030, Cruzeiro do Oeste - PR","CEP":"87400-000","Telefone":"(44) 3676-1722","E-mail":"adaparczt@adapar.pr.gov.br","Circunscrição":"Cruzeiro do Oeste e Mariluz","Município":"Cruzeiro do Oeste","ibge":"4106605","Checagem da coordenada":"endereço geocodificado (Nominatim)","Fonte":"https://www.adapar.pr.gov.br/Pagina/Escritorio-Regional-de-Umuarama"},"geometry":{"type":"Point","coordinates":[-53.07851,-23.77783]}},{"type":"Feature","properties":{"Tipo":"Local","Nome":"Icaraíma","Regional":"Umuarama","Endereço":"Av. Hermes Vissoto, 4430, Centro - PR","CEP":"87.530-000","Telefone":"(44) 3665-1019","E-mail":"adaparicm@adapar.pr.gov.br","Circunscrição":"Douradina, Ivaté, Alto Paraíso e Icaraíma","Município":"Icaraíma","ibge":"4109906","Checagem da coordenada":"no município declarado","Fonte":"https://www.adapar.pr.gov.br/Pagina/Escritorio-Regional-de-Umuarama"},"geometry":{"type":"Point","coordinates":[-53.75417,-23.37797]}},{"type":"Feature","properties":{"Tipo":"Local","Nome":"Iporã","Regional":"Umuarama","Endereço":"Av. 31 de Março, 667, Iporã - PR","CEP":"87.560-000","Telefone":"(44) 3652-2292","E-mail":"adaparipo@adapar.pr.gov.br","Circunscrição":"Alto Piquiri, Brasilândia do Sul, Cafezal do Sul, Francisco Alves e Iporã","Município":"Iporã","ibge":"4110607","Checagem da coordenada":"no município declarado","Fonte":"https://www.adapar.pr.gov.br/Pagina/Escritorio-Regional-de-Umuarama"},"geometry":{"type":"Point","coordinates":[-53.70685,-24.00365]}},{"type":"Feature","properties":{"Tipo":"Local","Nome":"Maria Helena","Regional":"Umuarama","Endereço":"Rua Tibagi, s/n, Maria Helena - PR","CEP":"87.480-000","Telefone":"(44) 3662-1441","E-mail":"adaparmhe@adapar.pr.gov.br","Circunscrição":"Maria Helena e Nova Olímpia","Município":"Maria Helena","ibge":"4114708","Checagem da coordenada":"endereço geocodificado (Nominatim)","Fonte":"https://www.adapar.pr.gov.br/Pagina/Escritorio-Regional-de-Umuarama"},"geometry":{"type":"Point","coordinates":[-53.20605,-23.6132]}},{"type":"Feature","properties":{"Tipo":"Local","Nome":"Pérola","Regional":"Umuarama","Endereço":"Av. Presidente Vargas, 1411, Centro - PR","CEP":"87.450-000","Telefone":"(44) 3636-1626","E-mail":"adaparpra@adapar.pr.gov.br","Circunscrição":"Esperança Nova e Pérola","Município":"Pérola","ibge":"4118907","Checagem da coordenada":"no município declarado","Fonte":"https://www.adapar.pr.gov.br/Pagina/Escritorio-Regional-de-Umuarama"},"geometry":{"type":"Point","coordinates":[-53.68762,-23.80239]}},{"type":"Feature","properties":{"Tipo":"Local","Nome":"Umuarama","Regional":"Umuarama","Endereço":"Rua José Honório Ramos, 3687 - Zona II, Umuarama - PR","CEP":"87502-230","Telefone":"(44) 3622-2429 | (44) 3624- 6510","E-mail":"adaparumr@adapar.pr.gov.br","Circunscrição":"Xambrê, Perobal e Umuarama","Município":"Umuarama","ibge":"4128104","Checagem da coordenada":"endereço geocodificado (Nominatim)","Fonte":"https://www.adapar.pr.gov.br/Pagina/Escritorio-Regional-de-Umuarama"},"geometry":{"type":"Point","coordinates":[-53.29797,-23.75956]}},{"type":"Feature","properties":{"Tipo":"Regional","Nome":"União da Vitória","Regional":"União da Vitória","Chefe":"Médico Veterinário Luiz Gonzaga Cechinel Junior","Endereço":"Rua Professora Amazília, 747, União da Vitória - PR","CEP":"84600-285","Telefone":"(42)3521-3829","Município":"União da Vitória","ibge":"4128203","Checagem da coordenada":"no município declarado","Fonte":"https://www.adapar.pr.gov.br/Pagina/Escritorio-Regional-de-Uniao-da-Vitoria"},"geometry":{"type":"Point","coordinates":[-51.09004,-26.22862]}},{"type":"Feature","properties":{"Tipo":"Local","Nome":"Cruz Machado","Regional":"União da Vitória","Endereço":"Rua Hermes da Fonseca, 218. Cruz Machado - PR","CEP":"84620-000","Telefone":"(42) 3554-1004","E-mail":"adaparczc@adapar.pr.gov.br","Circunscrição":"Cruz Machado","Município":"Cruz Machado","ibge":"4106803","Checagem da coordenada":"centro da busca do link do mapa (vizinhança)","Fonte":"https://www.adapar.pr.gov.br/Pagina/Escritorio-Regional-de-Uniao-da-Vitoria"},"geometry":{"type":"Point","coordinates":[-51.34731,-26.0169]}},{"type":"Feature","properties":{"Tipo":"Local","Nome":"General Carneiro","Regional":"União da Vitória","Endereço":"Rua Dr. Bernardo Ribeiro Viana, 143, Centro, General Carneiro - PR","CEP":"84660-000","Telefone":"(42) 3552-1148","E-mail":"adapargnc@adapar.pr.gov.br","Circunscrição":"Bituruna e General Carneiro","Município":"General Carneiro","ibge":"4108502","Checagem da coordenada":"endereço geocodificado (Nominatim)","Fonte":"https://www.adapar.pr.gov.br/Pagina/Escritorio-Regional-de-Uniao-da-Vitoria"},"geometry":{"type":"Point","coordinates":[-51.31781,-26.42648]}},{"type":"Feature","properties":{"Tipo":"Local","Nome":"São Mateus do Sul","Regional":"União da Vitória","Endereço":"Rua Vitório Biancolini 1515, São Mateus do Sul - PR","CEP":"83900-000","Telefone":"(42) 3532- 6847","E-mail":"adaparssl@adapar.pr.gov.br","Circunscrição":"Antônio Olinto, São João do Triunfo e São Mateus do Sul","Município":"São Mateus do Sul","ibge":"4125605","Checagem da coordenada":"endereço geocodificado (Nominatim)","Fonte":"https://www.adapar.pr.gov.br/Pagina/Escritorio-Regional-de-Uniao-da-Vitoria"},"geometry":{"type":"Point","coordinates":[-50.39353,-25.8648]}},{"type":"Feature","properties":{"Tipo":"Local","Nome":"União da Vitória","Regional":"União da Vitória","Endereço":"Rua Professora Amazilia, 747, Centro, União da Vitória - PR","CEP":"84600-285","Telefone":"(42)3521-3829","E-mail":"adaparuva@adapar.pr.gov.br","Circunscrição":"Paula Freitas, Paulo Frontim, Porto Vitória e União da Vitória","Município":"União da Vitória","ibge":"4128203","Checagem da coordenada":"no município declarado","Fonte":"https://www.adapar.pr.gov.br/Pagina/Escritorio-Regional-de-Uniao-da-Vitoria"},"geometry":{"type":"Point","coordinates":[-51.09004,-26.22862]}}]}