{"type":"FeatureCollection","features":[{"type":"Feature","properties":{"kind":"frigorifico","nome":"Frigomax","municipio":"Arapongas"},"geometry":{"type":"Point","coordinates":[-51.43666,-23.44576]}},{"type":"Feature","properties":{"kind":"frigorifico","nome":"Bmg Foods Importacao e Exportacao Ltda","municipio":"Colorado"},"geometry":{"type":"Point","coordinates":[-52.00397,-22.81777]}},{"type":"Feature","properties":{"kind":"frigorifico","nome":"Frigorifico Astra do Parana Ltda","municipio":"Cruzeiro do Oeste"},"geometry":{"type":"Point","coordinates":[-53.06978,-23.73498]}},{"type":"Feature","properties":{"kind":"frigorifico","nome":"Frigorifico Frigocruz Ltda","municipio":"Cruzeiro do Oeste"},"geometry":{"type":"Point","coordinates":[-53.06978,-23.73498]}},{"type":"Feature","properties":{"kind":"frigorifico","nome":"Cooperalianca","municipio":"Guarapuava"},"geometry":{"type":"Point","coordinates":[-51.45933,-25.3342]}},{"type":"Feature","properties":{"kind":"frigorifico","nome":"Frigorifico Jr","municipio":"Loanda"},"geometry":{"type":"Point","coordinates":[-53.07672,-22.97153]}},{"type":"Feature","properties":{"kind":"frigorifico","nome":"Frigorifico Frigomendes Ltda","municipio":"Nova Londrina"},"geometry":{"type":"Point","coordinates":[-52.98148,-22.74976]}},{"type":"Feature","properties":{"kind":"frigorifico","nome":"Frigo Driluz","municipio":"Santo Antônio da Platina"},"geometry":{"type":"Point","coordinates":[-50.07758,-23.28714]}},{"type":"Feature","properties":{"kind":"frigorifico","nome":"Agroindustria de Carnes Nobres Esplanada","municipio":"Umuarama"},"geometry":{"type":"Point","coordinates":[-53.33206,-23.70816]}},{"type":"Feature","properties":{"kind":"laticinio","nome":"Laticinios Santa Lucia Ltda.","municipio":"Alto Piquiri"},"geometry":{"type":"Point","coordinates":[-53.39239,-24.09123]}},{"type":"Feature","properties":{"kind":"laticinio","nome":"Leite Volpato","municipio":"Arapongas"},"geometry":{"type":"Point","coordinates":[-51.43666,-23.44576]}},{"type":"Feature","properties":{"kind":"laticinio","nome":"Copran","municipio":"Arapongas"},"geometry":{"type":"Point","coordinates":[-51.43666,-23.44576]}},{"type":"Feature","properties":{"kind":"laticinio","nome":"Vitão","municipio":"Balsa Nova"},"geometry":{"type":"Point","coordinates":[-49.68572,-25.48794]}},{"type":"Feature","properties":{"kind":"laticinio","nome":"Laticinios Sudoeste Ltda","municipio":"Bela Vista da Caroba"},"geometry":{"type":"Point","coordinates":[-53.63268,-25.88425]}},{"type":"Feature","properties":{"kind":"laticinio","nome":"Laticinio Bituruna Ltda","municipio":"Bituruna"},"geometry":{"type":"Point","coordinates":[-51.49893,-26.15063]}},{"type":"Feature","properties":{"kind":"laticinio","nome":"Industria e Comercio de Laticinios Lactopar Ltda","municipio":"Boa Vista da Aparecida"},"geometry":{"type":"Point","coordinates":[-53.43374,-25.44006]}},{"type":"Feature","properties":{"kind":"laticinio","nome":"Laticinio Bom Sucesso","municipio":"Bom Sucesso do Sul"},"geometry":{"type":"Point","coordinates":[-52.8598,-26.08474]}},{"type":"Feature","properties":{"kind":"laticinio","nome":"Laticinio Piloto","municipio":"Campina da Lagoa"},"geometry":{"type":"Point","coordinates":[-52.79465,-24.61855]}},{"type":"Feature","properties":{"kind":"laticinio","nome":"Lactolar","municipio":"Cantagalo"},"geometry":{"type":"Point","coordinates":[-52.10921,-25.30577]}},{"type":"Feature","properties":{"kind":"laticinio","nome":"Ipanema Queijos","municipio":"Capanema"},"geometry":{"type":"Point","coordinates":[-53.79686,-25.60684]}},{"type":"Feature","properties":{"kind":"laticinio","nome":"Laticinios Bela Vista","municipio":"Cascavel"},"geometry":{"type":"Point","coordinates":[-53.30052,-25.05723]}},{"type":"Feature","properties":{"kind":"laticinio","nome":"Laticinios Santa Helena","municipio":"Cascavel"},"geometry":{"type":"Point","coordinates":[-53.30052,-25.05723]}},{"type":"Feature","properties":{"kind":"laticinio","nome":"Italac","municipio":"Cascavel"},"geometry":{"type":"Point","coordinates":[-53.30052,-25.05723]}},{"type":"Feature","properties":{"kind":"laticinio","nome":"Usina de Beneficiamento de Leite","municipio":"Castro"},"geometry":{"type":"Point","coordinates":[-49.82218,-24.80992]}},{"type":"Feature","properties":{"kind":"laticinio","nome":"Industria de Alimentos Estrela S.a. Em Recuperacao Judicial","municipio":"Chopinzinho"},"geometry":{"type":"Point","coordinates":[-52.42025,-25.79522]}},{"type":"Feature","properties":{"kind":"laticinio","nome":"Claudemir Roos","municipio":"Chopinzinho"},"geometry":{"type":"Point","coordinates":[-52.42025,-25.79522]}},{"type":"Feature","properties":{"kind":"laticinio","nome":"Allbrands Industria de Alimentos S/a","municipio":"Colombo"},"geometry":{"type":"Point","coordinates":[-49.19221,-25.30954]}},{"type":"Feature","properties":{"kind":"laticinio","nome":"Grupo Gennius Brasil Producao e Comercializacao de Alimentos S.a","municipio":"Colombo"},"geometry":{"type":"Point","coordinates":[-49.19221,-25.30954]}},{"type":"Feature","properties":{"kind":"laticinio","nome":"Laticinio Coyote","municipio":"Coronel Vivida"},"geometry":{"type":"Point","coordinates":[-52.56003,-25.99385]}},{"type":"Feature","properties":{"kind":"laticinio","nome":"Latco","municipio":"Cruzeiro do Oeste"},"geometry":{"type":"Point","coordinates":[-53.06978,-23.73498]}},{"type":"Feature","properties":{"kind":"laticinio","nome":"Lacfrios","municipio":"Curitiba"},"geometry":{"type":"Point","coordinates":[-49.28458,-25.49505]}},{"type":"Feature","properties":{"kind":"laticinio","nome":"Mondelez Brasil Ltda","municipio":"Curitiba"},"geometry":{"type":"Point","coordinates":[-49.28458,-25.49505]}},{"type":"Feature","properties":{"kind":"laticinio","nome":"Lacticinios Tirol Ltda","municipio":"Dois Vizinhos"},"geometry":{"type":"Point","coordinates":[-53.07136,-25.74255]}},{"type":"Feature","properties":{"kind":"laticinio","nome":"Laticinios Quero Mais Ltda","municipio":"Grandes Rios"},"geometry":{"type":"Point","coordinates":[-51.42945,-24.18848]}},{"type":"Feature","properties":{"kind":"laticinio","nome":"Coamig","municipio":"Guarapuava"},"geometry":{"type":"Point","coordinates":[-51.45933,-25.3342]}},{"type":"Feature","properties":{"kind":"laticinio","nome":"Lacticinios Tirol Ltda","municipio":"Ipiranga"},"geometry":{"type":"Point","coordinates":[-50.5642,-25.00661]}},{"type":"Feature","properties":{"kind":"laticinio","nome":"T. R. da Silva Campo Laticinios Ltda","municipio":"Iretama"},"geometry":{"type":"Point","coordinates":[-52.08015,-24.35821]}},{"type":"Feature","properties":{"kind":"laticinio","nome":"Laticinios Bela Vista","municipio":"Itapejara D'oeste"},"geometry":{"type":"Point","coordinates":[-52.84906,-25.98382]}},{"type":"Feature","properties":{"kind":"laticinio","nome":"Sao Leopoldo","municipio":"Laranjeiras do Sul"},"geometry":{"type":"Point","coordinates":[-52.3387,-25.30957]}},{"type":"Feature","properties":{"kind":"laticinio","nome":"Laticinio Lactopar","municipio":"Laranjeiras do Sul"},"geometry":{"type":"Point","coordinates":[-52.3387,-25.30957]}},{"type":"Feature","properties":{"kind":"laticinio","nome":"A. R. C. Logistica e Alimentos Ltda","municipio":"Lobato"},"geometry":{"type":"Point","coordinates":[-51.97196,-22.97865]}},{"type":"Feature","properties":{"kind":"laticinio","nome":"Lactalis do Brasil - Comercio, Importacao e Exportacao de Laticinios Ltda.","municipio":"Londrina"},"geometry":{"type":"Point","coordinates":[-51.11799,-23.4768]}},{"type":"Feature","properties":{"kind":"laticinio","nome":"Leite de Leite","municipio":"Londrina"},"geometry":{"type":"Point","coordinates":[-51.11799,-23.4768]}},{"type":"Feature","properties":{"kind":"laticinio","nome":"Laticinio Kinobresa","municipio":"Mangueirinha"},"geometry":{"type":"Point","coordinates":[-52.22596,-26.03624]}},{"type":"Feature","properties":{"kind":"laticinio","nome":"Lacticinios Tirol Ltda","municipio":"Manoel Ribas"},"geometry":{"type":"Point","coordinates":[-51.62286,-24.49532]}},{"type":"Feature","properties":{"kind":"laticinio","nome":"Queijos Venetto","municipio":"Marmeleiro"},"geometry":{"type":"Point","coordinates":[-53.12281,-26.2457]}},{"type":"Feature","properties":{"kind":"laticinio","nome":"Laticinio Dom Armando","municipio":"Missal"},"geometry":{"type":"Point","coordinates":[-54.26233,-25.10737]}},{"type":"Feature","properties":{"kind":"laticinio","nome":"Laticinios Costa - Filial","municipio":"Missal"},"geometry":{"type":"Point","coordinates":[-54.26233,-25.10737]}},{"type":"Feature","properties":{"kind":"laticinio","nome":"Ilana Paula da Silva Loreno","municipio":"Morretes"},"geometry":{"type":"Point","coordinates":[-48.82941,-25.50753]}},{"type":"Feature","properties":{"kind":"laticinio","nome":"E.f.arantes & Cia Ltda","municipio":"Nova Cantu"},"geometry":{"type":"Point","coordinates":[-52.54046,-24.6314]}},{"type":"Feature","properties":{"kind":"laticinio","nome":"Laticinios Novamilk Ltda","municipio":"Nova Londrina"},"geometry":{"type":"Point","coordinates":[-52.98148,-22.74976]}},{"type":"Feature","properties":{"kind":"laticinio","nome":"Cooperativa Agroindustrial Witmarsum Ltda","municipio":"Palmeira"},"geometry":{"type":"Point","coordinates":[-50.126,-25.4515]}},{"type":"Feature","properties":{"kind":"laticinio","nome":"A. R. C. Logistica e Alimentos Ltda","municipio":"Palmeira"},"geometry":{"type":"Point","coordinates":[-50.126,-25.4515]}},{"type":"Feature","properties":{"kind":"laticinio","nome":"Laticinios Campos Gerais","municipio":"Palmeira"},"geometry":{"type":"Point","coordinates":[-50.126,-25.4515]}},{"type":"Feature","properties":{"kind":"laticinio","nome":"Jiceli Vantroba Comin","municipio":"Palmeira"},"geometry":{"type":"Point","coordinates":[-50.126,-25.4515]}},{"type":"Feature","properties":{"kind":"laticinio","nome":"Laticinios do Valle","municipio":"Palmital"},"geometry":{"type":"Point","coordinates":[-52.24242,-24.88897]}},{"type":"Feature","properties":{"kind":"laticinio","nome":"Laticinios Palotina Ltda","municipio":"Palotina"},"geometry":{"type":"Point","coordinates":[-53.83121,-24.29415]}},{"type":"Feature","properties":{"kind":"laticinio","nome":"Alcelio Mauro Bombacini","municipio":"Palotina"},"geometry":{"type":"Point","coordinates":[-53.83121,-24.29415]}},{"type":"Feature","properties":{"kind":"laticinio","nome":"Cooperativa Agroindustrial de Londrina - Cativa","municipio":"Pato Branco"},"geometry":{"type":"Point","coordinates":[-52.65618,-26.15179]}},{"type":"Feature","properties":{"kind":"laticinio","nome":"Cooperativa Agropecuaria Vida Nova","municipio":"Pato Branco"},"geometry":{"type":"Point","coordinates":[-52.65618,-26.15179]}},{"type":"Feature","properties":{"kind":"laticinio","nome":"A. R. C. Logistica e Alimentos Ltda","municipio":"Perobal"},"geometry":{"type":"Point","coordinates":[-53.30597,-23.95709]}},{"type":"Feature","properties":{"kind":"laticinio","nome":"Delei't - Industria e Comercio de Laticinios","municipio":"Perobal"},"geometry":{"type":"Point","coordinates":[-53.30597,-23.95709]}},{"type":"Feature","properties":{"kind":"laticinio","nome":"T. S. Servicos de Resfriamento Ltda","municipio":"Perobal"},"geometry":{"type":"Point","coordinates":[-53.30597,-23.95709]}},{"type":"Feature","properties":{"kind":"laticinio","nome":"Laticinios Pitangueira","municipio":"Pitanga"},"geometry":{"type":"Point","coordinates":[-51.8007,-24.67457]}},{"type":"Feature","properties":{"kind":"laticinio","nome":"A. R. C. Logistica e Alimentos Ltda","municipio":"Pitanga"},"geometry":{"type":"Point","coordinates":[-51.8007,-24.67457]}},{"type":"Feature","properties":{"kind":"laticinio","nome":"Laticinios Sucesso","municipio":"Planalto"},"geometry":{"type":"Point","coordinates":[-53.72945,-25.73209]}},{"type":"Feature","properties":{"kind":"laticinio","nome":"Laticinios Santa Inez Ltda","municipio":"Planalto"},"geometry":{"type":"Point","coordinates":[-53.72945,-25.73209]}},{"type":"Feature","properties":{"kind":"laticinio","nome":"Cooperativa Frisia","municipio":"Ponta Grossa"},"geometry":{"type":"Point","coordinates":[-49.99222,-25.13933]}},{"type":"Feature","properties":{"kind":"laticinio","nome":"Braslatte Lácteos Ltda","municipio":"Pranchita"},"geometry":{"type":"Point","coordinates":[-53.7263,-25.97309]}},{"type":"Feature","properties":{"kind":"laticinio","nome":"Latco","municipio":"Realeza"},"geometry":{"type":"Point","coordinates":[-53.55123,-25.67092]}},{"type":"Feature","properties":{"kind":"laticinio","nome":"Schreiber Foods do Brasil Industria Alimenticia Ltda","municipio":"Rio Azul"},"geometry":{"type":"Point","coordinates":[-50.78902,-25.73131]}},{"type":"Feature","properties":{"kind":"laticinio","nome":"Bufalo Brasil","municipio":"Rio Branco do Sul"},"geometry":{"type":"Point","coordinates":[-49.38226,-25.05522]}},{"type":"Feature","properties":{"kind":"laticinio","nome":"Industria e Comercio Laticinios Uniao Ltda","municipio":"Salto do Lontra"},"geometry":{"type":"Point","coordinates":[-53.24932,-25.77395]}},{"type":"Feature","properties":{"kind":"laticinio","nome":"Lactojara","municipio":"Santa Maria do Oeste"},"geometry":{"type":"Point","coordinates":[-51.93524,-24.90296]}},{"type":"Feature","properties":{"kind":"laticinio","nome":"Laticinios Jussara","municipio":"Santo Antônio da Platina"},"geometry":{"type":"Point","coordinates":[-50.07758,-23.28714]}},{"type":"Feature","properties":{"kind":"laticinio","nome":"Laticinios Bela Vista","municipio":"Sulina"},"geometry":{"type":"Point","coordinates":[-52.72851,-25.66645]}},{"type":"Feature","properties":{"kind":"laticinio","nome":"Lactojara","municipio":"Tapejara"},"geometry":{"type":"Point","coordinates":[-52.87563,-23.64256]}},{"type":"Feature","properties":{"kind":"laticinio","nome":"Sabor e Queijos Laticinios Ltda","municipio":"Tapira"},"geometry":{"type":"Point","coordinates":[-53.12681,-23.33787]}},{"type":"Feature","properties":{"kind":"laticinio","nome":"Laticinio Simionato","municipio":"Terra Boa"},"geometry":{"type":"Point","coordinates":[-52.3783,-23.69472]}},{"type":"Feature","properties":{"kind":"laticinio","nome":"Grupo Pereira","municipio":"Toledo"},"geometry":{"type":"Point","coordinates":[-53.80948,-24.69743]}},{"type":"Feature","properties":{"kind":"laticinio","nome":"Lactobom","municipio":"Toledo"},"geometry":{"type":"Point","coordinates":[-53.80948,-24.69743]}},{"type":"Feature","properties":{"kind":"laticinio","nome":"Cooperativa Agro-industrial de Londrina","municipio":"Londrina"},"geometry":{"type":"Point","coordinates":[-51.15049,-23.34063]}},{"type":"Feature","properties":{"kind":"laticinio","nome":"Lactalis do Brasil","municipio":""},"geometry":{"type":"Point","coordinates":[-51.20858,-23.31594]}},{"type":"Feature","properties":{"kind":"laticinio","nome":"Laticinio","municipio":""},"geometry":{"type":"Point","coordinates":[-52.94041,-26.1742]}},{"type":"Feature","properties":{"kind":"laticinio","nome":"Laticinios Soberano","municipio":""},"geometry":{"type":"Point","coordinates":[-52.6777,-26.31104]}},{"type":"Feature","properties":{"kind":"laticinio","nome":"Laticínio Alto Alegre","municipio":"Verê"},"geometry":{"type":"Point","coordinates":[-52.88412,-25.85049]}},{"type":"Feature","properties":{"kind":"laticinio","nome":"Cooperativa de Laticínios Curitiba","municipio":""},"geometry":{"type":"Point","coordinates":[-49.19458,-25.53668]}},{"type":"Feature","properties":{"kind":"laticinio","nome":"Laticinios Silvestre","municipio":""},"geometry":{"type":"Point","coordinates":[-53.29935,-22.96404]}},{"type":"Feature","properties":{"kind":"laticinio","nome":"Laticínio","municipio":""},"geometry":{"type":"Point","coordinates":[-53.2055,-22.99066]}},{"type":"Feature","properties":{"kind":"laticinio","nome":"Laticínio Santa Inês","municipio":""},"geometry":{"type":"Point","coordinates":[-53.8412,-25.74547]}},{"type":"Feature","properties":{"kind":"laticinio","nome":"Laticínios Rohden e Santa Inês","municipio":""},"geometry":{"type":"Point","coordinates":[-53.84079,-25.74509]}},{"type":"Feature","properties":{"kind":"laticinio","nome":"Laticínios Silvestre","municipio":""},"geometry":{"type":"Point","coordinates":[-53.1785,-25.4296]}},{"type":"Feature","properties":{"kind":"laticinio","nome":"Laticínios Silvestre","municipio":""},"geometry":{"type":"Point","coordinates":[-53.18005,-25.42965]}},{"type":"Feature","properties":{"kind":"laticinio","nome":"Laticínios Silvestre","municipio":""},"geometry":{"type":"Point","coordinates":[-53.17813,-25.42946]}},{"type":"Feature","properties":{"kind":"laticinio","nome":"Laticínios Silvestre","municipio":""},"geometry":{"type":"Point","coordinates":[-53.17791,-25.42988]}},{"type":"Feature","properties":{"kind":"laticinio","nome":"Laticínios Silvestre","municipio":""},"geometry":{"type":"Point","coordinates":[-53.17883,-25.42949]}},{"type":"Feature","properties":{"kind":"laticinio","nome":"Real Latco Laticínios","municipio":""},"geometry":{"type":"Point","coordinates":[-54.24035,-24.11988]}},{"type":"Feature","properties":{"kind":"laticinio","nome":"Estrada do Laticínio","municipio":""},"geometry":{"type":"Point","coordinates":[-49.95874,-23.15076]}},{"type":"Feature","properties":{"kind":"laticinio","nome":"Estrada do Laticínio","municipio":""},"geometry":{"type":"Point","coordinates":[-52.89265,-25.86441]}},{"type":"Feature","properties":{"kind":"laticinio","nome":"Estrada do Laticínio","municipio":""},"geometry":{"type":"Point","coordinates":[-52.89432,-25.84932]}},{"type":"Feature","properties":{"kind":"laticinio","nome":"Estrada do Laticínio","municipio":""},"geometry":{"type":"Point","coordinates":[-52.88434,-25.85533]}},{"type":"Feature","properties":{"kind":"serraria","nome":"Arpeco S.a. Artefatos de Papel","municipio":""},"geometry":{"type":"Point","coordinates":[-49.33546,-25.55128]}},{"type":"Feature","properties":{"kind":"serraria","nome":"Cocelpa Fábrica de Celulose e Papel","municipio":""},"geometry":{"type":"Point","coordinates":[-49.34731,-25.55469]}},{"type":"Feature","properties":{"kind":"serraria","nome":"Fabrica Papelão","municipio":""},"geometry":{"type":"Point","coordinates":[-51.67261,-24.74986]}},{"type":"Feature","properties":{"kind":"serraria","nome":"Iguaçu Papel e Celulose","municipio":""},"geometry":{"type":"Point","coordinates":[-49.97233,-24.61699]}},{"type":"Feature","properties":{"kind":"serraria","nome":"Klabin","municipio":""},"geometry":{"type":"Point","coordinates":[-49.77269,-26.08316]}},{"type":"Feature","properties":{"kind":"serraria","nome":"Klabin Monte Alegre","municipio":""},"geometry":{"type":"Point","coordinates":[-50.61021,-24.31262]}},{"type":"Feature","properties":{"kind":"serraria","nome":"Puma Klabin","municipio":""},"geometry":{"type":"Point","coordinates":[-50.74261,-24.24444]}},{"type":"Feature","properties":{"kind":"serraria","nome":"Santa Maria Companhia de Papel e Celulose","municipio":""},"geometry":{"type":"Point","coordinates":[-51.65717,-25.44908]}},{"type":"Feature","properties":{"kind":"serraria","nome":"Arauco","municipio":""},"geometry":{"type":"Point","coordinates":[-50.10465,-25.18495]}},{"type":"Feature","properties":{"kind":"serraria","nome":"Arauco Jaguariaíva","municipio":""},"geometry":{"type":"Point","coordinates":[-49.74771,-24.23957]}},{"type":"Feature","properties":{"kind":"serraria","nome":"Arauco Piên","municipio":""},"geometry":{"type":"Point","coordinates":[-49.42582,-26.08982]}},{"type":"Feature","properties":{"kind":"serraria","nome":"Fortuna Compensados e Laminados","municipio":""},"geometry":{"type":"Point","coordinates":[-51.12228,-26.24238]}},{"type":"Feature","properties":{"kind":"serraria","nome":"Madereira Berneck","municipio":""},"geometry":{"type":"Point","coordinates":[-49.37412,-25.54338]}},{"type":"Feature","properties":{"kind":"serraria","nome":"Almeida Madeiras","municipio":""},"geometry":{"type":"Point","coordinates":[-49.33697,-25.2083]}},{"type":"Feature","properties":{"kind":"serraria","nome":"Braspine Madeiras","municipio":""},"geometry":{"type":"Point","coordinates":[-49.67476,-24.23122]}},{"type":"Feature","properties":{"kind":"serraria","nome":"Comércio de Madeiras Benatto","municipio":""},"geometry":{"type":"Point","coordinates":[-49.35762,-25.23156]}},{"type":"Feature","properties":{"kind":"serraria","nome":"Comércio de Madeiras Brandes","municipio":""},"geometry":{"type":"Point","coordinates":[-50.06104,-24.97469]}},{"type":"Feature","properties":{"kind":"serraria","nome":"G. Almeida Madeiras","municipio":""},"geometry":{"type":"Point","coordinates":[-49.33664,-25.24081]}},{"type":"Feature","properties":{"kind":"serraria","nome":"Gsp Madeiras","municipio":""},"geometry":{"type":"Point","coordinates":[-49.37615,-25.23642]}},{"type":"Feature","properties":{"kind":"serraria","nome":"Kimadeiras","municipio":""},"geometry":{"type":"Point","coordinates":[-49.3512,-25.47942]}},{"type":"Feature","properties":{"kind":"serraria","nome":"Leder Comércio de Madeira","municipio":""},"geometry":{"type":"Point","coordinates":[-49.34672,-25.22545]}},{"type":"Feature","properties":{"kind":"serraria","nome":"Rcm Estruturas de Madeira","municipio":""},"geometry":{"type":"Point","coordinates":[-49.36254,-25.22729]}},{"type":"Feature","properties":{"kind":"serraria","nome":"Serraria","municipio":""},"geometry":{"type":"Point","coordinates":[-50.17675,-25.14455]}},{"type":"Feature","properties":{"kind":"serraria","nome":"Serraria Becker","municipio":""},"geometry":{"type":"Point","coordinates":[-52.39498,-25.38203]}},{"type":"Feature","properties":{"kind":"serraria","nome":"Serraria Ccs","municipio":""},"geometry":{"type":"Point","coordinates":[-49.35535,-25.21898]}},{"type":"Feature","properties":{"kind":"serraria","nome":"Serraria Sta. Rita de Cássia","municipio":""},"geometry":{"type":"Point","coordinates":[-49.34363,-25.22653]}},{"type":"Feature","properties":{"kind":"serraria","nome":"Serraria Sta. Rita de Cássia","municipio":""},"geometry":{"type":"Point","coordinates":[-49.36856,-25.18662]}},{"type":"Feature","properties":{"kind":"serraria","nome":"Serraria e Madeireira Jr Bonfim","municipio":""},"geometry":{"type":"Point","coordinates":[-49.37744,-25.24071]}}]}