{"type":"FeatureCollection","features":[{"type":"Feature","properties":{"kind":"ceasa","nome":"CEASA Curitiba"},"geometry":{"type":"Point","coordinates":[-49.3182,-25.5653]}},{"type":"Feature","properties":{"kind":"ceasa","nome":"CEASA Londrina"},"geometry":{"type":"Point","coordinates":[-51.1371,-23.3486]}},{"type":"Feature","properties":{"kind":"ceasa","nome":"CEASA Maringá"},"geometry":{"type":"Point","coordinates":[-51.9056,-23.457]}},{"type":"Feature","properties":{"kind":"ceasa","nome":"CEASA Cascavel"},"geometry":{"type":"Point","coordinates":[-53.4419,-24.98]}},{"type":"Feature","properties":{"kind":"ceasa","nome":"CEASA Foz do Iguaçu"},"geometry":{"type":"Point","coordinates":[-54.551,-25.509]}}]}