{"type":"FeatureCollection","fonte":"IAT/GeoPR · Localização dos Faxinais NGEO, ZEE-PR (2010)","geradoEm":"2026-10-01","features":[{"type":"Feature","properties":{"nome":"Faxinal dos Stresser","tipo":"Faxinal","situacao":"1","nro":"111","municipio":"Inácio Martins","ibge":"4110201"},"geometry":{"type":"Point","coordinates":[-51.06356,-25.62276]}},{"type":"Feature","properties":{"nome":"Colônia Dallegrave","tipo":"Faxinal","situacao":"3","nro":"112","municipio":"Inácio Martins","ibge":"4110201"},"geometry":{"type":"Point","coordinates":[-51.06157,-25.67691]}},{"type":"Feature","properties":{"nome":"Faxinal dos Matoso","tipo":"Faxinal","situacao":"1","nro":"113","municipio":"Inácio Martins","ibge":"4110201"},"geometry":{"type":"Point","coordinates":[-51.01292,-25.60576]}},{"type":"Feature","properties":{"nome":"Faxinal do Posto","tipo":"Faxinal","situacao":"1","nro":"114","municipio":"Inácio Martins","ibge":"4110201"},"geometry":{"type":"Point","coordinates":[-51.24995,-25.56108]}},{"type":"Feature","properties":{"nome":"São Pedro","tipo":"Faxinal","situacao":"1","nro":"115","municipio":"Cruz Machado","ibge":"4106803"},"geometry":{"type":"Point","coordinates":[-51.0073,-25.73292]}},{"type":"Feature","properties":{"nome":"São Miguel","tipo":"Faxinal","situacao":"1","nro":"116","municipio":"Cruz Machado","ibge":"4106803"},"geometry":{"type":"Point","coordinates":[-50.98935,-25.67682]}},{"type":"Feature","properties":{"nome":"Gavazzoni","tipo":"Faxinal","situacao":"4","nro":"117","municipio":"Inácio Martins","ibge":"4110201"},"geometry":{"type":"Point","coordinates":[-51.29759,-25.80376]}},{"type":"Feature","properties":{"nome":"São Domingos","tipo":"Faxinal","situacao":"3","nro":"118","municipio":"Inácio Martins","ibge":"4110201"},"geometry":{"type":"Point","coordinates":[-51.3276,-25.6574]}},{"type":"Feature","properties":{"nome":"Quarteirão do","tipo":"Faxinal","situacao":"3","nro":"119","municipio":"Inácio Martins","ibge":"4110201"},"geometry":{"type":"Point","coordinates":[-51.32716,-25.65015]}},{"type":"Feature","properties":{"nome":"Faxinal Mansa","tipo":"Faxinal","situacao":"2","nro":"120","municipio":"Inácio Martins","ibge":"4110201"},"geometry":{"type":"Point","coordinates":[-51.1494,-25.6722]}},{"type":"Feature","properties":{"nome":"Rio Pequeno","tipo":"Faxinal","situacao":"3","nro":"121","municipio":"Inácio Martins","ibge":"4110201"},"geometry":{"type":"Point","coordinates":[-51.08774,-25.60019]}},{"type":"Feature","properties":{"nome":"Campina Bonita","tipo":"Faxinal","situacao":"1","nro":"122","municipio":"Inácio Martins","ibge":"4110201"},"geometry":{"type":"Point","coordinates":[-51.19066,-25.62434]}},{"type":"Feature","properties":{"nome":"Bom Retiro de","tipo":"Faxinal","situacao":"1","nro":"123","municipio":"Inácio Martins","ibge":"4110201"},"geometry":{"type":"Point","coordinates":[-51.32148,-25.76592]}},{"type":"Feature","properties":{"nome":"Queimadas","tipo":"Faxinal","situacao":"3","nro":"124","municipio":"Inácio Martins","ibge":"4110201"},"geometry":{"type":"Point","coordinates":[-51.1119,-25.58667]}},{"type":"Feature","properties":{"nome":"Potinga","tipo":"Faxinal","situacao":"1","nro":"125","municipio":"Inácio Martins","ibge":"4110201"},"geometry":{"type":"Point","coordinates":[-51.10948,-25.71657]}},{"type":"Feature","properties":{"nome":"Matão","tipo":"Faxinal","situacao":"2","nro":"126","municipio":"Inácio Martins","ibge":"4110201"},"geometry":{"type":"Point","coordinates":[-51.278,-25.7266]}},{"type":"Feature","properties":{"nome":"Rio Claro","tipo":"Faxinal","situacao":"3","nro":"127","municipio":"Inácio Martins","ibge":"4110201"},"geometry":{"type":"Point","coordinates":[-51.27351,-25.74925]}},{"type":"Feature","properties":{"nome":"Faxinal Estan","tipo":"Faxinal","situacao":"4","nro":"150","municipio":"São João do Triunfo","ibge":"4125100"},"geometry":{"type":"Point","coordinates":[-50.36123,-25.72361]}},{"type":"Feature","properties":{"nome":"Espigão das Antas","tipo":"Faxinal","situacao":"2","nro":"1","municipio":"Mandirituba","ibge":"4114302"},"geometry":{"type":"Point","coordinates":[-49.3438,-25.90747]}},{"type":"Feature","properties":{"nome":"Meleiro","tipo":"Faxinal","situacao":"2","nro":"2","municipio":"Mandirituba","ibge":"4114302"},"geometry":{"type":"Point","coordinates":[-49.34367,-25.88356]}},{"type":"Feature","properties":{"nome":"Barco","tipo":"Faxinal","situacao":"4","nro":"3","municipio":"Quitandinha","ibge":"4121208"},"geometry":{"type":"Point","coordinates":[-49.39987,-25.94115]}},{"type":"Feature","properties":{"nome":"Rio da Várzea","tipo":"Faxinal","situacao":"4","nro":"4","municipio":"Quitandinha","ibge":"4121208"},"geometry":{"type":"Point","coordinates":[-49.39522,-25.9405]}},{"type":"Feature","properties":{"nome":"Avencal","tipo":"Faxinal","situacao":"4","nro":"5","municipio":"Quitandinha","ibge":"4121208"},"geometry":{"type":"Point","coordinates":[-49.39002,-25.9405]}},{"type":"Feature","properties":{"nome":"Gavião","tipo":"Faxinal","situacao":"3","nro":"6","municipio":"Mandirituba","ibge":"4114302"},"geometry":{"type":"Point","coordinates":[-49.32925,-25.88258]}},{"type":"Feature","properties":{"nome":"Lagoa dos Ferreira","tipo":"Faxinal","situacao":"4","nro":"7","municipio":"Mandirituba","ibge":"4114302"},"geometry":{"type":"Point","coordinates":[-49.3211,-25.86775]}},{"type":"Feature","properties":{"nome":"Tronco","tipo":"Faxinal","situacao":"4","nro":"8","municipio":"Tijucas do Sul","ibge":"4127601"},"geometry":{"type":"Point","coordinates":[-49.28097,-25.9352]}},{"type":"Feature","properties":{"nome":"Ilha","tipo":"Faxinal","situacao":"4","nro":"9","municipio":"Mandirituba","ibge":"4114302"},"geometry":{"type":"Point","coordinates":[-49.27544,-25.92112]}},{"type":"Feature","properties":{"nome":"Campestre dos Paula","tipo":"Faxinal","situacao":"2","nro":"10","municipio":"Mandirituba","ibge":"4114302"},"geometry":{"type":"Point","coordinates":[-49.38479,-25.82949]}},{"type":"Feature","properties":{"nome":"Guapiara","tipo":"Faxinal","situacao":"4","nro":"11","municipio":"Mandirituba","ibge":"4114302"},"geometry":{"type":"Point","coordinates":[-49.3211,-25.86293]}},{"type":"Feature","properties":{"nome":"Paraguay","tipo":"Faxinal","situacao":"4","nro":"12","municipio":"Mandirituba","ibge":"4114302"},"geometry":{"type":"Point","coordinates":[-49.38125,-25.89956]}},{"type":"Feature","properties":{"nome":"Rio da Várzea dos Borges","tipo":"Faxinal","situacao":"4","nro":"13","municipio":"Mandirituba","ibge":"4114302"},"geometry":{"type":"Point","coordinates":[-49.3131,-25.90944]}},{"type":"Feature","properties":{"nome":"Santo Antonio","tipo":"Faxinal","situacao":"4","nro":"14","municipio":"Mandirituba","ibge":"4114302"},"geometry":{"type":"Point","coordinates":[-49.3131,-25.92086]}},{"type":"Feature","properties":{"nome":"Caí de Cima","tipo":"Faxinal","situacao":"4","nro":"15","municipio":"Mandirituba","ibge":"4114302"},"geometry":{"type":"Point","coordinates":[-49.42765,-25.87733]}},{"type":"Feature","properties":{"nome":"Água Clara de Cima","tipo":"Faxinal","situacao":"2","nro":"16","municipio":"Quitandinha","ibge":"4121208"},"geometry":{"type":"Point","coordinates":[-49.40618,-25.96205]}},{"type":"Feature","properties":{"nome":"São Gabriel","tipo":"Faxinal","situacao":"3","nro":"17","municipio":"Quitandinha","ibge":"4121208"},"geometry":{"type":"Point","coordinates":[-49.54279,-25.86315]}},{"type":"Feature","properties":{"nome":"Barro Branco","tipo":"Faxinal","situacao":"4","nro":"18","municipio":"Quitandinha","ibge":"4121208"},"geometry":{"type":"Point","coordinates":[-49.60804,-25.85952]}},{"type":"Feature","properties":{"nome":"Salso","tipo":"Faxinal","situacao":"2","nro":"19","municipio":"Quitandinha","ibge":"4121208"},"geometry":{"type":"Point","coordinates":[-49.48684,-25.88956]}},{"type":"Feature","properties":{"nome":"Caizinho","tipo":"Faxinal","situacao":"2","nro":"20","municipio":"Quitandinha","ibge":"4121208"},"geometry":{"type":"Point","coordinates":[-49.42453,-25.86173]}},{"type":"Feature","properties":{"nome":"Reis","tipo":"Faxinal","situacao":"3","nro":"21","municipio":"Quitandinha","ibge":"4121208"},"geometry":{"type":"Point","coordinates":[-49.50545,-25.81724]}},{"type":"Feature","properties":{"nome":"Doce Grande e Quicé","tipo":"Faxinal","situacao":"2","nro":"22","municipio":"Quitandinha","ibge":"4121208"},"geometry":{"type":"Point","coordinates":[-49.42931,-26.02069]}},{"type":"Feature","properties":{"nome":"Quicé dos Alves","tipo":"Faxinal","situacao":"3","nro":"24","municipio":"Quitandinha","ibge":"4121208"},"geometry":{"type":"Point","coordinates":[-49.47152,-25.98344]}},{"type":"Feature","properties":{"nome":"Cerrinho","tipo":"Faxinal","situacao":"2","nro":"25","municipio":"Quitandinha","ibge":"4121208"},"geometry":{"type":"Point","coordinates":[-49.48357,-25.96542]}},{"type":"Feature","properties":{"nome":"Pangaré","tipo":"Faxinal","situacao":"4","nro":"26","municipio":"Prudentópolis","ibge":"4120606"},"geometry":{"type":"Point","coordinates":[-50.97439,-25.18654]}},{"type":"Feature","properties":{"nome":"Quebra Joelho","tipo":"Faxinal","situacao":"2","nro":"27","municipio":"Quitandinha","ibge":"4121208"},"geometry":{"type":"Point","coordinates":[-49.40361,-25.96149]}},{"type":"Feature","properties":{"nome":"Doce Fino","tipo":"Faxinal","situacao":"2","nro":"28","municipio":"Quitandinha","ibge":"4121208"},"geometry":{"type":"Point","coordinates":[-49.4422,-25.97108]}},{"type":"Feature","properties":{"nome":"Piraí","tipo":"Faxinal","situacao":"3","nro":"34","municipio":"Tijucas do Sul","ibge":"4127601"},"geometry":{"type":"Point","coordinates":[-49.06725,-26.00164]}},{"type":"Feature","properties":{"nome":"Campestre","tipo":"Faxinal","situacao":"4","nro":"35","municipio":"Tijucas do Sul","ibge":"4127601"},"geometry":{"type":"Point","coordinates":[-49.19943,-25.98267]}},{"type":"Feature","properties":{"nome":"Cangoera","tipo":"Faxinal","situacao":"2","nro":"36","municipio":"Tijucas do Sul","ibge":"4127601"},"geometry":{"type":"Point","coordinates":[-49.15952,-25.99989]}},{"type":"Feature","properties":{"nome":"Gama","tipo":"Faxinal","situacao":"4","nro":"37","municipio":"Tijucas do Sul","ibge":"4127601"},"geometry":{"type":"Point","coordinates":[-49.2278,-25.9201]}},{"type":"Feature","properties":{"nome":"Papanduva","tipo":"Faxinal","situacao":"4","nro":"38","municipio":"Tijucas do Sul","ibge":"4127601"},"geometry":{"type":"Point","coordinates":[-49.13477,-26.0045]}},{"type":"Feature","properties":{"nome":"Araçatuba","tipo":"Faxinal","situacao":"2","nro":"39","municipio":"Tijucas do Sul","ibge":"4127601"},"geometry":{"type":"Point","coordinates":[-49.25281,-25.90361]}},{"type":"Feature","properties":{"nome":"Ximbuva","tipo":"Faxinal","situacao":"2","nro":"40","municipio":"Tijucas do Sul","ibge":"4127601"},"geometry":{"type":"Point","coordinates":[-49.27862,-25.92758]}},{"type":"Feature","properties":{"nome":"Leão","tipo":"Faxinal","situacao":"4","nro":"41","municipio":"Agudos do Sul","ibge":"4100301"},"geometry":{"type":"Point","coordinates":[-49.33934,-25.97046]}},{"type":"Feature","properties":{"nome":"Ribeirãozinho","tipo":"Faxinal","situacao":"4","nro":"42","municipio":"Agudos do Sul","ibge":"4100301"},"geometry":{"type":"Point","coordinates":[-49.32983,-25.96548]}},{"type":"Feature","properties":{"nome":"Taboão","tipo":"Faxinal","situacao":"4","nro":"43","municipio":"Agudos do Sul","ibge":"4100301"},"geometry":{"type":"Point","coordinates":[-49.36361,-25.97126]}},{"type":"Feature","properties":{"nome":"Queimadas de Baixo","tipo":"Faxinal","situacao":"4","nro":"44","municipio":"Agudos do Sul","ibge":"4100301"},"geometry":{"type":"Point","coordinates":[-49.35694,-25.99843]}},{"type":"Feature","properties":{"nome":"Taquara Lisa","tipo":"Faxinal","situacao":"4","nro":"45","municipio":"Agudos do Sul","ibge":"4100301"},"geometry":{"type":"Point","coordinates":[-49.32188,-26.00417]}},{"type":"Feature","properties":{"nome":"Pedra Branca e Papanduvas","tipo":"Faxinal","situacao":"3","nro":"46","municipio":"Agudos do Sul","ibge":"4100301"},"geometry":{"type":"Point","coordinates":[-49.29856,-26.02006]}},{"type":"Feature","properties":{"nome":"Gramado","tipo":"Faxinal","situacao":"4","nro":"47","municipio":"Piên","ibge":"4119103"},"geometry":{"type":"Point","coordinates":[-49.43018,-26.08339]}},{"type":"Feature","properties":{"nome":"Poço Frio dos Moreiras","tipo":"Faxinal","situacao":"4","nro":"48","municipio":"Piên","ibge":"4119103"},"geometry":{"type":"Point","coordinates":[-49.46951,-26.08528]}},{"type":"Feature","properties":{"nome":"Faxinal dos Rodrigues","tipo":"Faxinal","situacao":"3","nro":"49","municipio":"Piên","ibge":"4119103"},"geometry":{"type":"Point","coordinates":[-49.45528,-26.04155]}},{"type":"Feature","properties":{"nome":"Poço Frio","tipo":"Faxinal","situacao":"4","nro":"50","municipio":"Piên","ibge":"4119103"},"geometry":{"type":"Point","coordinates":[-49.46413,-26.10323]}},{"type":"Feature","properties":{"nome":"Dos Dias","tipo":"Faxinal","situacao":"4","nro":"51","municipio":"Lapa","ibge":"4113205"},"geometry":{"type":"Point","coordinates":[-49.94563,-25.81608]}},{"type":"Feature","properties":{"nome":"Dos Fior","tipo":"Faxinal","situacao":"4","nro":"52","municipio":"Lapa","ibge":"4113205"},"geometry":{"type":"Point","coordinates":[-49.91754,-25.80566]}},{"type":"Feature","properties":{"nome":"Segundo Castilho","tipo":"Faxinal","situacao":"4","nro":"53","municipio":"Lapa","ibge":"4113205"},"geometry":{"type":"Point","coordinates":[-49.94141,-25.83704]}},{"type":"Feature","properties":{"nome":"Carqueja","tipo":"Faxinal","situacao":"3","nro":"55","municipio":"Lapa","ibge":"4113205"},"geometry":{"type":"Point","coordinates":[-50.07531,-25.83314]}},{"type":"Feature","properties":{"nome":"Dos Pretos","tipo":"Faxinal","situacao":"4","nro":"56","municipio":"Lapa","ibge":"4113205"},"geometry":{"type":"Point","coordinates":[-49.77688,-25.85336]}},{"type":"Feature","properties":{"nome":"Paiquerê","tipo":"Faxinal","situacao":"4","nro":"58","municipio":"Lapa","ibge":"4113205"},"geometry":{"type":"Point","coordinates":[-50.0582,-25.67308]}},{"type":"Feature","properties":{"nome":"Os Paiol","tipo":"Faxinal","situacao":"4","nro":"59","municipio":"Lapa","ibge":"4113205"},"geometry":{"type":"Point","coordinates":[-49.88821,-25.71298]}},{"type":"Feature","properties":{"nome":"Mato Queimado","tipo":"Faxinal","situacao":"2","nro":"60","municipio":"Lapa","ibge":"4113205"},"geometry":{"type":"Point","coordinates":[-50.15856,-25.77906]}},{"type":"Feature","properties":{"nome":"Palmital","tipo":"Faxinal","situacao":"4","nro":"61","municipio":"Lapa","ibge":"4113205"},"geometry":{"type":"Point","coordinates":[-50.13206,-25.76937]}},{"type":"Feature","properties":{"nome":"Canoeiro","tipo":"Faxinal","situacao":"3","nro":"62","municipio":"Lapa","ibge":"4113205"},"geometry":{"type":"Point","coordinates":[-50.1884,-25.79853]}},{"type":"Feature","properties":{"nome":"Santo Amaro","tipo":"Faxinal","situacao":"4","nro":"63","municipio":"Lapa","ibge":"4113205"},"geometry":{"type":"Point","coordinates":[-49.88821,-25.70346]}},{"type":"Feature","properties":{"nome":"Floresta São João","tipo":"Faxinal","situacao":"3","nro":"64","municipio":"Lapa","ibge":"4113205"},"geometry":{"type":"Point","coordinates":[-50.1386,-25.72906]}},{"type":"Feature","properties":{"nome":"Marcondes","tipo":"ARESUR","situacao":"2","nro":"68","municipio":"Prudentópolis","ibge":"4120606"},"geometry":{"type":"Point","coordinates":[-51.01949,-25.31045]}},{"type":"Feature","properties":{"nome":"Tijuco Preto","tipo":"ARESUR","situacao":"2","nro":"69","municipio":"Prudentópolis","ibge":"4120606"},"geometry":{"type":"Point","coordinates":[-51.08158,-25.37968]}},{"type":"Feature","properties":{"nome":"Santo Antônio/Guarapuava","tipo":"ARESUR","situacao":"3","nro":"70","municipio":"Prudentópolis","ibge":"4120606"},"geometry":{"type":"Point","coordinates":[-51.02283,-25.34435]}},{"type":"Feature","properties":{"nome":"Taboãozinho","tipo":"ARESUR","situacao":"2","nro":"71","municipio":"Prudentópolis","ibge":"4120606"},"geometry":{"type":"Point","coordinates":[-51.03919,-25.3648]}},{"type":"Feature","properties":{"nome":"Ponte Nova","tipo":"Faxinal","situacao":"3","nro":"72","municipio":"Prudentópolis","ibge":"4120606"},"geometry":{"type":"Point","coordinates":[-50.98973,-25.36713]}},{"type":"Feature","properties":{"nome":"Patos Velhos","tipo":"Faxinal","situacao":"3","nro":"73","municipio":"Prudentópolis","ibge":"4120606"},"geometry":{"type":"Point","coordinates":[-50.9805,-25.37167]}},{"type":"Feature","properties":{"nome":"Paraná Anta Gorda","tipo":"ARESUR","situacao":"2","nro":"74","municipio":"Prudentópolis","ibge":"4120606"},"geometry":{"type":"Point","coordinates":[-51.0889,-25.11546]}},{"type":"Feature","properties":{"nome":"Ivaí Anta Gorda","tipo":"ARESUR","situacao":"2","nro":"75","municipio":"Prudentópolis","ibge":"4120606"},"geometry":{"type":"Point","coordinates":[-51.04204,-25.12227]}},{"type":"Feature","properties":{"nome":"Barra Bonita","tipo":"ARESUR","situacao":"2","nro":"76","municipio":"Prudentópolis","ibge":"4120606"},"geometry":{"type":"Point","coordinates":[-51.01516,-25.07534]}},{"type":"Feature","properties":{"nome":"Manduri","tipo":"Faxinal","situacao":"2","nro":"77","municipio":"Prudentópolis","ibge":"4120606"},"geometry":{"type":"Point","coordinates":[-50.91886,-25.19069]}},{"type":"Feature","properties":{"nome":"São Pedro","tipo":"Faxinal","situacao":"2","nro":"78","municipio":"Prudentópolis","ibge":"4120606"},"geometry":{"type":"Point","coordinates":[-50.91789,-25.23447]}},{"type":"Feature","properties":{"nome":"Papanduva de Baixo","tipo":"ARESUR","situacao":"2","nro":"79","municipio":"Prudentópolis","ibge":"4120606"},"geometry":{"type":"Point","coordinates":[-50.882,-25.2721]}},{"type":"Feature","properties":{"nome":"Papanduva de Cima","tipo":"Faxinal","situacao":"4","nro":"80","municipio":"Prudentópolis","ibge":"4120606"},"geometry":{"type":"Point","coordinates":[-50.80814,-25.3122]}},{"type":"Feature","properties":{"nome":"Barro Branco","tipo":"Faxinal","situacao":"3","nro":"81","municipio":"Prudentópolis","ibge":"4120606"},"geometry":{"type":"Point","coordinates":[-50.81183,-25.29244]}},{"type":"Feature","properties":{"nome":"Água Quente dos Meiras","tipo":"Faxinal","situacao":"2","nro":"85","municipio":"Rio Azul","ibge":"4122008"},"geometry":{"type":"Point","coordinates":[-50.85216,-25.60698]}},{"type":"Feature","properties":{"nome":"Lajeado dos Mellos","tipo":"ARESUR","situacao":"2","nro":"86","municipio":"Rio Azul","ibge":"4122008"},"geometry":{"type":"Point","coordinates":[-50.76105,-25.82464]}},{"type":"Feature","properties":{"nome":"Taquari","tipo":"ARESUR","situacao":"2","nro":"87","municipio":"Rio Azul","ibge":"4122008"},"geometry":{"type":"Point","coordinates":[-50.90858,-25.58977]}},{"type":"Feature","properties":{"nome":"Emboque","tipo":"ARESUR","situacao":"2","nro":"100","municipio":"São Mateus do Sul","ibge":"4125605"},"geometry":{"type":"Point","coordinates":[-50.479,-25.89829]}},{"type":"Feature","properties":{"nome":"Água Branca","tipo":"Faxinal","situacao":"2","nro":"101","municipio":"São Mateus do Sul","ibge":"4125605"},"geometry":{"type":"Point","coordinates":[-50.37325,-25.83368]}},{"type":"Feature","properties":{"nome":"Pirapó","tipo":"Faxinal","situacao":"4","nro":"112","municipio":"Irati","ibge":"4110706"},"geometry":{"type":"Point","coordinates":[-50.85332,-25.53248]}},{"type":"Feature","properties":{"nome":"Faxinal dos Mellos","tipo":"ARESUR","situacao":"3","nro":"113","municipio":"Irati","ibge":"4110706"},"geometry":{"type":"Point","coordinates":[-50.84886,-25.45491]}},{"type":"Feature","properties":{"nome":"Faxinal do Rio do Couro","tipo":"ARESUR","situacao":"2","nro":"114","municipio":"Irati","ibge":"4110706"},"geometry":{"type":"Point","coordinates":[-50.85699,-25.46173]}},{"type":"Feature","properties":{"nome":"Cachoeira do Pal","tipo":"ARESUR","situacao":"3","nro":"115","municipio":"Irati","ibge":"4110706"},"geometry":{"type":"Point","coordinates":[-50.91127,-25.42629]}},{"type":"Feature","properties":{"nome":"Cadeado Grande","tipo":"Faxinal","situacao":"2","nro":"116","municipio":"Irati","ibge":"4110706"},"geometry":{"type":"Point","coordinates":[-50.94941,-25.41943]}},{"type":"Feature","properties":{"nome":"Cadeado Santana","tipo":"Faxinal","situacao":"4","nro":"117","municipio":"Irati","ibge":"4110706"},"geometry":{"type":"Point","coordinates":[-50.96585,-25.44133]}},{"type":"Feature","properties":{"nome":"Itapará","tipo":"Faxinal","situacao":"2","nro":"118","municipio":"Irati","ibge":"4110706"},"geometry":{"type":"Point","coordinates":[-51.04716,-25.47883]}},{"type":"Feature","properties":{"nome":"Monjolo","tipo":"Faxinal","situacao":"2","nro":"119","municipio":"Irati","ibge":"4110706"},"geometry":{"type":"Point","coordinates":[-50.70712,-25.55343]}},{"type":"Feature","properties":{"nome":"Rio Corrente","tipo":"Faxinal","situacao":"4","nro":"121","municipio":"Irati","ibge":"4110706"},"geometry":{"type":"Point","coordinates":[-50.7354,-25.52173]}},{"type":"Feature","properties":{"nome":"Campina do Guami","tipo":"Faxinal","situacao":"3","nro":"122","municipio":"Irati","ibge":"4110706"},"geometry":{"type":"Point","coordinates":[-50.84001,-25.58432]}},{"type":"Feature","properties":{"nome":"Rio Preto","tipo":"Faxinal","situacao":"4","nro":"123","municipio":"Irati","ibge":"4110706"},"geometry":{"type":"Point","coordinates":[-50.77553,-25.52744]}},{"type":"Feature","properties":{"nome":"Pedra Preta","tipo":"Faxinal","situacao":"4","nro":"124","municipio":"Piên","ibge":"4119103"},"geometry":{"type":"Point","coordinates":[-49.43017,-26.06059]}},{"type":"Feature","properties":{"nome":"Papuã","tipo":"Faxinal","situacao":"3","nro":"126","municipio":"Imbituva","ibge":"4110102"},"geometry":{"type":"Point","coordinates":[-50.62552,-25.3837]}},{"type":"Feature","properties":{"nome":"Lagoa","tipo":"Faxinal","situacao":"3","nro":"127","municipio":"Imbituva","ibge":"4110102"},"geometry":{"type":"Point","coordinates":[-50.63641,-25.29445]}},{"type":"Feature","properties":{"nome":"Faxinal dos Augustos","tipo":"Faxinal","situacao":"4","nro":"128","municipio":"Imbituva","ibge":"4110102"},"geometry":{"type":"Point","coordinates":[-50.66734,-25.26307]}},{"type":"Feature","properties":{"nome":"Arroio Grande","tipo":"Faxinal","situacao":"4","nro":"129","municipio":"Imbituva","ibge":"4110102"},"geometry":{"type":"Point","coordinates":[-50.65198,-25.27844]}},{"type":"Feature","properties":{"nome":"Pedra Lisa","tipo":"Faxinal","situacao":"4","nro":"130","municipio":"Imbituva","ibge":"4110102"},"geometry":{"type":"Point","coordinates":[-50.72991,-25.11469]}},{"type":"Feature","properties":{"nome":"Água Suja","tipo":"Faxinal","situacao":"4","nro":"131","municipio":"Imbituva","ibge":"4110102"},"geometry":{"type":"Point","coordinates":[-50.74693,-25.14224]}},{"type":"Feature","properties":{"nome":"Valinhos ou Mato","tipo":"Faxinal","situacao":"3","nro":"132","municipio":"Imbituva","ibge":"4110102"},"geometry":{"type":"Point","coordinates":[-50.70547,-25.16957]}},{"type":"Feature","properties":{"nome":"Alto do Tigre","tipo":"Faxinal","situacao":"4","nro":"133","municipio":"Guamiranga","ibge":"4108957"},"geometry":{"type":"Point","coordinates":[-50.76182,-25.20187]}},{"type":"Feature","properties":{"nome":"Encruzilhada","tipo":"Faxinal","situacao":"3","nro":"161","municipio":"Irati","ibge":"4110706"},"geometry":{"type":"Point","coordinates":[-51.06049,-25.50356]}},{"type":"Feature","properties":{"nome":"Paiol do Fundo","tipo":"Faxinal","situacao":"4","nro":"162","municipio":"Palmeira","ibge":"4117701"},"geometry":{"type":"Point","coordinates":[-50.1397,-25.45418]}},{"type":"Feature","properties":{"nome":"Queimadas","tipo":"Faxinal","situacao":"4","nro":"163","municipio":"Palmeira","ibge":"4117701"},"geometry":{"type":"Point","coordinates":[-50.23863,-25.4756]}},{"type":"Feature","properties":{"nome":"Vileiros","tipo":"Faxinal","situacao":"4","nro":"164","municipio":"Palmeira","ibge":"4117701"},"geometry":{"type":"Point","coordinates":[-50.23678,-25.49297]}},{"type":"Feature","properties":{"nome":"Correias","tipo":"Faxinal","situacao":"4","nro":"165","municipio":"Palmeira","ibge":"4117701"},"geometry":{"type":"Point","coordinates":[-50.22072,-25.51802]}},{"type":"Feature","properties":{"nome":"Poço Grande","tipo":"Faxinal","situacao":"4","nro":"166","municipio":"São João do Triunfo","ibge":"4125100"},"geometry":{"type":"Point","coordinates":[-50.20018,-25.63562]}},{"type":"Feature","properties":{"nome":"Campestrinho","tipo":"Faxinal","situacao":"4","nro":"167","municipio":"Palmeira","ibge":"4117701"},"geometry":{"type":"Point","coordinates":[-50.26204,-25.47496]}},{"type":"Feature","properties":{"nome":"Guarauna das Tocas","tipo":"Faxinal","situacao":"3","nro":"168","municipio":"Palmeira","ibge":"4117701"},"geometry":{"type":"Point","coordinates":[-50.26911,-25.42006]}},{"type":"Feature","properties":{"nome":"Tocas","tipo":"Faxinal","situacao":"4","nro":"169","municipio":"Palmeira","ibge":"4117701"},"geometry":{"type":"Point","coordinates":[-50.261,-25.43483]}},{"type":"Feature","properties":{"nome":"Guaica","tipo":"Faxinal","situacao":"4","nro":"176","municipio":"São João do Triunfo","ibge":"4125100"},"geometry":{"type":"Point","coordinates":[-50.20005,-25.6188]}},{"type":"Feature","properties":{"nome":"Guaiaca dos Pretos","tipo":"Faxinal","situacao":"2","nro":"177","municipio":"São João do Triunfo","ibge":"4125100"},"geometry":{"type":"Point","coordinates":[-50.16757,-25.63857]}},{"type":"Feature","properties":{"nome":"Coxilhão das Ameixeiras","tipo":"Faxinal","situacao":"3","nro":"178","municipio":"São João do Triunfo","ibge":"4125100"},"geometry":{"type":"Point","coordinates":[-50.17555,-25.69207]}},{"type":"Feature","properties":{"nome":"Faxinal dos Andrades","tipo":"Faxinal","situacao":"3","nro":"179","municipio":"São João do Triunfo","ibge":"4125100"},"geometry":{"type":"Point","coordinates":[-50.23392,-25.7262]}},{"type":"Feature","properties":{"nome":"Faxinal dos Ferreiras","tipo":"Faxinal","situacao":"4","nro":"180","municipio":"São João do Triunfo","ibge":"4125100"},"geometry":{"type":"Point","coordinates":[-50.26862,-25.68625]}},{"type":"Feature","properties":{"nome":"Coxilhão do Meio","tipo":"Faxinal","situacao":"4","nro":"181","municipio":"São João do Triunfo","ibge":"4125100"},"geometry":{"type":"Point","coordinates":[-50.26862,-25.66667]}},{"type":"Feature","properties":{"nome":"Boa Vista","tipo":"Faxinal","situacao":"3","nro":"182","municipio":"São João do Triunfo","ibge":"4125100"},"geometry":{"type":"Point","coordinates":[-50.2044,-25.61772]}},{"type":"Feature","properties":{"nome":"Barra Bonita","tipo":"Faxinal","situacao":"4","nro":"183","municipio":"São João do Triunfo","ibge":"4125100"},"geometry":{"type":"Point","coordinates":[-50.39072,-25.70311]}},{"type":"Feature","properties":{"nome":"Faxinal dos Rodrigues","tipo":"Faxinal","situacao":"4","nro":"184","municipio":"São João do Triunfo","ibge":"4125100"},"geometry":{"type":"Point","coordinates":[-50.2413,-25.71833]}},{"type":"Feature","properties":{"nome":"Faxinal dos Seixas","tipo":"Faxinal","situacao":"2","nro":"185","municipio":"São João do Triunfo","ibge":"4125100"},"geometry":{"type":"Point","coordinates":[-50.38371,-25.56982]}},{"type":"Feature","properties":{"nome":"Faxinal dos Fabrícios","tipo":"Faxinal","situacao":"4","nro":"186","municipio":"São João do Triunfo","ibge":"4125100"},"geometry":{"type":"Point","coordinates":[-50.40424,-25.5793]}},{"type":"Feature","properties":{"nome":"Marmeleiro de Baixo","tipo":"ARESUR","situacao":"2","nro":"194","municipio":"Rebouças","ibge":"4121505"},"geometry":{"type":"Point","coordinates":[-50.54108,-25.68506]}},{"type":"Feature","properties":{"nome":"Marmeleiro de Cima","tipo":"ARESUR","situacao":"2","nro":"195","municipio":"Rebouças","ibge":"4121505"},"geometry":{"type":"Point","coordinates":[-50.53565,-25.64649]}},{"type":"Feature","properties":{"nome":"Barro Branco","tipo":"ARESUR","situacao":"2","nro":"196","municipio":"Rebouças","ibge":"4121505"},"geometry":{"type":"Point","coordinates":[-50.48388,-25.6924]}},{"type":"Feature","properties":{"nome":"Salto","tipo":"ARESUR","situacao":"2","nro":"197","municipio":"Rebouças","ibge":"4121505"},"geometry":{"type":"Point","coordinates":[-50.54835,-25.61583]}},{"type":"Feature","properties":{"nome":"Barreirinho dos Beltão","tipo":"Faxinal","situacao":"2","nro":"198","municipio":"Rebouças","ibge":"4121505"},"geometry":{"type":"Point","coordinates":[-50.65195,-25.73333]}},{"type":"Feature","properties":{"nome":"Faxinal dos Francos","tipo":"Faxinal","situacao":"4","nro":"199","municipio":"Rebouças","ibge":"4121505"},"geometry":{"type":"Point","coordinates":[-50.58545,-25.59839]}},{"type":"Feature","properties":{"nome":"Conceição de Cima","tipo":"Faxinal","situacao":"4","nro":"201","municipio":"Rebouças","ibge":"4121505"},"geometry":{"type":"Point","coordinates":[-50.57422,-25.69162]}},{"type":"Feature","properties":{"nome":"Saltinho","tipo":"Faxinal","situacao":"4","nro":"202","municipio":"Rebouças","ibge":"4121505"},"geometry":{"type":"Point","coordinates":[-50.64879,-25.67765]}},{"type":"Feature","properties":{"nome":"Barra dos Andradas","tipo":"Faxinal","situacao":"4","nro":"207","municipio":"Rebouças","ibge":"4121505"},"geometry":{"type":"Point","coordinates":[-50.60612,-25.66596]}},{"type":"Feature","properties":{"nome":"Faxinal dos Vieiras","tipo":"Faxinal","situacao":"4","nro":"208","municipio":"Rebouças","ibge":"4121505"},"geometry":{"type":"Point","coordinates":[-50.61041,-25.64556]}},{"type":"Feature","properties":{"nome":"Pântano Preto","tipo":"Faxinal","situacao":"4","nro":"209","municipio":"Rebouças","ibge":"4121505"},"geometry":{"type":"Point","coordinates":[-50.54668,-25.73997]}},{"type":"Feature","properties":{"nome":"Faxinal Lapeanos","tipo":"Faxinal","situacao":"2","nro":"214","municipio":"Fernandes Pinheiro","ibge":"4107736"},"geometry":{"type":"Point","coordinates":[-50.45292,-25.64482]}},{"type":"Feature","properties":{"nome":"Faxinal Saruvas","tipo":"Faxinal","situacao":"3","nro":"215","municipio":"Fernandes Pinheiro","ibge":"4107736"},"geometry":{"type":"Point","coordinates":[-50.4374,-25.62898]}},{"type":"Feature","properties":{"nome":"Faxinal Barreiro","tipo":"Faxinal","situacao":"2","nro":"216","municipio":"Fernandes Pinheiro","ibge":"4107736"},"geometry":{"type":"Point","coordinates":[-50.49462,-25.59798]}},{"type":"Feature","properties":{"nome":"Faxinal Santo Antônio","tipo":"Faxinal","situacao":"4","nro":"217","municipio":"Fernandes Pinheiro","ibge":"4107736"},"geometry":{"type":"Point","coordinates":[-50.42777,-25.57249]}},{"type":"Feature","properties":{"nome":"Faxinal Lajeado","tipo":"Faxinal","situacao":"2","nro":"222","municipio":"Mallet","ibge":"4113908"},"geometry":{"type":"Point","coordinates":[-50.76774,-25.82985]}},{"type":"Feature","properties":{"nome":"Faxinal Sete Sal","tipo":"Faxinal","situacao":"2","nro":"223","municipio":"Ponta Grossa","ibge":"4119905"},"geometry":{"type":"Point","coordinates":[-49.72519,-25.20311]}},{"type":"Feature","properties":{"nome":"Água Amarela de Cima","tipo":"Faxinal","situacao":"2","nro":"232","municipio":"Antônio Olinto","ibge":"4101309"},"geometry":{"type":"Point","coordinates":[-50.08214,-25.90257]}},{"type":"Feature","properties":{"nome":"Comunidade São L","tipo":"Faxinal","situacao":"4","nro":"235","municipio":"Pinhão","ibge":"4119301"},"geometry":{"type":"Point","coordinates":[-51.52533,-25.80494]}},{"type":"Feature","properties":{"nome":"Assentamento 1G","tipo":"Faxinal","situacao":"4","nro":"236","municipio":"Pinhão","ibge":"4119301"},"geometry":{"type":"Point","coordinates":[-51.53236,-25.82542]}},{"type":"Feature","properties":{"nome":"Faxinal dos Silva","tipo":"Faxinal","situacao":"4","nro":"237","municipio":"Pinhão","ibge":"4119301"},"geometry":{"type":"Point","coordinates":[-51.52159,-25.73555]}},{"type":"Feature","properties":{"nome":"Faxinal dos Ferreiras","tipo":"Faxinal","situacao":"4","nro":"239","municipio":"Pinhão","ibge":"4119301"},"geometry":{"type":"Point","coordinates":[-51.48875,-25.71019]}},{"type":"Feature","properties":{"nome":"Faxinal Bom Retiro","tipo":"Faxinal","situacao":"2","nro":"241","municipio":"Pinhão","ibge":"4119301"},"geometry":{"type":"Point","coordinates":[-51.45342,-25.72877]}},{"type":"Feature","properties":{"nome":"Faxinal Taquara","tipo":"Faxinal","situacao":"4","nro":"242","municipio":"Pinhão","ibge":"4119301"},"geometry":{"type":"Point","coordinates":[-51.56549,-25.86698]}},{"type":"Feature","properties":{"nome":"Comunidade da Água Amarela","tipo":"Faxinal","situacao":"1","nro":"245","municipio":"Pinhão","ibge":"4119301"},"geometry":{"type":"Point","coordinates":[-51.77762,-25.91595]}},{"type":"Feature","properties":{"nome":"Comunidade São Roque","tipo":"Faxinal","situacao":"4","nro":"246","municipio":"Pinhão","ibge":"4119301"},"geometry":{"type":"Point","coordinates":[-51.77656,-25.8514]}},{"type":"Feature","properties":{"nome":"Faxinal São Roque","tipo":"Faxinal","situacao":"1","nro":"247","municipio":"Pinhão","ibge":"4119301"},"geometry":{"type":"Point","coordinates":[-51.78415,-25.95095]}},{"type":"Feature","properties":{"nome":"Faxinal Nova Iguaçu","tipo":"Faxinal","situacao":"2","nro":"248","municipio":"Reserva do Iguaçu","ibge":"4121752"},"geometry":{"type":"Point","coordinates":[-51.99852,-25.97625]}},{"type":"Feature","properties":{"nome":"Faxinal dos Tell","tipo":"Faxinal","situacao":"3","nro":"251","municipio":"Pitanga","ibge":"4119608"},"geometry":{"type":"Point","coordinates":[-51.73591,-24.79007]}},{"type":"Feature","properties":{"nome":"Faxinal de São Pedro","tipo":"Faxinal","situacao":"4","nro":"258","municipio":"Imbaú","ibge":"4110078"},"geometry":{"type":"Point","coordinates":[-50.76414,-24.47064]}},{"type":"Feature","properties":{"nome":"Charqueada dos B","tipo":"Faxinal","situacao":"2","nro":"259","municipio":"Imbaú","ibge":"4110078"},"geometry":{"type":"Point","coordinates":[-50.76775,-24.49162]}},{"type":"Feature","properties":{"nome":"Comunidade Gavião","tipo":"Faxinal","situacao":"4","nro":"264","municipio":"Reserva","ibge":"4121703"},"geometry":{"type":"Point","coordinates":[-50.85208,-24.6136]}},{"type":"Feature","properties":{"nome":"Faxinal Fino","tipo":"Faxinal","situacao":"4","nro":"265","municipio":"Reserva","ibge":"4121703"},"geometry":{"type":"Point","coordinates":[-50.88175,-24.55226]}},{"type":"Feature","properties":{"nome":"Faxinal Saudade Santa Anita","tipo":"Faxinal","situacao":"2","nro":"267","municipio":"Turvo","ibge":"4127965"},"geometry":{"type":"Point","coordinates":[-51.65739,-25.04253]}},{"type":"Feature","properties":{"nome":"Faxinal Carriel","tipo":"Faxinal","situacao":"2","nro":"268","municipio":"Turvo","ibge":"4127965"},"geometry":{"type":"Point","coordinates":[-51.43895,-24.96162]}},{"type":"Feature","properties":{"nome":"Comunidade Tamanduá","tipo":"Faxinal","situacao":"3","nro":"270","municipio":"Turvo","ibge":"4127965"},"geometry":{"type":"Point","coordinates":[-51.55465,-25.01723]}},{"type":"Feature","properties":{"nome":"Comunidade Arvor","tipo":"Faxinal","situacao":"3","nro":"271","municipio":"Turvo","ibge":"4127965"},"geometry":{"type":"Point","coordinates":[-51.50002,-25.01042]}},{"type":"Feature","properties":{"nome":"Arroio Fundo dos","tipo":"Faxinal","situacao":"4","nro":"272","municipio":"Turvo","ibge":"4127965"},"geometry":{"type":"Point","coordinates":[-51.4981,-25.10747]}},{"type":"Feature","properties":{"nome":"Comunidade Cacho","tipo":"Faxinal","situacao":"2","nro":"273","municipio":"Turvo","ibge":"4127965"},"geometry":{"type":"Point","coordinates":[-51.69102,-25.0869]}},{"type":"Feature","properties":{"nome":"Comunidade Joaquim","tipo":"Faxinal","situacao":"4","nro":"274","municipio":"Turvo","ibge":"4127965"},"geometry":{"type":"Point","coordinates":[-51.52177,-25.09417]}},{"type":"Feature","properties":{"nome":"Ilha da Bandeira","tipo":"Faxinal","situacao":"4","nro":"275","municipio":"Turvo","ibge":"4127965"},"geometry":{"type":"Point","coordinates":[-51.57566,-25.12679]}},{"type":"Feature","properties":{"nome":"Curitiba dos Mor","tipo":"Faxinal","situacao":"3","nro":"276","municipio":"Turvo","ibge":"4127965"},"geometry":{"type":"Point","coordinates":[-51.62476,-25.11098]}},{"type":"Feature","properties":{"nome":"Faxinal Arroio Fundo","tipo":"Faxinal","situacao":"3","nro":"277","municipio":"Turvo","ibge":"4127965"},"geometry":{"type":"Point","coordinates":[-51.49815,-25.10177]}},{"type":"Feature","properties":{"nome":"Faxinal Campina","tipo":"Faxinal","situacao":"3","nro":"278","municipio":"Turvo","ibge":"4127965"},"geometry":{"type":"Point","coordinates":[-51.49383,-25.13135]}},{"type":"Feature","properties":{"nome":"Faxinal Paiquerê","tipo":"Faxinal","situacao":"4","nro":"279","municipio":"Turvo","ibge":"4127965"},"geometry":{"type":"Point","coordinates":[-51.67362,-25.09926]}},{"type":"Feature","properties":{"nome":"Faxinal dos Kruger","tipo":"ARESUR","situacao":"2","nro":"283","municipio":"Boa Ventura de São Roque","ibge":"4103040"},"geometry":{"type":"Point","coordinates":[-51.62717,-24.86997]}},{"type":"Feature","properties":{"nome":"Faxinal das Araras","tipo":"Faxinal","situacao":"1","nro":"288","municipio":"Campina do Simão","ibge":"4103958"},"geometry":{"type":"Point","coordinates":[-51.86495,-25.13236]}},{"type":"Feature","properties":{"nome":"Monte Belo","tipo":"Faxinal","situacao":"4","nro":"290","municipio":"Nova Laranjeiras","ibge":"4117057"},"geometry":{"type":"Point","coordinates":[-52.60463,-24.98817]}},{"type":"Feature","properties":{"nome":"Invernada","tipo":"Faxinal","situacao":"4","nro":"89","municipio":"Rio Azul","ibge":"4122008"},"geometry":{"type":"Point","coordinates":[-50.6804,-25.77448]}},{"type":"Feature","properties":{"nome":"Porto Soares","tipo":"Faxinal","situacao":"3","nro":"90","municipio":"Rio Azul","ibge":"4122008"},"geometry":{"type":"Point","coordinates":[-50.67088,-25.77416]}},{"type":"Feature","properties":{"nome":"Rio Azul dos soa","tipo":"ARESUR","situacao":"3","nro":"91","municipio":"Rio Azul","ibge":"4122008"},"geometry":{"type":"Point","coordinates":[-50.72503,-25.76813]}},{"type":"Feature","properties":{"nome":"Vila Nova","tipo":"Faxinal","situacao":"2","nro":"99","municipio":"Rio Azul","ibge":"4122008"},"geometry":{"type":"Point","coordinates":[-50.67828,-25.81343]}},{"type":"Feature","properties":{"nome":"Taquaral dos Bugre","tipo":"Faxinal","situacao":"3","nro":"106","municipio":"São Mateus do Sul","ibge":"4125605"},"geometry":{"type":"Point","coordinates":[-50.41083,-26.0833]}},{"type":"Feature","properties":{"nome":"Paiol Grande","tipo":"Faxinal","situacao":"4","nro":"111","municipio":"São Mateus do Sul","ibge":"4125605"},"geometry":{"type":"Point","coordinates":[-50.40989,-25.83872]}},{"type":"Feature","properties":{"nome":"Potinga","tipo":"Faxinal","situacao":"4","nro":"210","municipio":"Rebouças","ibge":"4121505"},"geometry":{"type":"Point","coordinates":[-50.73854,-25.62006]}},{"type":"Feature","properties":{"nome":"Água Quente dos Luz","tipo":"Faxinal","situacao":"4","nro":"212","municipio":"Rebouças","ibge":"4121505"},"geometry":{"type":"Point","coordinates":[-50.78021,-25.59828]}},{"type":"Feature","properties":{"nome":"Água Quente dos Luz","tipo":"Faxinal","situacao":"4","nro":"213","municipio":"Rebouças","ibge":"4121505"},"geometry":{"type":"Point","coordinates":[-50.78026,-25.58975]}},{"type":"Feature","properties":{"nome":"Lagoa Verde","tipo":"Faxinal","situacao":"2","nro":"23","municipio":"Quitandinha","ibge":"4121208"},"geometry":{"type":"Point","coordinates":[-49.5139,-25.8995]}},{"type":"Feature","properties":{"nome":"Postinho","tipo":"","situacao":"4","nro":"","municipio":"Tijucas do Sul","ibge":"4127601"},"geometry":{"type":"Point","coordinates":[-49.03977,-25.82025]}},{"type":"Feature","properties":{"nome":"São João do Piraí","tipo":"","situacao":"4","nro":"","municipio":"Tijucas do Sul","ibge":"4127601"},"geometry":{"type":"Point","coordinates":[-49.01862,-25.81902]}},{"type":"Feature","properties":{"nome":"Água Azul","tipo":"","situacao":"3","nro":"","municipio":"Lapa","ibge":"4113205"},"geometry":{"type":"Point","coordinates":[-49.74577,-25.67694]}},{"type":"Feature","properties":{"nome":"Bonito","tipo":"","situacao":"3","nro":"","municipio":"Lapa","ibge":"4113205"},"geometry":{"type":"Point","coordinates":[-49.72348,-25.70452]}},{"type":"Feature","properties":{"nome":"Paiol","tipo":"","situacao":"4","nro":"","municipio":"Lapa","ibge":"4113205"},"geometry":{"type":"Point","coordinates":[-49.71277,-25.67883]}},{"type":"Feature","properties":{"nome":"Polvinho","tipo":"","situacao":"4","nro":"","municipio":"Lapa","ibge":"4113205"},"geometry":{"type":"Point","coordinates":[-49.69038,-25.70104]}},{"type":"Feature","properties":{"nome":"Faxinal do Antonios","tipo":"","situacao":"4","nro":"","municipio":"Irati","ibge":"4110706"},"geometry":{"type":"Point","coordinates":[-50.71356,-25.40692]}},{"type":"Feature","properties":{"nome":"Pinho de Baixo","tipo":"","situacao":"3","nro":"","municipio":"Irati","ibge":"4110706"},"geometry":{"type":"Point","coordinates":[-50.66996,-25.41224]}},{"type":"Feature","properties":{"nome":"Faxinal dos Canudos","tipo":"","situacao":"4","nro":"","municipio":"São João do Triunfo","ibge":"4125100"},"geometry":{"type":"Point","coordinates":[-50.27449,-25.57421]}},{"type":"Feature","properties":{"nome":"São Lourenço","tipo":"","situacao":"4","nro":"","municipio":"São João do Triunfo","ibge":"4125100"},"geometry":{"type":"Point","coordinates":[-50.32436,-25.55651]}},{"type":"Feature","properties":{"nome":"Rio Baio","tipo":"","situacao":"4","nro":"","municipio":"São João do Triunfo","ibge":"4125100"},"geometry":{"type":"Point","coordinates":[-50.29836,-25.56441]}},{"type":"Feature","properties":{"nome":"Cachoeira","tipo":"","situacao":"4","nro":"","municipio":"São João do Triunfo","ibge":"4125100"},"geometry":{"type":"Point","coordinates":[-50.29486,-25.58544]}},{"type":"Feature","properties":{"nome":"Bituva dos Lopes","tipo":"","situacao":"4","nro":"","municipio":"Fernandes Pinheiro","ibge":"4107736"},"geometry":{"type":"Point","coordinates":[-50.46134,-25.49965]}},{"type":"Feature","properties":{"nome":"Faxinal dos Mineiros","tipo":"","situacao":"4","nro":"","municipio":"Teixeira Soares","ibge":"4127007"},"geometry":{"type":"Point","coordinates":[-50.40745,-25.22858]}},{"type":"Feature","properties":{"nome":"Fazenda Velha - Fax. dos Ribeiros 6","tipo":"","situacao":"4","nro":"","municipio":"Pinhão","ibge":"4119301"},"geometry":{"type":"Point","coordinates":[-51.81272,-25.68053]}},{"type":"Feature","properties":{"nome":"Comunidade Avencal - Fax. dos Ribeiros","tipo":"","situacao":"4","nro":"","municipio":"Pinhão","ibge":"4119301"},"geometry":{"type":"Point","coordinates":[-51.71673,-25.68103]}},{"type":"Feature","properties":{"nome":"Faxinal dos Albinos","tipo":"","situacao":"4","nro":"","municipio":"Pinhão","ibge":"4119301"},"geometry":{"type":"Point","coordinates":[-51.76458,-25.68769]}},{"type":"Feature","properties":{"nome":"Faxinal do Poço Grande","tipo":"","situacao":"4","nro":"","municipio":"Pinhão","ibge":"4119301"},"geometry":{"type":"Point","coordinates":[-51.79163,-25.63852]}},{"type":"Feature","properties":{"nome":"Faxinal  Taquara II","tipo":"","situacao":"4","nro":"","municipio":"Pinhão","ibge":"4119301"},"geometry":{"type":"Point","coordinates":[-51.74599,-25.63941]}},{"type":"Feature","properties":{"nome":"Faxinal dos Serpa","tipo":"","situacao":"4","nro":"","municipio":"Reserva do Iguaçu","ibge":"4121752"},"geometry":{"type":"Point","coordinates":[-52.03029,-25.80143]}},{"type":"Feature","properties":{"nome":"Faxinal dos Soares","tipo":"","situacao":"4","nro":"","municipio":"Reserva do Iguaçu","ibge":"4121752"},"geometry":{"type":"Point","coordinates":[-51.95823,-25.80192]}},{"type":"Feature","properties":{"nome":"Comunidade Limeira","tipo":"","situacao":"4","nro":"","municipio":"Pitanga","ibge":"4119608"},"geometry":{"type":"Point","coordinates":[-52.00246,-24.63924]}},{"type":"Feature","properties":{"nome":"Faxinal dos Naiverth","tipo":"","situacao":"4","nro":"","municipio":"Pitanga","ibge":"4119608"},"geometry":{"type":"Point","coordinates":[-51.96343,-24.64078]}},{"type":"Feature","properties":{"nome":"Comunidade Corumbatá","tipo":"","situacao":"4","nro":"","municipio":"Mato Rico","ibge":"4115739"},"geometry":{"type":"Point","coordinates":[-52.20012,-24.70426]}},{"type":"Feature","properties":{"nome":"Charqueado da Entrada","tipo":"","situacao":"4","nro":"","municipio":"Imbaú","ibge":"4110078"},"geometry":{"type":"Point","coordinates":[-50.65197,-24.40481]}},{"type":"Feature","properties":{"nome":"Charqueada de Cima","tipo":"","situacao":"4","nro":"","municipio":"Imbaú","ibge":"4110078"},"geometry":{"type":"Point","coordinates":[-50.68208,-24.4029]}},{"type":"Feature","properties":{"nome":"Charqueada de Baixo","tipo":"","situacao":"4","nro":"","municipio":"Imbaú","ibge":"4110078"},"geometry":{"type":"Point","coordinates":[-50.67554,-24.44031]}},{"type":"Feature","properties":{"nome":"Faxinal dos Vidal","tipo":"","situacao":"3","nro":"","municipio":"Turvo","ibge":"4127965"},"geometry":{"type":"Point","coordinates":[-51.36943,-24.99469]}},{"type":"Feature","properties":{"nome":"Faxinal do Viana","tipo":"","situacao":"3","nro":"","municipio":"Boa Ventura de São Roque","ibge":"4103040"},"geometry":{"type":"Point","coordinates":[-51.49458,-24.81508]}},{"type":"Feature","properties":{"nome":"Faxinal do Saltinho","tipo":"","situacao":"3","nro":"","municipio":"Guarapuava","ibge":"4109401"},"geometry":{"type":"Point","coordinates":[-51.34406,-25.24629]}},{"type":"Feature","properties":{"nome":"Faxinal dos Elias","tipo":"","situacao":"3","nro":"","municipio":"Guarapuava","ibge":"4109401"},"geometry":{"type":"Point","coordinates":[-51.33594,-25.36939]}},{"type":"Feature","properties":{"nome":"Faxinal do Rio das Pedras","tipo":"","situacao":"3","nro":"","municipio":"Guarapuava","ibge":"4109401"},"geometry":{"type":"Point","coordinates":[-51.4457,-25.28448]}},{"type":"Feature","properties":{"nome":"Soares - Comunidade Campina Redonda","tipo":"","situacao":"3","nro":"","municipio":"Guarapuava","ibge":"4109401"},"geometry":{"type":"Point","coordinates":[-51.47563,-25.36516]}},{"type":"Feature","properties":{"nome":"Faxinalzinho - Borma","tipo":"","situacao":"4","nro":"","municipio":"Guaraniaçu","ibge":"4109302"},"geometry":{"type":"Point","coordinates":[-52.89219,-25.00387]}},{"type":"Feature","properties":{"nome":"Cachoeira dos Domingues","tipo":"","situacao":"3","nro":"","municipio":"Rebouças","ibge":"4121505"},"geometry":{"type":"Point","coordinates":[-50.67005,-25.5847]}},{"type":"Feature","properties":{"nome":"Faxinal dos França","tipo":"","situacao":"4","nro":"","municipio":"Pinhão","ibge":"4119301"},"geometry":{"type":"Point","coordinates":[-51.82442,-25.65058]}}]}