{"type":"FeatureCollection","fonte":"IAT/GeoPR · Limites Faxinais e ARESUR Faxinais (Decreto 3.446/1997)","geradoEm":"2026-10-01","features":[{"type":"Feature","properties":{"nome":"Faxinal Água Amarela De Cima","base":"CAR","perimetro":"Área do Território","aresur":"Sim","resolucao":"048/2009","area_ha":550.1908,"area_resolucao_ha":567.2,"area_imovel_ha":null,"obs":"","recibo_car":"PR-4101309-6808D40D2F2A495E8107228AFD2B5161","municipio":"Antônio Olinto","ibge":"4101309"},"geometry":{"type":"Polygon","coordinates":[[[-50.06039,-25.8876],[-50.05922,-25.8928],[-50.05609,-25.89189],[-50.05501,-25.89657],[-50.05695,-25.89711],[-50.05598,-25.90195],[-50.06691,-25.90187],[-50.06777,-25.90019],[-50.06795,-25.89776],[-50.06907,-25.89827],[-50.07054,-25.89778],[-50.07252,-25.89842],[-50.07139,-25.90128],[-50.0736,-25.90157],[-50.07425,-25.90233],[-50.07648,-25.90187],[-50.07765,-25.90264],[-50.07649,-25.90414],[-50.07578,-25.90487],[-50.07499,-25.90538],[-50.07438,-25.90594],[-50.07407,-25.9067],[-50.07335,-25.9075],[-50.07278,-25.90801],[-50.07291,-25.90916],[-50.07297,-25.91065],[-50.0735,-25.91072],[-50.07353,-25.91182],[-50.0756,-25.91185],[-50.07731,-25.91107],[-50.07821,-25.91153],[-50.07881,-25.91132],[-50.0793,-25.9115],[-50.07962,-25.91149],[-50.08099,-25.91342],[-50.08522,-25.91319],[-50.08494,-25.91449],[-50.08615,-25.91439],[-50.08703,-25.91511],[-50.0873,-25.91505],[-50.08745,-25.91545],[-50.0879,-25.9149],[-50.08835,-25.9147],[-50.08795,-25.91434],[-50.08847,-25.91385],[-50.08865,-25.91408],[-50.08875,-25.91429],[-50.09133,-25.91282],[-50.09092,-25.91243],[-50.09154,-25.91168],[-50.09186,-25.91147],[-50.09283,-25.91195],[-50.09388,-25.91124],[-50.0948,-25.91101],[-50.09668,-25.91034],[-50.09713,-25.90974],[-50.09791,-25.90985],[-50.09863,-25.90963],[-50.09902,-25.90943],[-50.09955,-25.90924],[-50.09983,-25.90805],[-50.10009,-25.90758],[-50.10175,-25.90703],[-50.10182,-25.90574],[-50.10131,-25.90507],[-50.10066,-25.90405],[-50.09984,-25.9037],[-50.09839,-25.90424],[-50.09631,-25.90378],[-50.09594,-25.90379],[-50.09586,-25.90344],[-50.09596,-25.90303],[-50.09585,-25.90277],[-50.09519,-25.90249],[-50.09363,-25.9013],[-50.09345,-25.90104],[-50.09347,-25.90067],[-50.09359,-25.90025],[-50.094,-25.89977],[-50.09236,-25.89865],[-50.09471,-25.89815],[-50.09423,-25.89685],[-50.09409,-25.89659],[-50.09434,-25.89567],[-50.09393,-25.89508],[-50.09317,-25.89511],[-50.09267,-25.89539],[-50.09215,-25.89547],[-50.09114,-25.89522],[-50.09015,-25.89527],[-50.08942,-25.89561],[-50.08899,-25.89652],[-50.08821,-25.89671],[-50.08745,-25.89752],[-50.086,-25.89847],[-50.08534,-25.89888],[-50.08348,-25.8996],[-50.08243,-25.9002],[-50.08201,-25.9003],[-50.0814,-25.89979],[-50.0815,-25.89933],[-50.08171,-25.89902],[-50.08223,-25.89947],[-50.0825,-25.89953],[-50.08267,-25.89942],[-50.08278,-25.89917],[-50.08244,-25.89871],[-50.08218,-25.89844],[-50.08213,-25.89802],[-50.08286,-25.89694],[-50.08281,-25.8964],[-50.08269,-25.89579],[-50.08222,-25.89522],[-50.08201,-25.89453],[-50.08184,-25.89383],[-50.08142,-25.89306],[-50.08076,-25.8927],[-50.08029,-25.89322],[-50.07999,-25.89388],[-50.07988,-25.89449],[-50.07962,-25.89502],[-50.07926,-25.89537],[-50.07821,-25.89595],[-50.07779,-25.8959],[-50.07755,-25.89578],[-50.07687,-25.89557],[-50.07569,-25.8959],[-50.07472,-25.89581],[-50.07421,-25.89599],[-50.07275,-25.89834],[-50.07,-25.89743],[-50.06817,-25.89729],[-50.06766,-25.89697],[-50.06571,-25.89771],[-50.06449,-25.89801],[-50.06574,-25.89383],[-50.06799,-25.8945],[-50.06832,-25.89372],[-50.06837,-25.89302],[-50.06595,-25.89267],[-50.06558,-25.89152],[-50.06491,-25.89186],[-50.06387,-25.89162],[-50.06349,-25.89115],[-50.06297,-25.8908],[-50.06275,-25.89075],[-50.06293,-25.89017],[-50.06268,-25.89017],[-50.06248,-25.88981],[-50.06039,-25.8876]]]}},{"type":"Feature","properties":{"nome":"Faxinal Dos Krüger","base":"CAR","perimetro":"Área do Território","aresur":"Sim","resolucao":"038/2013","area_ha":568.5734,"area_resolucao_ha":500.7,"area_imovel_ha":null,"obs":"","recibo_car":"PR-4103040-0B8F17387DFC42FDA1C96BB80CBCEB9D","municipio":"Boa Ventura de São Roque","ibge":"4103040"},"geometry":{"type":"Polygon","coordinates":[[[-51.60164,-24.86497],[-51.61036,-24.87893],[-51.60845,-24.87905],[-51.60758,-24.87989],[-51.60761,-24.88092],[-51.60799,-24.88129],[-51.60792,-24.88288],[-51.60939,-24.88219],[-51.60961,-24.88261],[-51.61035,-24.88271],[-51.61298,-24.88596],[-51.61322,-24.88592],[-51.61465,-24.88812],[-51.61587,-24.88779],[-51.62158,-24.89696],[-51.62295,-24.89802],[-51.62544,-24.89377],[-51.62514,-24.88878],[-51.63198,-24.88535],[-51.63087,-24.88335],[-51.62997,-24.87897],[-51.62924,-24.87904],[-51.62872,-24.879],[-51.62871,-24.87791],[-51.62945,-24.87727],[-51.6284,-24.87693],[-51.62798,-24.87717],[-51.62707,-24.87684],[-51.62692,-24.87598],[-51.62635,-24.87511],[-51.62618,-24.87464],[-51.62625,-24.87426],[-51.62754,-24.87386],[-51.62705,-24.87329],[-51.62687,-24.87251],[-51.62844,-24.8717],[-51.62999,-24.87137],[-51.63044,-24.87061],[-51.63127,-24.87019],[-51.63273,-24.86955],[-51.63265,-24.86875],[-51.63201,-24.868],[-51.63071,-24.8673],[-51.62991,-24.86697],[-51.62884,-24.86745],[-51.62795,-24.86761],[-51.62747,-24.86918],[-51.62568,-24.87029],[-51.62481,-24.8697],[-51.62349,-24.87061],[-51.62287,-24.87055],[-51.62277,-24.86963],[-51.62215,-24.86848],[-51.62003,-24.86762],[-51.61933,-24.86861],[-51.61825,-24.86979],[-51.61746,-24.8694],[-51.61634,-24.86963],[-51.61539,-24.86948],[-51.61603,-24.86793],[-51.61676,-24.86704],[-51.61653,-24.86666],[-51.61672,-24.86611],[-51.61652,-24.86569],[-51.61597,-24.86505],[-51.61408,-24.86599],[-51.61214,-24.86559],[-51.61139,-24.86473],[-51.61072,-24.86505],[-51.60845,-24.86309],[-51.60675,-24.86354],[-51.60307,-24.86485],[-51.60164,-24.86497]]]}},{"type":"Feature","properties":{"nome":"Faxinal São Francisco Charqueada Dos Betins","base":"CAR","perimetro":"Área do Território","aresur":"Em análise","resolucao":"","area_ha":126.7752,"area_resolucao_ha":null,"area_imovel_ha":null,"obs":"Em processo de cadastramento como Aresur","recibo_car":"PR-4110078-F73ED529DD4A479285D1EDF3A3CB68E3","municipio":"Imbaú","ibge":"4110078"},"geometry":{"type":"Polygon","coordinates":[[[-50.76384,-24.49213],[-50.76395,-24.49298],[-50.76352,-24.49326],[-50.76342,-24.49349],[-50.76349,-24.49367],[-50.76288,-24.4936],[-50.76236,-24.49427],[-50.76209,-24.49578],[-50.76165,-24.49645],[-50.76109,-24.49755],[-50.76056,-24.49824],[-50.75976,-24.49875],[-50.75983,-24.49935],[-50.75936,-24.49983],[-50.76,-24.50031],[-50.76166,-24.50088],[-50.76214,-24.5014],[-50.76264,-24.50212],[-50.76365,-24.50323],[-50.76398,-24.50385],[-50.76397,-24.50388],[-50.76499,-24.50514],[-50.76527,-24.50564],[-50.76553,-24.50592],[-50.76594,-24.50621],[-50.76663,-24.50651],[-50.76732,-24.50686],[-50.76834,-24.50621],[-50.76784,-24.50561],[-50.76655,-24.50515],[-50.76562,-24.50323],[-50.76756,-24.50246],[-50.76889,-24.50424],[-50.76993,-24.5032],[-50.77049,-24.50271],[-50.77153,-24.50203],[-50.77208,-24.50144],[-50.77213,-24.50132],[-50.76938,-24.50019],[-50.76856,-24.49947],[-50.7701,-24.49762],[-50.76918,-24.4963],[-50.76806,-24.49534],[-50.76763,-24.49518],[-50.76747,-24.49287],[-50.76909,-24.49442],[-50.76987,-24.49402],[-50.77064,-24.49294],[-50.77173,-24.49174],[-50.77202,-24.49123],[-50.77135,-24.49089],[-50.77064,-24.49026],[-50.7697,-24.49005],[-50.76909,-24.48983],[-50.76884,-24.4895],[-50.76878,-24.48927],[-50.76781,-24.48889],[-50.76687,-24.48834],[-50.76603,-24.48884],[-50.76526,-24.4901],[-50.76512,-24.49063],[-50.76417,-24.49082],[-50.76352,-24.49198],[-50.76384,-24.49213]]]}},{"type":"Feature","properties":{"nome":"Faxinal Mato Preto Paiol","base":"CAR","perimetro":"Área do Território","aresur":"Sim","resolucao":"","area_ha":147.6858,"area_resolucao_ha":null,"area_imovel_ha":null,"obs":"Aresur nova, cadastro 2019","recibo_car":"PR-4113205-14E7C83258034ABF9E1D1E12D2E7E7EF","municipio":"Lapa","ibge":"4113205"},"geometry":{"type":"Polygon","coordinates":[[[-50.00616,-25.91185],[-50.0058,-25.91188],[-50.00549,-25.91181],[-50.00451,-25.91212],[-50.00367,-25.91268],[-50.00311,-25.91286],[-50.00254,-25.91331],[-50.00223,-25.91372],[-50.00264,-25.91421],[-50.00036,-25.91448],[-50.00004,-25.91543],[-49.99965,-25.91591],[-49.99905,-25.91717],[-49.99834,-25.91791],[-49.99815,-25.91852],[-49.997,-25.91878],[-49.9955,-25.92026],[-49.99453,-25.92173],[-49.99435,-25.92264],[-49.99407,-25.92284],[-49.99312,-25.92271],[-49.99234,-25.92277],[-49.99146,-25.92271],[-49.99129,-25.92408],[-49.99129,-25.92468],[-49.99247,-25.92499],[-49.99398,-25.92496],[-49.99532,-25.92522],[-49.99695,-25.92612],[-49.99919,-25.92526],[-49.99905,-25.92446],[-49.99954,-25.92416],[-50.00008,-25.92409],[-50.00053,-25.92376],[-50.00028,-25.92338],[-50.00105,-25.92236],[-50.00177,-25.9219],[-50.00229,-25.92211],[-50.00263,-25.92247],[-50.00317,-25.92291],[-50.00374,-25.92248],[-50.00377,-25.92238],[-50.00385,-25.92226],[-50.00385,-25.92213],[-50.00415,-25.92111],[-50.00397,-25.92082],[-50.00392,-25.92069],[-50.00441,-25.92025],[-50.00507,-25.92101],[-50.00869,-25.91821],[-50.01045,-25.91714],[-50.01182,-25.9165],[-50.01233,-25.91547],[-50.01204,-25.9151],[-50.01205,-25.91473],[-50.01277,-25.9145],[-50.01297,-25.91429],[-50.01083,-25.91198],[-50.00986,-25.91234],[-50.00873,-25.9124],[-50.00838,-25.9123],[-50.00764,-25.91109],[-50.00687,-25.91136],[-50.00616,-25.91185]]]}},{"type":"Feature","properties":{"nome":"Faxinal Lageado De Baixo","base":"CAR","perimetro":"Área do Território","aresur":"Sim","resolucao":"","area_ha":138.101,"area_resolucao_ha":null,"area_imovel_ha":null,"obs":"","recibo_car":"PR-4113908-5E0024EBF6AC4772B58B3C04029A5640","municipio":"Mallet","ibge":"4113908"},"geometry":{"type":"Polygon","coordinates":[[[-50.76974,-25.81924],[-50.76662,-25.82087],[-50.76672,-25.82196],[-50.76708,-25.82246],[-50.7677,-25.82287],[-50.76889,-25.82339],[-50.76969,-25.82415],[-50.76992,-25.82458],[-50.76982,-25.82482],[-50.76929,-25.82508],[-50.76894,-25.82536],[-50.76853,-25.82557],[-50.7676,-25.82566],[-50.76777,-25.82633],[-50.76822,-25.82701],[-50.76816,-25.82764],[-50.76785,-25.82827],[-50.76744,-25.82892],[-50.76669,-25.8293],[-50.76684,-25.82968],[-50.76706,-25.83003],[-50.76688,-25.83031],[-50.76662,-25.83062],[-50.76626,-25.8307],[-50.766,-25.83093],[-50.76581,-25.83125],[-50.76596,-25.8317],[-50.76639,-25.83174],[-50.7672,-25.83243],[-50.76768,-25.83234],[-50.76841,-25.83181],[-50.76955,-25.83136],[-50.7704,-25.83114],[-50.77093,-25.8312],[-50.77125,-25.83081],[-50.77153,-25.83066],[-50.77185,-25.8306],[-50.77242,-25.83078],[-50.77439,-25.82834],[-50.77455,-25.82808],[-50.77481,-25.82785],[-50.77508,-25.82777],[-50.77523,-25.82759],[-50.77625,-25.82685],[-50.77729,-25.82672],[-50.77785,-25.82676],[-50.77861,-25.82742],[-50.77984,-25.82676],[-50.77973,-25.82559],[-50.78034,-25.82538],[-50.78046,-25.82475],[-50.77995,-25.82455],[-50.77932,-25.82437],[-50.77894,-25.82311],[-50.77942,-25.82272],[-50.77956,-25.82225],[-50.77958,-25.82149],[-50.77972,-25.82026],[-50.77639,-25.82056],[-50.77624,-25.82022],[-50.7754,-25.81998],[-50.77489,-25.8199],[-50.77457,-25.81953],[-50.77431,-25.81806],[-50.77355,-25.81741],[-50.77286,-25.81686],[-50.77138,-25.81622],[-50.76989,-25.81631],[-50.77018,-25.81714],[-50.76998,-25.8179],[-50.76974,-25.81924]]]}},{"type":"Feature","properties":{"nome":"Faxinal Campestre Dos Paulas E Mato Branco Dos Andrades","base":"CAR","perimetro":"Área do Território","aresur":"Em análise","resolucao":"","area_ha":312.2666,"area_resolucao_ha":null,"area_imovel_ha":14.232,"obs":"Processo de cadastramento na ARESUR foi suspenso em função de conflitos socioterritoriais","recibo_car":"PR-4114302-8F5F8BFD14F14A6E86929AA8FA70362F","municipio":"Mandirituba","ibge":"4114302"},"geometry":{"type":"Polygon","coordinates":[[[-49.39135,-25.81495],[-49.3914,-25.81483],[-49.39085,-25.81441],[-49.38937,-25.81487],[-49.38783,-25.81448],[-49.3865,-25.81517],[-49.38556,-25.8152],[-49.38468,-25.81496],[-49.38426,-25.81591],[-49.38437,-25.81639],[-49.38322,-25.81734],[-49.38287,-25.81772],[-49.38282,-25.81853],[-49.38257,-25.81882],[-49.38202,-25.81857],[-49.38141,-25.81825],[-49.38082,-25.81776],[-49.38025,-25.81611],[-49.38025,-25.81579],[-49.38003,-25.81548],[-49.37932,-25.8153],[-49.37894,-25.81533],[-49.37873,-25.81564],[-49.37853,-25.81581],[-49.37809,-25.81588],[-49.37855,-25.81659],[-49.37877,-25.81703],[-49.37839,-25.81746],[-49.37828,-25.8178],[-49.37763,-25.81788],[-49.3774,-25.8172],[-49.37667,-25.81746],[-49.37321,-25.82077],[-49.37338,-25.82105],[-49.37366,-25.82183],[-49.37368,-25.82227],[-49.37433,-25.82252],[-49.37517,-25.82298],[-49.37543,-25.82338],[-49.37595,-25.82433],[-49.37684,-25.8257],[-49.37779,-25.82522],[-49.37782,-25.8253],[-49.37741,-25.82559],[-49.37735,-25.82697],[-49.37872,-25.82755],[-49.37984,-25.82915],[-49.38201,-25.83154],[-49.38269,-25.83283],[-49.38695,-25.8309],[-49.38643,-25.82983],[-49.38729,-25.82936],[-49.38788,-25.82869],[-49.38939,-25.829],[-49.39006,-25.82891],[-49.39035,-25.82873],[-49.39111,-25.82894],[-49.39332,-25.82909],[-49.39537,-25.82906],[-49.39625,-25.82881],[-49.39676,-25.82839],[-49.39812,-25.82782],[-49.39893,-25.82482],[-49.39795,-25.82442],[-49.39715,-25.82393],[-49.39668,-25.82313],[-49.3963,-25.82265],[-49.39599,-25.82213],[-49.39592,-25.82144],[-49.39587,-25.82022],[-49.39578,-25.81964],[-49.3955,-25.81932],[-49.39525,-25.81912],[-49.39596,-25.81804],[-49.39571,-25.81775],[-49.3941,-25.81821],[-49.39372,-25.81737],[-49.39345,-25.81693],[-49.39207,-25.81614],[-49.39175,-25.81539],[-49.39152,-25.81506],[-49.39135,-25.81495]]]}},{"type":"Feature","properties":{"nome":"Faxinal Espigão Das Antas","base":"CAR","perimetro":"Área do Território","aresur":"Em análise","resolucao":"","area_ha":385.7455,"area_resolucao_ha":null,"area_imovel_ha":null,"obs":"Processo de cadastramento na ARESUR foi suspenso em função de conflitos socioterritoriais","recibo_car":"PR-4114302-EB81D23174E34113A3B7D3F996D70188","municipio":"Mandirituba","ibge":"4114302"},"geometry":{"type":"Polygon","coordinates":[[[-49.34369,-25.88364],[-49.34272,-25.88426],[-49.34233,-25.88385],[-49.34201,-25.88422],[-49.34216,-25.88494],[-49.3424,-25.88544],[-49.34219,-25.88643],[-49.3418,-25.88711],[-49.34111,-25.88738],[-49.33806,-25.88708],[-49.33716,-25.88778],[-49.33635,-25.88938],[-49.3364,-25.89097],[-49.33672,-25.89214],[-49.33791,-25.89339],[-49.33715,-25.89505],[-49.33544,-25.89598],[-49.33581,-25.89693],[-49.33591,-25.89734],[-49.33545,-25.89749],[-49.33547,-25.89757],[-49.33449,-25.89782],[-49.33337,-25.8982],[-49.33208,-25.89826],[-49.33255,-25.89897],[-49.33166,-25.89989],[-49.33102,-25.90024],[-49.3291,-25.90097],[-49.32716,-25.90008],[-49.32642,-25.9006],[-49.32594,-25.9027],[-49.32431,-25.90234],[-49.32309,-25.90202],[-49.32246,-25.90149],[-49.31958,-25.90279],[-49.3191,-25.90292],[-49.32056,-25.90457],[-49.32153,-25.90692],[-49.3229,-25.90628],[-49.32456,-25.90617],[-49.32523,-25.90685],[-49.32615,-25.90739],[-49.32648,-25.90822],[-49.32732,-25.90781],[-49.32805,-25.90809],[-49.32978,-25.908],[-49.32983,-25.90971],[-49.32877,-25.91004],[-49.32968,-25.91045],[-49.32955,-25.91135],[-49.32927,-25.91246],[-49.32939,-25.9129],[-49.32959,-25.9132],[-49.3297,-25.91419],[-49.33009,-25.91523],[-49.32983,-25.91584],[-49.33027,-25.91628],[-49.3316,-25.91727],[-49.33281,-25.91705],[-49.33502,-25.91679],[-49.33757,-25.91765],[-49.33764,-25.91739],[-49.3378,-25.91717],[-49.33791,-25.91652],[-49.33784,-25.91549],[-49.33788,-25.9151],[-49.33761,-25.91372],[-49.33719,-25.91267],[-49.33663,-25.91146],[-49.33665,-25.91067],[-49.33692,-25.91032],[-49.33732,-25.91023],[-49.33791,-25.90978],[-49.33812,-25.909],[-49.33797,-25.90877],[-49.33766,-25.90841],[-49.33732,-25.90826],[-49.33737,-25.90798],[-49.33748,-25.90655],[-49.33729,-25.90559],[-49.33736,-25.90326],[-49.3375,-25.90251],[-49.33796,-25.90165],[-49.34183,-25.9011],[-49.34247,-25.90023],[-49.34276,-25.90043],[-49.34345,-25.89982],[-49.34334,-25.89955],[-49.34241,-25.89925],[-49.34185,-25.89875],[-49.34136,-25.89801],[-49.34048,-25.89759],[-49.3402,-25.89728],[-49.34039,-25.89707],[-49.34203,-25.8968],[-49.34312,-25.89557],[-49.34378,-25.89533],[-49.34488,-25.8952],[-49.34578,-25.89518],[-49.34617,-25.89476],[-49.34662,-25.89436],[-49.34798,-25.8942],[-49.34902,-25.89392],[-49.34997,-25.89393],[-49.34973,-25.89271],[-49.34979,-25.89235],[-49.3499,-25.89093],[-49.34947,-25.89077],[-49.34961,-25.8902],[-49.34915,-25.89007],[-49.34916,-25.88925],[-49.34846,-25.88881],[-49.34819,-25.88836],[-49.34829,-25.88832],[-49.34845,-25.88861],[-49.34917,-25.88905],[-49.34938,-25.88881],[-49.34947,-25.8878],[-49.34971,-25.88746],[-49.34868,-25.88475],[-49.34759,-25.88457],[-49.34731,-25.88379],[-49.34525,-25.88421],[-49.3443,-25.88227],[-49.34385,-25.88282],[-49.34396,-25.88317],[-49.34361,-25.88348],[-49.34373,-25.88358],[-49.34369,-25.88364]]]}},{"type":"Feature","properties":{"nome":"Faxinal Lageado Dos Mellos","base":"CAR","perimetro":"Área do Território","aresur":"Sim","resolucao":"071/2010","area_ha":97.619,"area_resolucao_ha":287.0,"area_imovel_ha":null,"obs":"","recibo_car":"PR-4122008-CA58F18EC97442848DC4C79E0D5CAAA6","municipio":"Rio Azul","ibge":"4122008"},"geometry":{"type":"Polygon","coordinates":[[[-50.76621,-25.81417],[-50.7645,-25.81557],[-50.76321,-25.8154],[-50.76314,-25.81534],[-50.76296,-25.81569],[-50.76242,-25.81639],[-50.76182,-25.81837],[-50.76209,-25.81863],[-50.76013,-25.8205],[-50.75985,-25.8211],[-50.75861,-25.82143],[-50.75805,-25.8217],[-50.75782,-25.82269],[-50.75851,-25.82316],[-50.75961,-25.82434],[-50.76066,-25.82442],[-50.7624,-25.82688],[-50.76452,-25.83022],[-50.7653,-25.8314],[-50.76555,-25.83029],[-50.76655,-25.82967],[-50.7662,-25.82887],[-50.76758,-25.82729],[-50.76772,-25.82682],[-50.76763,-25.82658],[-50.7668,-25.82511],[-50.7669,-25.82504],[-50.76721,-25.82505],[-50.76749,-25.82455],[-50.76743,-25.82328],[-50.76552,-25.8229],[-50.76539,-25.82093],[-50.76616,-25.82108],[-50.76621,-25.82028],[-50.76763,-25.81941],[-50.76833,-25.81919],[-50.76849,-25.81972],[-50.76923,-25.81935],[-50.76922,-25.81864],[-50.76826,-25.81787],[-50.76833,-25.81645],[-50.76827,-25.81641],[-50.7676,-25.81629],[-50.76715,-25.81575],[-50.76704,-25.81433],[-50.76632,-25.81418],[-50.76621,-25.81417]]]}},{"type":"Feature","properties":{"nome":"Faxinal Bom Retiro","base":"CAR","perimetro":"Área do Território","aresur":"Sim","resolucao":"019/2013","area_ha":1932.5051,"area_resolucao_ha":1390.0,"area_imovel_ha":null,"obs":"","recibo_car":"PR-4119301-448C19AF03BA40A58C699D0A7556FB7F","municipio":"Pinhão","ibge":"4119301"},"geometry":{"type":"Polygon","coordinates":[[[-51.46263,-25.69085],[-51.45517,-25.69378],[-51.45473,-25.69296],[-51.45473,-25.69187],[-51.45455,-25.6914],[-51.45353,-25.69187],[-51.45199,-25.69187],[-51.45082,-25.69225],[-51.44969,-25.69252],[-51.44936,-25.69292],[-51.44924,-25.69394],[-51.44864,-25.69513],[-51.44827,-25.69628],[-51.44744,-25.69696],[-51.44524,-25.6974],[-51.44018,-25.69123],[-51.43984,-25.69232],[-51.4386,-25.69462],[-51.43664,-25.69517],[-51.43552,-25.69564],[-51.43375,-25.69598],[-51.43228,-25.69778],[-51.43074,-25.6991],[-51.42837,-25.69896],[-51.42665,-25.6997],[-51.42521,-25.69927],[-51.42333,-25.69934],[-51.42224,-25.6993],[-51.41991,-25.69866],[-51.41871,-25.69873],[-51.41781,-25.69781],[-51.41657,-25.69801],[-51.41497,-25.69785],[-51.41403,-25.69742],[-51.41307,-25.69741],[-51.41111,-25.69798],[-51.40859,-25.69954],[-51.4074,-25.70032],[-51.40662,-25.70149],[-51.40565,-25.70273],[-51.40478,-25.70321],[-51.40377,-25.70398],[-51.40621,-25.70689],[-51.41304,-25.71655],[-51.41275,-25.7168],[-51.41036,-25.71792],[-51.40781,-25.71941],[-51.409,-25.71997],[-51.40976,-25.72037],[-51.41059,-25.72101],[-51.41108,-25.7219],[-51.41098,-25.72216],[-51.41147,-25.72277],[-51.4119,-25.72337],[-51.41312,-25.72365],[-51.41473,-25.72357],[-51.41505,-25.72313],[-51.41538,-25.72309],[-51.41651,-25.72308],[-51.41926,-25.72268],[-51.42113,-25.72264],[-51.42791,-25.72351],[-51.43114,-25.7238],[-51.43276,-25.72417],[-51.4344,-25.72467],[-51.43601,-25.72545],[-51.43991,-25.72726],[-51.44173,-25.72849],[-51.44489,-25.73053],[-51.4482,-25.73215],[-51.45124,-25.73399],[-51.45396,-25.73588],[-51.4547,-25.73553],[-51.45563,-25.73545],[-51.45592,-25.73524],[-51.45639,-25.73459],[-51.45733,-25.73346],[-51.45798,-25.73313],[-51.45808,-25.73264],[-51.45803,-25.73201],[-51.4581,-25.73156],[-51.45778,-25.7311],[-51.45768,-25.73028],[-51.45802,-25.7289],[-51.45904,-25.72658],[-51.4597,-25.72554],[-51.45924,-25.72457],[-51.45878,-25.72294],[-51.4589,-25.72235],[-51.45951,-25.72141],[-51.45961,-25.72075],[-51.46028,-25.71851],[-51.46067,-25.71836],[-51.46118,-25.71732],[-51.46178,-25.71682],[-51.46317,-25.71632],[-51.46356,-25.7158],[-51.4643,-25.71456],[-51.46466,-25.71405],[-51.46485,-25.71353],[-51.46476,-25.71308],[-51.46474,-25.71289],[-51.46504,-25.71295],[-51.46599,-25.71326],[-51.46693,-25.71178],[-51.46799,-25.71],[-51.46936,-25.70989],[-51.47068,-25.70961],[-51.47157,-25.70895],[-51.4713,-25.70846],[-51.47117,-25.70688],[-51.47098,-25.70619],[-51.47232,-25.70565],[-51.47349,-25.70506],[-51.47378,-25.70293],[-51.47346,-25.70207],[-51.47249,-25.70052],[-51.47175,-25.70019],[-51.47029,-25.70082],[-51.46977,-25.70027],[-51.46814,-25.7001],[-51.46685,-25.69984],[-51.46554,-25.69937],[-51.46319,-25.69873],[-51.46267,-25.69898],[-51.4621,-25.69888],[-51.46014,-25.69826],[-51.45936,-25.69855],[-51.45814,-25.69834],[-51.45696,-25.69694],[-51.45621,-25.69612],[-51.45801,-25.69523],[-51.4638,-25.69343],[-51.46433,-25.69166],[-51.46263,-25.69085]]]}},{"type":"Feature","properties":{"nome":"Faxinal São Roquinho","base":"CAR","perimetro":"Área do Território","aresur":"Sim","resolucao":"018/2013","area_ha":1193.298,"area_resolucao_ha":1187.5,"area_imovel_ha":null,"obs":"","recibo_car":"PR-4119301-F367BDA794CE473ABE3121BC6B81E361","municipio":"Pinhão","ibge":"4119301"},"geometry":{"type":"Polygon","coordinates":[[[-51.77468,-25.92089],[-51.76719,-25.93173],[-51.76648,-25.93138],[-51.76595,-25.93169],[-51.76613,-25.93235],[-51.76365,-25.93257],[-51.76273,-25.93302],[-51.76099,-25.93309],[-51.7602,-25.93321],[-51.76022,-25.93389],[-51.76078,-25.93425],[-51.76204,-25.93486],[-51.76459,-25.9358],[-51.7658,-25.93679],[-51.76434,-25.93964],[-51.76437,-25.94089],[-51.75532,-25.94791],[-51.75516,-25.94973],[-51.75766,-25.94991],[-51.75734,-25.95268],[-51.76009,-25.95325],[-51.75988,-25.95579],[-51.75695,-25.95635],[-51.75683,-25.96692],[-51.76696,-25.96414],[-51.76727,-25.96091],[-51.78317,-25.95086],[-51.78262,-25.95013],[-51.78285,-25.94974],[-51.78344,-25.94956],[-51.78444,-25.94963],[-51.78564,-25.94995],[-51.78648,-25.95065],[-51.78797,-25.9513],[-51.78846,-25.95294],[-51.7928,-25.95004],[-51.79699,-25.95036],[-51.79692,-25.95249],[-51.79786,-25.95104],[-51.79799,-25.95035],[-51.80042,-25.94867],[-51.80101,-25.94781],[-51.80161,-25.94615],[-51.80148,-25.94528],[-51.80138,-25.94484],[-51.80114,-25.94407],[-51.80096,-25.94386],[-51.80065,-25.94392],[-51.80031,-25.94369],[-51.80009,-25.94349],[-51.80019,-25.94341],[-51.80023,-25.94332],[-51.80066,-25.94303],[-51.80055,-25.94236],[-51.80028,-25.94205],[-51.79988,-25.94197],[-51.79956,-25.94117],[-51.79946,-25.94104],[-51.79943,-25.94062],[-51.79919,-25.94001],[-51.7984,-25.93907],[-51.79813,-25.93892],[-51.79768,-25.93894],[-51.79744,-25.93873],[-51.79696,-25.93868],[-51.79663,-25.93837],[-51.79656,-25.93813],[-51.79678,-25.9379],[-51.79731,-25.93789],[-51.79772,-25.93771],[-51.7976,-25.93704],[-51.79762,-25.93624],[-51.79756,-25.9357],[-51.7974,-25.93513],[-51.79706,-25.935],[-51.79681,-25.93459],[-51.79618,-25.93445],[-51.79387,-25.93511],[-51.79083,-25.9367],[-51.78853,-25.9287],[-51.79158,-25.92599],[-51.79087,-25.92568],[-51.78996,-25.9255],[-51.78935,-25.92549],[-51.78893,-25.92531],[-51.78876,-25.92503],[-51.78849,-25.92491],[-51.78803,-25.92476],[-51.78761,-25.92456],[-51.78748,-25.92418],[-51.78599,-25.92371],[-51.7841,-25.92292],[-51.78292,-25.9223],[-51.78196,-25.92217],[-51.78104,-25.92243],[-51.78069,-25.92296],[-51.77761,-25.92652],[-51.77468,-25.92089]]]}},{"type":"Feature","properties":{"nome":"Faxinal Sete Saltos De Baixo","base":"CAR","perimetro":"Área do Território","aresur":"Sim","resolucao":"021/2013","area_ha":109.2818,"area_resolucao_ha":103.6,"area_imovel_ha":null,"obs":"","recibo_car":"PR-4119905-D2742656C9B34E75BA0F7CD0B69AC921","municipio":"Ponta Grossa","ibge":"4119905"},"geometry":{"type":"Polygon","coordinates":[[[-49.72052,-25.20266],[-49.72176,-25.20332],[-49.72177,-25.20389],[-49.721,-25.20417],[-49.72172,-25.20512],[-49.72451,-25.20533],[-49.72487,-25.20587],[-49.72552,-25.20595],[-49.72734,-25.20662],[-49.72874,-25.20751],[-49.7303,-25.20748],[-49.73064,-25.20864],[-49.73147,-25.20878],[-49.7334,-25.20835],[-49.73421,-25.20773],[-49.73461,-25.20748],[-49.73644,-25.20692],[-49.73645,-25.20601],[-49.7362,-25.20514],[-49.73538,-25.20488],[-49.73582,-25.20411],[-49.7349,-25.20292],[-49.73468,-25.20132],[-49.73353,-25.20151],[-49.73197,-25.20155],[-49.73169,-25.20193],[-49.73137,-25.20227],[-49.73089,-25.20239],[-49.73067,-25.20204],[-49.73,-25.2019],[-49.72928,-25.20161],[-49.72893,-25.20204],[-49.72796,-25.20262],[-49.72644,-25.20298],[-49.72602,-25.20284],[-49.72605,-25.20163],[-49.72633,-25.20068],[-49.72659,-25.19948],[-49.7263,-25.19844],[-49.72574,-25.19754],[-49.72469,-25.19616],[-49.72366,-25.19662],[-49.72372,-25.19705],[-49.7234,-25.19715],[-49.71993,-25.19983],[-49.71994,-25.20179],[-49.72052,-25.20266]]]}},{"type":"Feature","properties":{"nome":"Faxinal Santo Antônio","base":"CAR","perimetro":"Área do Território","aresur":"Sim","resolucao":"081/1997","area_ha":30.738,"area_resolucao_ha":30.7,"area_imovel_ha":null,"obs":"","recibo_car":"PR-4120606-23C5DD402C2D44C0B74169B221A73929","municipio":"Prudentópolis","ibge":"4120606"},"geometry":{"type":"Polygon","coordinates":[[[-51.01911,-25.34552],[-51.01839,-25.34686],[-51.0205,-25.34672],[-51.02057,-25.34689],[-51.02095,-25.34705],[-51.0212,-25.34698],[-51.02131,-25.34676],[-51.02133,-25.34653],[-51.02381,-25.34707],[-51.02391,-25.34564],[-51.02447,-25.34568],[-51.02785,-25.34118],[-51.02667,-25.34082],[-51.02658,-25.34041],[-51.02188,-25.34302],[-51.02131,-25.34315],[-51.02074,-25.34359],[-51.0202,-25.34414],[-51.01911,-25.34552]]]}},{"type":"Feature","properties":{"nome":"Faxinal Paraná Anta Gorda","base":"CAR","perimetro":"Área do Território","aresur":"Sim","resolucao":"072/1997","area_ha":280.0253,"area_resolucao_ha":780.0,"area_imovel_ha":null,"obs":"","recibo_car":"PR-4120606-36C98431EFF5452DAD4831D4DFDDB191","municipio":"Prudentópolis","ibge":"4120606"},"geometry":{"type":"Polygon","coordinates":[[[-51.08373,-25.11303],[-51.08226,-25.11343],[-51.08198,-25.11342],[-51.08163,-25.1135],[-51.08049,-25.11344],[-51.08013,-25.11335],[-51.07992,-25.11336],[-51.07996,-25.11353],[-51.08018,-25.11372],[-51.08057,-25.11397],[-51.08141,-25.11441],[-51.08235,-25.11484],[-51.08241,-25.11494],[-51.0822,-25.11499],[-51.08195,-25.11501],[-51.08151,-25.11495],[-51.08081,-25.11471],[-51.08032,-25.11445],[-51.08009,-25.11445],[-51.07996,-25.11476],[-51.07997,-25.11513],[-51.08007,-25.11596],[-51.07921,-25.11617],[-51.07894,-25.11649],[-51.07887,-25.11779],[-51.07863,-25.11883],[-51.0786,-25.11991],[-51.07839,-25.12007],[-51.07796,-25.12009],[-51.0776,-25.12004],[-51.0774,-25.11984],[-51.07714,-25.11971],[-51.07676,-25.11975],[-51.07647,-25.11988],[-51.07633,-25.12008],[-51.0763,-25.12034],[-51.07633,-25.12157],[-51.07593,-25.12201],[-51.0756,-25.12195],[-51.07537,-25.12204],[-51.07518,-25.12271],[-51.07657,-25.12342],[-51.07495,-25.12529],[-51.07624,-25.12597],[-51.07652,-25.12581],[-51.07687,-25.12588],[-51.07744,-25.12647],[-51.07807,-25.12699],[-51.07981,-25.12638],[-51.08033,-25.12641],[-51.08248,-25.12766],[-51.08321,-25.12869],[-51.08429,-25.1304],[-51.08561,-25.13257],[-51.08591,-25.13242],[-51.08683,-25.13169],[-51.08726,-25.13139],[-51.08784,-25.13111],[-51.09015,-25.12838],[-51.09373,-25.12403],[-51.09414,-25.12409],[-51.09426,-25.12409],[-51.09433,-25.12403],[-51.09447,-25.12315],[-51.09565,-25.12185],[-51.0975,-25.11946],[-51.08936,-25.11447],[-51.08982,-25.11362],[-51.08745,-25.11241],[-51.08801,-25.11153],[-51.0877,-25.11141],[-51.08661,-25.11153],[-51.08523,-25.11175],[-51.0847,-25.112],[-51.08373,-25.11303]]]}},{"type":"Feature","properties":{"nome":"Faxinal Marcondes De Almeida Brasila","base":"CAR","perimetro":"Área do Território","aresur":"Sim","resolucao":"080/1997","area_ha":655.0048,"area_resolucao_ha":1180.0,"area_imovel_ha":null,"obs":"","recibo_car":"PR-4120606-45E26ED5FF744B0FB9EFA9169E9B3549","municipio":"Prudentópolis","ibge":"4120606"},"geometry":{"type":"Polygon","coordinates":[[[-51.03295,-25.29283],[-51.03327,-25.29396],[-51.03304,-25.29451],[-51.03273,-25.29491],[-51.03239,-25.29523],[-51.032,-25.2958],[-51.0317,-25.29606],[-51.0313,-25.29617],[-51.03072,-25.29627],[-51.02953,-25.29528],[-51.0284,-25.29597],[-51.02785,-25.29494],[-51.02678,-25.29407],[-51.02469,-25.29453],[-51.02302,-25.2957],[-51.02325,-25.29692],[-51.02294,-25.29722],[-51.02193,-25.29783],[-51.02116,-25.29872],[-51.02077,-25.29951],[-51.02025,-25.30023],[-51.02018,-25.30057],[-51.02017,-25.30079],[-51.02007,-25.30096],[-51.01953,-25.30135],[-51.01984,-25.30303],[-51.01934,-25.3039],[-51.02152,-25.30447],[-51.02322,-25.30576],[-51.0234,-25.307],[-51.02694,-25.30965],[-51.03011,-25.31016],[-51.03308,-25.31179],[-51.03343,-25.31004],[-51.03855,-25.31196],[-51.03915,-25.31111],[-51.03989,-25.31143],[-51.04061,-25.31112],[-51.04434,-25.31369],[-51.05091,-25.31565],[-51.05328,-25.31529],[-51.0559,-25.31514],[-51.05682,-25.31332],[-51.05804,-25.31139],[-51.05799,-25.30859],[-51.05819,-25.30814],[-51.05809,-25.30769],[-51.05775,-25.30722],[-51.05792,-25.3065],[-51.05758,-25.30615],[-51.05701,-25.30595],[-51.05632,-25.30585],[-51.05633,-25.30525],[-51.05594,-25.30485],[-51.05522,-25.30426],[-51.05503,-25.30319],[-51.05505,-25.30179],[-51.05536,-25.3008],[-51.0512,-25.29891],[-51.04609,-25.29805],[-51.04645,-25.29753],[-51.0476,-25.29477],[-51.04739,-25.29427],[-51.04152,-25.29209],[-51.03968,-25.29149],[-51.03886,-25.29169],[-51.03789,-25.29226],[-51.0378,-25.2928],[-51.03799,-25.29322],[-51.03804,-25.29352],[-51.03795,-25.29367],[-51.037,-25.29386],[-51.03644,-25.29358],[-51.03612,-25.29313],[-51.03588,-25.29258],[-51.03547,-25.2918],[-51.03485,-25.29147],[-51.03295,-25.29283]]]}},{"type":"Feature","properties":{"nome":"Faxinal Tijuco Preto","base":"CAR","perimetro":"Área do Território","aresur":"Sim","resolucao":"082/1997","area_ha":2631.3512,"area_resolucao_ha":3388.0,"area_imovel_ha":null,"obs":"","recibo_car":"PR-4120606-466EFDF099B240C9B585DC5C7722581D","municipio":"Prudentópolis","ibge":"4120606"},"geometry":{"type":"Polygon","coordinates":[[[-51.09116,-25.35559],[-51.0836,-25.3587],[-51.08132,-25.35858],[-51.07979,-25.35767],[-51.07696,-25.3577],[-51.07001,-25.35647],[-51.06942,-25.35161],[-51.05989,-25.35499],[-51.05368,-25.36302],[-51.05262,-25.36322],[-51.05201,-25.36339],[-51.05066,-25.36385],[-51.05011,-25.36453],[-51.04984,-25.36495],[-51.04945,-25.36493],[-51.04906,-25.3651],[-51.04881,-25.36551],[-51.04831,-25.36592],[-51.0467,-25.36674],[-51.04621,-25.36691],[-51.05095,-25.381],[-51.05022,-25.38487],[-51.04931,-25.38633],[-51.04949,-25.38761],[-51.04925,-25.3881],[-51.04869,-25.38833],[-51.04808,-25.38902],[-51.0475,-25.39019],[-51.04701,-25.39178],[-51.05476,-25.39484],[-51.05448,-25.3956],[-51.053,-25.39688],[-51.05191,-25.39827],[-51.05566,-25.39981],[-51.05743,-25.39783],[-51.05755,-25.39947],[-51.05972,-25.40059],[-51.06101,-25.39946],[-51.06301,-25.39867],[-51.06366,-25.39854],[-51.06394,-25.39811],[-51.06386,-25.39784],[-51.06365,-25.39752],[-51.0635,-25.39704],[-51.06456,-25.39645],[-51.06524,-25.39599],[-51.06639,-25.39583],[-51.06704,-25.39546],[-51.0678,-25.39526],[-51.06892,-25.39532],[-51.06934,-25.39568],[-51.07028,-25.39772],[-51.07048,-25.39905],[-51.06542,-25.40561],[-51.06592,-25.40607],[-51.06667,-25.40646],[-51.06714,-25.40647],[-51.06761,-25.40691],[-51.06871,-25.40732],[-51.06896,-25.40751],[-51.06935,-25.40769],[-51.06954,-25.40804],[-51.06962,-25.40967],[-51.07042,-25.40969],[-51.07183,-25.41097],[-51.07223,-25.41278],[-51.07556,-25.41343],[-51.07741,-25.41033],[-51.07988,-25.40641],[-51.0809,-25.40044],[-51.08203,-25.39744],[-51.0856,-25.39814],[-51.09254,-25.39199],[-51.09737,-25.39026],[-51.09946,-25.38701],[-51.10396,-25.38572],[-51.10554,-25.38929],[-51.10332,-25.39333],[-51.10788,-25.39432],[-51.1102,-25.38318],[-51.10967,-25.3829],[-51.10898,-25.383],[-51.10835,-25.3834],[-51.10776,-25.38414],[-51.10704,-25.38428],[-51.10605,-25.38005],[-51.10511,-25.37753],[-51.10463,-25.37721],[-51.10559,-25.37345],[-51.10398,-25.37121],[-51.10666,-25.36888],[-51.10027,-25.35788],[-51.09884,-25.35177],[-51.0936,-25.34924],[-51.09116,-25.35559]]]}},{"type":"Feature","properties":{"nome":"Faxinal Do Marmeleiro De Baixo","base":"CAR","perimetro":"Área do Território","aresur":"Sim","resolucao":"","area_ha":642.3318,"area_resolucao_ha":null,"area_imovel_ha":null,"obs":"","recibo_car":"PR-4121505-61469C42553149DAB1501B4BBF633621","municipio":"Rebouças","ibge":"4121505"},"geometry":{"type":"Polygon","coordinates":[[[-50.55866,-25.66221],[-50.55846,-25.66272],[-50.55823,-25.66288],[-50.55799,-25.66294],[-50.55799,-25.66273],[-50.55783,-25.66268],[-50.55711,-25.66355],[-50.55691,-25.66367],[-50.55679,-25.66365],[-50.55652,-25.6635],[-50.55639,-25.6632],[-50.55635,-25.66299],[-50.55621,-25.6628],[-50.55622,-25.66265],[-50.55606,-25.66257],[-50.5556,-25.66273],[-50.55539,-25.6629],[-50.55527,-25.66326],[-50.55529,-25.66352],[-50.55523,-25.66365],[-50.55495,-25.66391],[-50.55453,-25.66417],[-50.5543,-25.66436],[-50.55414,-25.66446],[-50.55371,-25.66452],[-50.55341,-25.66463],[-50.55262,-25.66476],[-50.55224,-25.66486],[-50.55176,-25.66504],[-50.55154,-25.6652],[-50.55134,-25.66531],[-50.55115,-25.66531],[-50.55091,-25.66552],[-50.55058,-25.66571],[-50.55034,-25.66598],[-50.54972,-25.66627],[-50.54943,-25.66657],[-50.54924,-25.66682],[-50.54917,-25.66698],[-50.54841,-25.66656],[-50.5472,-25.66613],[-50.54638,-25.66568],[-50.54564,-25.66544],[-50.54426,-25.6653],[-50.54395,-25.66519],[-50.54352,-25.66575],[-50.54334,-25.66615],[-50.54261,-25.66677],[-50.54188,-25.66635],[-50.54111,-25.66659],[-50.54117,-25.66745],[-50.54032,-25.6672],[-50.53987,-25.66721],[-50.53966,-25.66719],[-50.53949,-25.66709],[-50.53905,-25.66671],[-50.53896,-25.66656],[-50.53893,-25.66635],[-50.53897,-25.66608],[-50.53907,-25.66581],[-50.5382,-25.66611],[-50.53684,-25.66686],[-50.5367,-25.66688],[-50.53686,-25.66743],[-50.53688,-25.66769],[-50.53558,-25.667],[-50.53489,-25.66732],[-50.53312,-25.66733],[-50.5322,-25.66798],[-50.53158,-25.66795],[-50.53037,-25.66842],[-50.53019,-25.66853],[-50.52949,-25.66907],[-50.52845,-25.67042],[-50.53113,-25.67241],[-50.53197,-25.67316],[-50.53224,-25.67317],[-50.53227,-25.67562],[-50.5334,-25.67727],[-50.53496,-25.67762],[-50.53521,-25.67789],[-50.53489,-25.67793],[-50.5345,-25.67877],[-50.53462,-25.67931],[-50.5359,-25.68019],[-50.53641,-25.68089],[-50.53661,-25.68122],[-50.53678,-25.68164],[-50.5368,-25.68192],[-50.5354,-25.68324],[-50.5351,-25.68445],[-50.53526,-25.68521],[-50.53534,-25.68579],[-50.53521,-25.68606],[-50.53443,-25.68647],[-50.53393,-25.68773],[-50.53444,-25.68803],[-50.53541,-25.6881],[-50.53603,-25.68798],[-50.53636,-25.68802],[-50.53611,-25.68895],[-50.53573,-25.6892],[-50.5353,-25.68979],[-50.53522,-25.69048],[-50.535,-25.69092],[-50.53472,-25.69209],[-50.53483,-25.69242],[-50.53513,-25.69265],[-50.53557,-25.69324],[-50.53614,-25.69294],[-50.53705,-25.6932],[-50.53898,-25.69315],[-50.54074,-25.69352],[-50.54122,-25.69426],[-50.54243,-25.69552],[-50.54377,-25.69519],[-50.54461,-25.69503],[-50.54525,-25.69501],[-50.54562,-25.69519],[-50.54436,-25.69274],[-50.5453,-25.69197],[-50.54488,-25.69115],[-50.5456,-25.69088],[-50.54739,-25.69111],[-50.54804,-25.69113],[-50.54975,-25.68936],[-50.55177,-25.6885],[-50.55316,-25.68746],[-50.55329,-25.68746],[-50.55429,-25.68453],[-50.55331,-25.68426],[-50.55342,-25.68337],[-50.5528,-25.683],[-50.5524,-25.68247],[-50.55195,-25.68197],[-50.55174,-25.68154],[-50.55167,-25.68111],[-50.55323,-25.68035],[-50.55503,-25.67593],[-50.55615,-25.67425],[-50.55632,-25.67313],[-50.55855,-25.67169],[-50.55874,-25.67169],[-50.55888,-25.67099],[-50.55925,-25.67098],[-50.55925,-25.67078],[-50.55952,-25.67072],[-50.55948,-25.67047],[-50.5596,-25.67032],[-50.55822,-25.66996],[-50.55823,-25.66969],[-50.55863,-25.66956],[-50.55875,-25.66937],[-50.55898,-25.66911],[-50.55937,-25.66885],[-50.55943,-25.66874],[-50.55957,-25.66861],[-50.55971,-25.66823],[-50.55979,-25.66815],[-50.55978,-25.66789],[-50.55985,-25.66769],[-50.55984,-25.66749],[-50.55972,-25.66731],[-50.56016,-25.66671],[-50.56042,-25.666],[-50.56046,-25.66579],[-50.56031,-25.66566],[-50.56024,-25.66552],[-50.56034,-25.66525],[-50.5606,-25.66533],[-50.56088,-25.66535],[-50.5611,-25.66525],[-50.56151,-25.66497],[-50.56159,-25.66484],[-50.56159,-25.6647],[-50.56169,-25.66433],[-50.56167,-25.66418],[-50.56159,-25.66397],[-50.56166,-25.66379],[-50.56155,-25.66365],[-50.56072,-25.66368],[-50.56038,-25.66331],[-50.56001,-25.6632],[-50.55939,-25.6626],[-50.55922,-25.66236],[-50.55884,-25.66238],[-50.55871,-25.66235],[-50.55866,-25.66221]]]}},{"type":"Feature","properties":{"nome":"Faxinal Barra Bonita","base":"CAR","perimetro":"Área do Território","aresur":"Sim","resolucao":"077/1997","area_ha":1659.0393,"area_resolucao_ha":3830.0,"area_imovel_ha":null,"obs":"","recibo_car":"PR-4120606-C0D20B49C3E441B5BC9CD572B6C6EEDF","municipio":"Prudentópolis","ibge":"4120606"},"geometry":{"type":"Polygon","coordinates":[[[-50.99639,-25.01817],[-50.99512,-25.02107],[-50.99546,-25.02121],[-50.99609,-25.02123],[-50.99665,-25.02112],[-50.99686,-25.021],[-50.9971,-25.021],[-50.99729,-25.0212],[-50.99745,-25.02151],[-50.9974,-25.02165],[-50.99713,-25.0219],[-50.99511,-25.02359],[-50.99706,-25.025],[-50.99734,-25.02491],[-50.9977,-25.02503],[-50.99802,-25.02539],[-50.99741,-25.02577],[-50.99811,-25.02657],[-50.99733,-25.02696],[-50.99858,-25.02868],[-51.00071,-25.03203],[-51.00055,-25.03365],[-51.00016,-25.03411],[-51.00026,-25.03472],[-51.00074,-25.03536],[-51.00156,-25.0356],[-51.00167,-25.03605],[-51.00132,-25.03648],[-51.00143,-25.03682],[-51.00214,-25.03727],[-51.00278,-25.03784],[-51.00294,-25.03834],[-51.00229,-25.03927],[-51.00197,-25.03984],[-50.9983,-25.03902],[-50.99766,-25.04002],[-51.00066,-25.04058],[-51.00164,-25.04083],[-51.00452,-25.04169],[-51.00733,-25.04257],[-51.00751,-25.0431],[-51.00752,-25.04417],[-51.00776,-25.045],[-51.00821,-25.04613],[-51.00876,-25.04718],[-51.00917,-25.04773],[-51.00948,-25.04791],[-51.01066,-25.05671],[-51.01096,-25.05697],[-51.01108,-25.05738],[-51.01122,-25.05754],[-51.01144,-25.05764],[-51.01165,-25.05782],[-51.01149,-25.05802],[-51.0124,-25.05851],[-51.01215,-25.05914],[-51.01177,-25.05947],[-51.01073,-25.06015],[-51.01052,-25.06118],[-51.01053,-25.06211],[-51.01073,-25.06239],[-51.01031,-25.06309],[-51.01044,-25.06352],[-51.01035,-25.06385],[-51.00985,-25.06431],[-51.0095,-25.06426],[-51.00936,-25.06434],[-51.00929,-25.06481],[-51.0063,-25.06495],[-51.00592,-25.0651],[-51.00569,-25.06514],[-51.00504,-25.06493],[-51.00475,-25.06504],[-51.00447,-25.06535],[-51.00429,-25.06569],[-51.00406,-25.066],[-51.00341,-25.06619],[-51.00314,-25.0666],[-51.00354,-25.0676],[-51.00524,-25.06946],[-51.00712,-25.07117],[-51.00525,-25.07334],[-51.00612,-25.07336],[-51.00697,-25.07354],[-51.0076,-25.07384],[-51.00781,-25.07404],[-51.00766,-25.07431],[-51.0073,-25.07474],[-51.00708,-25.07481],[-51.0069,-25.07497],[-51.00619,-25.07539],[-51.00533,-25.07604],[-51.00437,-25.07663],[-51.00386,-25.07703],[-51.00296,-25.07743],[-51.00245,-25.07776],[-51.00126,-25.07889],[-51.00082,-25.07939],[-51.00073,-25.07969],[-51.00086,-25.08003],[-51.0012,-25.08015],[-51.003,-25.07997],[-51.00338,-25.0799],[-51.00363,-25.08015],[-51.00377,-25.08065],[-51.00378,-25.08131],[-51.00348,-25.08187],[-51.00318,-25.08235],[-51.00254,-25.08299],[-51.00237,-25.08344],[-51.00252,-25.08405],[-51.00256,-25.08455],[-51.00274,-25.08493],[-51.0033,-25.08523],[-51.00345,-25.08582],[-51.00357,-25.08742],[-51.00341,-25.08923],[-51.00599,-25.08908],[-51.00821,-25.08815],[-51.00995,-25.08748],[-51.01188,-25.08683],[-51.01401,-25.08632],[-51.01563,-25.08602],[-51.01583,-25.08583],[-51.01582,-25.08547],[-51.01597,-25.08534],[-51.01616,-25.0853],[-51.01633,-25.08544],[-51.01648,-25.0854],[-51.01646,-25.08507],[-51.01628,-25.08449],[-51.01608,-25.08431],[-51.01584,-25.08419],[-51.01559,-25.08413],[-51.0155,-25.08396],[-51.01543,-25.08298],[-51.0154,-25.07991],[-51.01536,-25.07882],[-51.01531,-25.0785],[-51.01549,-25.07815],[-51.01546,-25.07776],[-51.01546,-25.07722],[-51.0154,-25.07702],[-51.0153,-25.07702],[-51.01532,-25.07646],[-51.01544,-25.07646],[-51.01662,-25.07446],[-51.01658,-25.07381],[-51.01636,-25.07217],[-51.01715,-25.07195],[-51.0247,-25.06669],[-51.02677,-25.06569],[-51.02763,-25.06557],[-51.03129,-25.06551],[-51.03142,-25.06427],[-51.03125,-25.06323],[-51.03223,-25.0632],[-51.03249,-25.06236],[-51.03253,-25.06179],[-51.03319,-25.06149],[-51.03454,-25.06096],[-51.03502,-25.06093],[-51.03558,-25.06033],[-51.03555,-25.0599],[-51.03973,-25.05913],[-51.04195,-25.05808],[-51.04268,-25.05935],[-51.04365,-25.05873],[-51.04384,-25.05632],[-51.04391,-25.05614],[-51.04425,-25.0557],[-51.04439,-25.05516],[-51.04417,-25.05267],[-51.04421,-25.05095],[-51.04395,-25.05039],[-51.04353,-25.05007],[-51.04265,-25.04973],[-51.04182,-25.04963],[-51.04114,-25.04967],[-51.03907,-25.04998],[-51.03875,-25.04995],[-51.03865,-25.04984],[-51.03864,-25.04918],[-51.03841,-25.04909],[-51.03823,-25.04896],[-51.03819,-25.04861],[-51.03845,-25.04782],[-51.03839,-25.04729],[-51.03826,-25.04703],[-51.0371,-25.04583],[-51.03678,-25.04556],[-51.03591,-25.04506],[-51.0356,-25.04481],[-51.03542,-25.04452],[-51.03521,-25.04382],[-51.03506,-25.04362],[-51.03483,-25.04357],[-51.03458,-25.04364],[-51.03444,-25.04346],[-51.03664,-25.04194],[-51.0363,-25.04007],[-51.03603,-25.03963],[-51.03582,-25.03953],[-51.03541,-25.03964],[-51.0351,-25.03854],[-51.0349,-25.03804],[-51.03458,-25.03748],[-51.0316,-25.03496],[-51.0261,-25.0336],[-51.02531,-25.03353],[-51.02459,-25.03353],[-51.02419,-25.03359],[-51.02391,-25.03381],[-51.02337,-25.03392],[-51.02274,-25.03378],[-51.02247,-25.03379],[-51.02201,-25.0339],[-51.02185,-25.03406],[-51.02155,-25.03429],[-51.02125,-25.03438],[-51.02087,-25.03422],[-51.02063,-25.03349],[-51.01705,-25.03308],[-51.01672,-25.03276],[-51.01655,-25.03222],[-51.01657,-25.03169],[-51.01691,-25.03055],[-51.01703,-25.03023],[-51.01709,-25.02918],[-51.01707,-25.02873],[-51.01697,-25.02829],[-51.0172,-25.0268],[-51.01632,-25.02547],[-51.01501,-25.0252],[-51.01321,-25.0249],[-51.01226,-25.02426],[-51.01184,-25.02309],[-51.01152,-25.0226],[-51.01119,-25.02217],[-51.01117,-25.022],[-51.01087,-25.02188],[-51.01069,-25.0217],[-51.01057,-25.02167],[-51.01015,-25.02169],[-51.00984,-25.0215],[-51.00935,-25.02148],[-51.00898,-25.02123],[-51.00857,-25.02107],[-51.00848,-25.02112],[-51.00852,-25.02126],[-51.00846,-25.02134],[-51.00794,-25.02075],[-51.00674,-25.02103],[-51.00601,-25.02102],[-51.0057,-25.02079],[-51.00447,-25.0201],[-51.0039,-25.02001],[-51.00331,-25.01956],[-51.00243,-25.01924],[-51.00183,-25.01907],[-51.00122,-25.01896],[-51.00064,-25.01872],[-50.99993,-25.01864],[-50.99913,-25.01841],[-50.99813,-25.01799],[-50.99639,-25.01817]]]}},{"type":"Feature","properties":{"nome":"Faxinal Taboãozinho","base":"CAR","perimetro":"Área do Território","aresur":"Sim","resolucao":"082/1997","area_ha":693.8067,"area_resolucao_ha":508.2,"area_imovel_ha":null,"obs":"","recibo_car":"PR-4120606-EEF26A94D185452BAB4B11C7E3E72D0A","municipio":"Prudentópolis","ibge":"4120606"},"geometry":{"type":"Polygon","coordinates":[[[-51.02247,-25.35184],[-51.02229,-25.35185],[-51.0221,-25.35173],[-51.02193,-25.35174],[-51.02182,-25.35187],[-51.02184,-25.35213],[-51.02199,-25.35268],[-51.02198,-25.353],[-51.02183,-25.35312],[-51.02161,-25.35305],[-51.02144,-25.35314],[-51.02106,-25.35368],[-51.02079,-25.35391],[-51.02013,-25.35426],[-51.02006,-25.3544],[-51.0201,-25.35457],[-51.02026,-25.35463],[-51.02092,-25.35429],[-51.02159,-25.35405],[-51.02184,-25.35415],[-51.02198,-25.35435],[-51.0219,-25.35491],[-51.02197,-25.35526],[-51.02221,-25.35562],[-51.02222,-25.35591],[-51.02219,-25.35633],[-51.02207,-25.35655],[-51.0218,-25.35667],[-51.02109,-25.35631],[-51.02071,-25.35589],[-51.02042,-25.35587],[-51.02031,-25.35602],[-51.02025,-25.35622],[-51.02035,-25.35658],[-51.02032,-25.35683],[-51.02018,-25.35696],[-51.02012,-25.35712],[-51.02036,-25.35777],[-51.02096,-25.35862],[-51.02149,-25.35893],[-51.02225,-25.35919],[-51.02305,-25.35939],[-51.0235,-25.35946],[-51.02392,-25.35934],[-51.0249,-25.35883],[-51.02519,-25.35877],[-51.02528,-25.35886],[-51.0253,-25.3595],[-51.02527,-25.3602],[-51.0252,-25.3609],[-51.0251,-25.36138],[-51.0249,-25.36173],[-51.02405,-25.36256],[-51.02297,-25.36337],[-51.02177,-25.36435],[-51.02149,-25.3645],[-51.02122,-25.36456],[-51.02103,-25.36454],[-51.02079,-25.36442],[-51.02052,-25.36438],[-51.02017,-25.36446],[-51.01996,-25.3646],[-51.01977,-25.36478],[-51.01951,-25.36492],[-51.01933,-25.36497],[-51.01921,-25.36478],[-51.01905,-25.36461],[-51.01397,-25.36712],[-51.01518,-25.3691],[-51.0158,-25.36997],[-51.01732,-25.37179],[-51.02378,-25.37523],[-51.0409,-25.38026],[-51.04624,-25.38776],[-51.04652,-25.38807],[-51.04683,-25.38815],[-51.04722,-25.38813],[-51.04742,-25.38784],[-51.04787,-25.38758],[-51.04799,-25.3874],[-51.04815,-25.38702],[-51.04845,-25.38663],[-51.04906,-25.38647],[-51.04931,-25.38633],[-51.05022,-25.38487],[-51.05095,-25.38099],[-51.04621,-25.36691],[-51.04519,-25.36692],[-51.0443,-25.36671],[-51.04076,-25.36449],[-51.0406,-25.36386],[-51.04054,-25.36323],[-51.04041,-25.36305],[-51.04016,-25.36288],[-51.04022,-25.36269],[-51.04012,-25.36249],[-51.03955,-25.36199],[-51.03941,-25.36167],[-51.03952,-25.36136],[-51.04022,-25.36063],[-51.04042,-25.36029],[-51.04057,-25.36002],[-51.0406,-25.35963],[-51.04046,-25.35955],[-51.04023,-25.35964],[-51.04003,-25.35989],[-51.03985,-25.36],[-51.03959,-25.36001],[-51.03945,-25.35988],[-51.03956,-25.35968],[-51.03965,-25.35931],[-51.03965,-25.35894],[-51.03907,-25.35854],[-51.03837,-25.35824],[-51.03803,-25.35814],[-51.03686,-25.35803],[-51.03645,-25.35827],[-51.03619,-25.35849],[-51.03605,-25.35842],[-51.0361,-25.35822],[-51.03639,-25.358],[-51.03648,-25.35775],[-51.03636,-25.35761],[-51.03611,-25.35744],[-51.03581,-25.35733],[-51.03566,-25.35744],[-51.03568,-25.35764],[-51.03562,-25.35799],[-51.03546,-25.3583],[-51.03518,-25.35858],[-51.03497,-25.35854],[-51.03474,-25.35805],[-51.03482,-25.3579],[-51.035,-25.35772],[-51.03521,-25.35764],[-51.03551,-25.35724],[-51.03537,-25.3571],[-51.03503,-25.35701],[-51.03481,-25.357],[-51.03481,-25.3568],[-51.03513,-25.35627],[-51.0354,-25.35601],[-51.03564,-25.3557],[-51.0357,-25.35556],[-51.03557,-25.35538],[-51.03482,-25.35485],[-51.03425,-25.35425],[-51.03389,-25.35393],[-51.03365,-25.35363],[-51.03364,-25.35345],[-51.03353,-25.35331],[-51.03342,-25.35333],[-51.03334,-25.35345],[-51.03246,-25.35333],[-51.03178,-25.35308],[-51.03151,-25.35304],[-51.03128,-25.35311],[-51.03105,-25.35326],[-51.03086,-25.35326],[-51.03039,-25.35303],[-51.03021,-25.35298],[-51.03007,-25.35308],[-51.02996,-25.35326],[-51.02998,-25.35353],[-51.02984,-25.3538],[-51.02964,-25.35381],[-51.02932,-25.35339],[-51.02909,-25.35324],[-51.02894,-25.35338],[-51.02873,-25.35403],[-51.02894,-25.35418],[-51.02928,-25.35415],[-51.02945,-25.35422],[-51.02947,-25.35442],[-51.02934,-25.35461],[-51.02922,-25.35463],[-51.02856,-25.3544],[-51.02825,-25.35422],[-51.0279,-25.3539],[-51.02771,-25.35387],[-51.02756,-25.35396],[-51.02727,-25.3544],[-51.02711,-25.3545],[-51.02681,-25.35422],[-51.0266,-25.35382],[-51.02638,-25.35374],[-51.02574,-25.35338],[-51.02577,-25.35317],[-51.02571,-25.35286],[-51.02575,-25.3524],[-51.02581,-25.35213],[-51.02565,-25.35204],[-51.02546,-25.35201],[-51.02536,-25.35208],[-51.02505,-25.35259],[-51.02488,-25.35258],[-51.0247,-25.35251],[-51.02467,-25.35232],[-51.0248,-25.35144],[-51.02465,-25.35131],[-51.02446,-25.35133],[-51.02428,-25.35194],[-51.02411,-25.35206],[-51.02383,-25.35211],[-51.02368,-25.35207],[-51.02362,-25.35189],[-51.02371,-25.35167],[-51.02391,-25.35151],[-51.02413,-25.35147],[-51.02423,-25.35133],[-51.02406,-25.3512],[-51.02347,-25.35098],[-51.02273,-25.3509],[-51.02258,-25.35106],[-51.02255,-25.35132],[-51.02256,-25.35162],[-51.02247,-25.35184]]]}},{"type":"Feature","properties":{"nome":"Faxinal De Papanduva","base":"CAR","perimetro":"Área do Território","aresur":"Sim","resolucao":"071/1997","area_ha":396.3958,"area_resolucao_ha":396.4,"area_imovel_ha":null,"obs":"","recibo_car":"PR-4120606-EFDF6779FC8E40669842C09FDEFF632F","municipio":"Prudentópolis","ibge":"4120606"},"geometry":{"type":"Polygon","coordinates":[[[-50.88045,-25.27316],[-50.87968,-25.27381],[-50.87925,-25.2738],[-50.8788,-25.27366],[-50.87861,-25.27348],[-50.87817,-25.27334],[-50.87786,-25.2732],[-50.87693,-25.27256],[-50.87597,-25.2717],[-50.87547,-25.27178],[-50.8746,-25.27154],[-50.87335,-25.27153],[-50.87293,-25.27148],[-50.87201,-25.27121],[-50.87176,-25.27104],[-50.87074,-25.27073],[-50.87069,-25.27052],[-50.86969,-25.27071],[-50.86857,-25.27117],[-50.8683,-25.27071],[-50.86749,-25.27102],[-50.86673,-25.27087],[-50.86616,-25.27112],[-50.86647,-25.27165],[-50.86586,-25.2721],[-50.86647,-25.2724],[-50.86612,-25.27322],[-50.86564,-25.27347],[-50.86384,-25.27202],[-50.86299,-25.27251],[-50.86245,-25.27314],[-50.86212,-25.27311],[-50.86242,-25.27364],[-50.85854,-25.27584],[-50.85894,-25.27915],[-50.86023,-25.28584],[-50.86079,-25.28645],[-50.86156,-25.28682],[-50.86294,-25.28837],[-50.86386,-25.28894],[-50.8653,-25.28791],[-50.86405,-25.28696],[-50.86473,-25.28627],[-50.86488,-25.28605],[-50.86518,-25.2862],[-50.86576,-25.28612],[-50.86615,-25.28598],[-50.86699,-25.28544],[-50.86745,-25.28523],[-50.86769,-25.28521],[-50.86795,-25.28538],[-50.86895,-25.28659],[-50.87379,-25.28679],[-50.87426,-25.28615],[-50.87446,-25.2861],[-50.87498,-25.28614],[-50.87605,-25.28612],[-50.87668,-25.28626],[-50.87689,-25.28623],[-50.87705,-25.28607],[-50.87808,-25.28657],[-50.87824,-25.2864],[-50.87963,-25.28736],[-50.88146,-25.28604],[-50.88229,-25.28562],[-50.88257,-25.28534],[-50.88279,-25.28504],[-50.88257,-25.28465],[-50.88311,-25.28431],[-50.88296,-25.28409],[-50.88232,-25.28446],[-50.88163,-25.28395],[-50.88132,-25.28269],[-50.88173,-25.28232],[-50.88146,-25.28159],[-50.8818,-25.2811],[-50.88205,-25.28038],[-50.88234,-25.27902],[-50.88252,-25.27863],[-50.88287,-25.27761],[-50.88358,-25.27722],[-50.88713,-25.27658],[-50.88694,-25.27592],[-50.88665,-25.27553],[-50.88677,-25.27417],[-50.88577,-25.27144],[-50.88673,-25.27112],[-50.88727,-25.27082],[-50.88736,-25.27035],[-50.88755,-25.26967],[-50.88598,-25.26911],[-50.88569,-25.26941],[-50.88473,-25.26988],[-50.88351,-25.27069],[-50.88242,-25.27161],[-50.88206,-25.27208],[-50.88176,-25.27254],[-50.88145,-25.27282],[-50.88085,-25.27299],[-50.88045,-25.27316]]]}},{"type":"Feature","properties":{"nome":"Faxinal De Ivaí Anta Gorda","base":"CAR","perimetro":"Área do Território","aresur":"Sim","resolucao":"073/1997","area_ha":474.6362,"area_resolucao_ha":1289.0,"area_imovel_ha":null,"obs":"","recibo_car":"PR-4120606-FAAAE26741E84032A4A6284D55F9925E","municipio":"Prudentópolis","ibge":"4120606"},"geometry":{"type":"Polygon","coordinates":[[[-51.02418,-25.11942],[-51.02447,-25.12113],[-51.02552,-25.12099],[-51.02595,-25.12227],[-51.02409,-25.12259],[-51.02188,-25.12861],[-51.02415,-25.13437],[-51.03455,-25.12312],[-51.04149,-25.12654],[-51.04289,-25.12654],[-51.0432,-25.12635],[-51.04343,-25.12607],[-51.04373,-25.1256],[-51.04646,-25.12039],[-51.04757,-25.11841],[-51.04787,-25.1181],[-51.05032,-25.1169],[-51.05132,-25.11634],[-51.05404,-25.11499],[-51.05426,-25.11481],[-51.05478,-25.11414],[-51.0563,-25.11206],[-51.04767,-25.10858],[-51.03304,-25.10855],[-51.02418,-25.11942]]]}},{"type":"Feature","properties":{"nome":"Faxinal Salso","base":"CAR","perimetro":"Área do Território","aresur":"Sim","resolucao":"036/2018","area_ha":288.485,"area_resolucao_ha":268.0,"area_imovel_ha":null,"obs":"Aresur nova, cadastro 2018","recibo_car":"PR-4121208-C4E146B225AB417282BE8242928ECEEE","municipio":"Quitandinha","ibge":"4121208"},"geometry":{"type":"Polygon","coordinates":[[[-49.4935,-25.88269],[-49.49154,-25.884],[-49.49078,-25.88311],[-49.49057,-25.88329],[-49.48896,-25.88401],[-49.48642,-25.88344],[-49.48611,-25.88375],[-49.4869,-25.88427],[-49.48647,-25.88644],[-49.4856,-25.88733],[-49.48489,-25.88747],[-49.48391,-25.88725],[-49.48343,-25.88688],[-49.48311,-25.88649],[-49.48284,-25.88596],[-49.48182,-25.88489],[-49.48035,-25.88443],[-49.47913,-25.88458],[-49.47855,-25.88535],[-49.47762,-25.88494],[-49.47621,-25.88649],[-49.47516,-25.8874],[-49.4749,-25.89],[-49.47395,-25.89019],[-49.47419,-25.89077],[-49.47489,-25.891],[-49.47595,-25.89152],[-49.47606,-25.89194],[-49.47572,-25.89259],[-49.47525,-25.89304],[-49.47536,-25.89355],[-49.47675,-25.89399],[-49.47732,-25.89477],[-49.47823,-25.89553],[-49.47816,-25.89669],[-49.48434,-25.89507],[-49.48549,-25.89604],[-49.48721,-25.89784],[-49.48782,-25.89834],[-49.48827,-25.89816],[-49.48851,-25.89725],[-49.4889,-25.89715],[-49.48949,-25.89802],[-49.48939,-25.89833],[-49.49024,-25.89896],[-49.49081,-25.89963],[-49.4914,-25.90022],[-49.49188,-25.90063],[-49.49255,-25.90158],[-49.49487,-25.89992],[-49.4946,-25.89831],[-49.49511,-25.89784],[-49.49429,-25.89704],[-49.49309,-25.8969],[-49.49315,-25.89659],[-49.49351,-25.89582],[-49.494,-25.89293],[-49.49407,-25.89197],[-49.49521,-25.88911],[-49.49565,-25.88894],[-49.49649,-25.88853],[-49.49718,-25.88799],[-49.49788,-25.88731],[-49.49819,-25.88697],[-49.49861,-25.88607],[-49.49958,-25.88529],[-49.50121,-25.88496],[-49.50138,-25.88473],[-49.49817,-25.88282],[-49.49673,-25.88213],[-49.4955,-25.88209],[-49.49508,-25.88267],[-49.4935,-25.88269]]]}},{"type":"Feature","properties":{"nome":"Faxinal Do Salto","base":"CAR","perimetro":"Área do Território","aresur":"Sim","resolucao":"067/1997","area_ha":200.3928,"area_resolucao_ha":640.0,"area_imovel_ha":null,"obs":"","recibo_car":"PR-4121505-31EA310D7D604C36BEFB9A9568E3D59D","municipio":"Rebouças","ibge":"4121505"},"geometry":{"type":"Polygon","coordinates":[[[-50.54737,-25.613],[-50.54686,-25.61329],[-50.54625,-25.61357],[-50.54614,-25.61384],[-50.54591,-25.61417],[-50.54747,-25.61388],[-50.54753,-25.61448],[-50.54763,-25.61491],[-50.54751,-25.61549],[-50.54804,-25.61534],[-50.54955,-25.61618],[-50.55022,-25.61715],[-50.55079,-25.61902],[-50.55129,-25.6205],[-50.55246,-25.62139],[-50.55438,-25.62188],[-50.55876,-25.62218],[-50.56264,-25.62273],[-50.56292,-25.62434],[-50.56357,-25.62586],[-50.56554,-25.62539],[-50.56486,-25.62395],[-50.56471,-25.6234],[-50.56512,-25.62324],[-50.56561,-25.62313],[-50.56623,-25.62319],[-50.56672,-25.62344],[-50.56681,-25.6238],[-50.56792,-25.62491],[-50.56861,-25.62499],[-50.56886,-25.62535],[-50.56878,-25.62565],[-50.569,-25.62645],[-50.56967,-25.62675],[-50.57112,-25.62756],[-50.57232,-25.62906],[-50.57362,-25.62899],[-50.57442,-25.62811],[-50.57541,-25.62796],[-50.57527,-25.62731],[-50.57472,-25.62686],[-50.57459,-25.6265],[-50.57461,-25.6262],[-50.57434,-25.62563],[-50.57499,-25.62473],[-50.57429,-25.62359],[-50.57434,-25.62318],[-50.57403,-25.62281],[-50.57441,-25.62233],[-50.57309,-25.62187],[-50.57279,-25.62161],[-50.57244,-25.62143],[-50.57211,-25.62149],[-50.57155,-25.62102],[-50.57166,-25.6205],[-50.57162,-25.62019],[-50.57113,-25.62032],[-50.57079,-25.62026],[-50.57054,-25.62001],[-50.57002,-25.62028],[-50.56955,-25.62029],[-50.56885,-25.61998],[-50.56858,-25.61961],[-50.56843,-25.61951],[-50.56832,-25.61905],[-50.56797,-25.61877],[-50.56761,-25.61758],[-50.5676,-25.61744],[-50.56715,-25.61731],[-50.56683,-25.6171],[-50.56683,-25.6167],[-50.56651,-25.61651],[-50.56593,-25.61653],[-50.56562,-25.61636],[-50.56565,-25.61603],[-50.56439,-25.61487],[-50.56377,-25.61546],[-50.56312,-25.6163],[-50.56177,-25.61653],[-50.56127,-25.61615],[-50.56034,-25.61613],[-50.56011,-25.61593],[-50.55902,-25.61597],[-50.55874,-25.61594],[-50.55847,-25.61548],[-50.55798,-25.6156],[-50.55707,-25.61562],[-50.55674,-25.61557],[-50.55643,-25.61557],[-50.55625,-25.61573],[-50.55564,-25.6156],[-50.5555,-25.61546],[-50.55534,-25.61522],[-50.55488,-25.61512],[-50.55475,-25.61494],[-50.55481,-25.61463],[-50.55457,-25.6143],[-50.55405,-25.61431],[-50.55353,-25.61401],[-50.55318,-25.61373],[-50.55286,-25.61316],[-50.55262,-25.6133],[-50.55241,-25.61392],[-50.55226,-25.61402],[-50.55173,-25.61372],[-50.551,-25.61367],[-50.5499,-25.6129],[-50.5495,-25.61302],[-50.54864,-25.61287],[-50.54804,-25.61267],[-50.54764,-25.61273],[-50.54737,-25.613]]]}},{"type":"Feature","properties":{"nome":"Faxinal Do Marmeleiro De Cima","base":"CAR","perimetro":"Área do Território","aresur":"Sim","resolucao":"065/1997","area_ha":80.4904,"area_resolucao_ha":346.0,"area_imovel_ha":null,"obs":"","recibo_car":"PR-4121505-33D38F19EB794E1281A9C42B565BEBDD","municipio":"Rebouças","ibge":"4121505"},"geometry":{"type":"Polygon","coordinates":[[[-50.53418,-25.64013],[-50.53353,-25.64041],[-50.53307,-25.64031],[-50.53261,-25.6403],[-50.53238,-25.64049],[-50.53201,-25.64152],[-50.5319,-25.64222],[-50.53196,-25.64293],[-50.53184,-25.64383],[-50.53182,-25.6448],[-50.5332,-25.64558],[-50.53307,-25.64606],[-50.53352,-25.64697],[-50.53353,-25.64801],[-50.53547,-25.64909],[-50.53589,-25.64943],[-50.53634,-25.64995],[-50.5374,-25.64956],[-50.53759,-25.64982],[-50.53957,-25.65034],[-50.53948,-25.6506],[-50.54015,-25.65164],[-50.54064,-25.65127],[-50.54103,-25.65124],[-50.54134,-25.6511],[-50.5417,-25.65111],[-50.54197,-25.65163],[-50.54228,-25.65202],[-50.54261,-25.65193],[-50.54243,-25.65144],[-50.54281,-25.65103],[-50.54316,-25.65088],[-50.54341,-25.6507],[-50.54382,-25.6505],[-50.54438,-25.64998],[-50.54304,-25.6498],[-50.54312,-25.64887],[-50.54305,-25.64808],[-50.54248,-25.64754],[-50.54243,-25.64718],[-50.5428,-25.64624],[-50.5426,-25.64568],[-50.54195,-25.64502],[-50.54154,-25.64482],[-50.54118,-25.64471],[-50.54,-25.64495],[-50.53974,-25.64512],[-50.539,-25.64457],[-50.53811,-25.64493],[-50.53736,-25.64485],[-50.53695,-25.64364],[-50.5373,-25.6426],[-50.53681,-25.64167],[-50.53621,-25.64089],[-50.53529,-25.6406],[-50.53418,-25.64013]]]}},{"type":"Feature","properties":{"nome":"Faxinal Do Barro Branco","base":"CAR","perimetro":"Área do Território","aresur":"Sim","resolucao":"066/1997","area_ha":515.4026,"area_resolucao_ha":1524.0,"area_imovel_ha":null,"obs":"","recibo_car":"PR-4121505-65810E66E1D345B3AED6F9014DB1E81F","municipio":"Rebouças","ibge":"4121505"},"geometry":{"type":"Polygon","coordinates":[[[-50.48069,-25.67233],[-50.48043,-25.67289],[-50.47833,-25.67328],[-50.47691,-25.67268],[-50.47666,-25.67216],[-50.476,-25.67172],[-50.4752,-25.67171],[-50.47468,-25.67132],[-50.47366,-25.67125],[-50.47319,-25.67172],[-50.47422,-25.67401],[-50.4747,-25.6745],[-50.47745,-25.67581],[-50.47776,-25.67624],[-50.47713,-25.67698],[-50.4766,-25.67753],[-50.47615,-25.67828],[-50.47656,-25.67899],[-50.47763,-25.67951],[-50.47752,-25.6803],[-50.47627,-25.68206],[-50.47688,-25.68349],[-50.47606,-25.68497],[-50.47476,-25.68673],[-50.4726,-25.68888],[-50.47321,-25.68928],[-50.47447,-25.69103],[-50.47503,-25.69082],[-50.47647,-25.69243],[-50.47709,-25.69323],[-50.47697,-25.6936],[-50.47776,-25.69431],[-50.47772,-25.69458],[-50.47874,-25.6966],[-50.47876,-25.69744],[-50.47911,-25.69795],[-50.47959,-25.69737],[-50.48153,-25.69745],[-50.48416,-25.69949],[-50.48489,-25.69927],[-50.48548,-25.69952],[-50.48564,-25.6989],[-50.48647,-25.69881],[-50.48772,-25.69879],[-50.48857,-25.69906],[-50.48882,-25.69951],[-50.48859,-25.70009],[-50.4882,-25.70049],[-50.48916,-25.70084],[-50.49114,-25.70067],[-50.49403,-25.69889],[-50.49591,-25.69884],[-50.49594,-25.69164],[-50.49533,-25.69145],[-50.4951,-25.68894],[-50.49459,-25.68859],[-50.49371,-25.68643],[-50.49369,-25.68515],[-50.49392,-25.68454],[-50.49449,-25.68423],[-50.49468,-25.68342],[-50.49374,-25.6836],[-50.49338,-25.68261],[-50.49339,-25.68149],[-50.49129,-25.67984],[-50.48995,-25.67938],[-50.48965,-25.67844],[-50.4905,-25.67776],[-50.49073,-25.67697],[-50.49034,-25.67576],[-50.49021,-25.67391],[-50.48898,-25.67164],[-50.48844,-25.6719],[-50.48791,-25.67163],[-50.48602,-25.67289],[-50.48453,-25.67258],[-50.48272,-25.67192],[-50.48339,-25.67064],[-50.48154,-25.67103],[-50.48113,-25.67192],[-50.48069,-25.67233]]]}},{"type":"Feature","properties":{"nome":"Faxinal Do Barreinho Dos Beltrão","base":"CAR","perimetro":"Área do Território","aresur":"Sim","resolucao":"","area_ha":122.2131,"area_resolucao_ha":null,"area_imovel_ha":null,"obs":"Mas ainda sem Resolução. Processo de cadastramento mais complicado pela questão documental","recibo_car":"PR-4121505-8B0E997B085340C28B39CB48A264811E","municipio":"Rebouças","ibge":"4121505"},"geometry":{"type":"Polygon","coordinates":[[[-50.65908,-25.73151],[-50.65847,-25.73156],[-50.65753,-25.73108],[-50.65694,-25.7317],[-50.65626,-25.73228],[-50.65564,-25.73337],[-50.65442,-25.73403],[-50.65397,-25.73566],[-50.65218,-25.73582],[-50.65247,-25.73659],[-50.65367,-25.73679],[-50.6535,-25.73928],[-50.6557,-25.73965],[-50.65585,-25.73973],[-50.65602,-25.7397],[-50.65639,-25.73993],[-50.65833,-25.7396],[-50.65834,-25.73698],[-50.663,-25.7379],[-50.66247,-25.73973],[-50.66462,-25.73994],[-50.6651,-25.73828],[-50.66981,-25.73874],[-50.67011,-25.73858],[-50.67128,-25.73899],[-50.67179,-25.73908],[-50.6721,-25.73899],[-50.67242,-25.73883],[-50.67254,-25.73861],[-50.6724,-25.73836],[-50.67211,-25.73812],[-50.67147,-25.73782],[-50.66995,-25.73785],[-50.66973,-25.73803],[-50.66914,-25.73794],[-50.66891,-25.73785],[-50.66867,-25.73771],[-50.66862,-25.73746],[-50.66899,-25.73681],[-50.66923,-25.73653],[-50.66927,-25.73597],[-50.66925,-25.73535],[-50.66913,-25.73474],[-50.66933,-25.7344],[-50.66959,-25.73415],[-50.66943,-25.7338],[-50.66894,-25.73374],[-50.66857,-25.73364],[-50.66801,-25.73272],[-50.66744,-25.73284],[-50.66716,-25.73259],[-50.66689,-25.73223],[-50.66658,-25.73229],[-50.6663,-25.73158],[-50.66608,-25.73076],[-50.66553,-25.73087],[-50.665,-25.73121],[-50.66435,-25.73138],[-50.66382,-25.73162],[-50.66361,-25.73162],[-50.6632,-25.73116],[-50.66272,-25.73105],[-50.66251,-25.73083],[-50.66177,-25.7306],[-50.66113,-25.7303],[-50.66073,-25.7302],[-50.66039,-25.73017],[-50.65999,-25.73028],[-50.65961,-25.73105],[-50.65908,-25.73151]]]}},{"type":"Feature","properties":{"nome":"Faxinal Taquari","base":"CAR","perimetro":"Área do Território","aresur":"Sim","resolucao":"070/2010","area_ha":202.0417,"area_resolucao_ha":312.2,"area_imovel_ha":null,"obs":"","recibo_car":"PR-4122008-073413F172494ADFB4D1DF4EC7A71B9B","municipio":"Rio Azul","ibge":"4122008"},"geometry":{"type":"Polygon","coordinates":[[[-50.90201,-25.59045],[-50.90171,-25.59132],[-50.9008,-25.59187],[-50.90001,-25.59272],[-50.901,-25.59319],[-50.90202,-25.59382],[-50.90257,-25.59406],[-50.90376,-25.59443],[-50.90416,-25.59469],[-50.90294,-25.59597],[-50.90252,-25.596],[-50.90175,-25.59555],[-50.90144,-25.59575],[-50.90145,-25.5959],[-50.90132,-25.59613],[-50.90148,-25.59619],[-50.90159,-25.5974],[-50.90147,-25.59776],[-50.90244,-25.5993],[-50.90255,-25.59927],[-50.9033,-25.60039],[-50.9035,-25.60078],[-50.9038,-25.60078],[-50.90433,-25.6002],[-50.90585,-25.60059],[-50.90625,-25.60112],[-50.90641,-25.60064],[-50.90647,-25.60001],[-50.90629,-25.59913],[-50.90633,-25.59884],[-50.90687,-25.59776],[-50.90693,-25.59718],[-50.90772,-25.59704],[-50.90898,-25.59842],[-50.91106,-25.59918],[-50.91228,-25.599],[-50.91237,-25.59912],[-50.91222,-25.6],[-50.91296,-25.59985],[-50.91292,-25.59947],[-50.91384,-25.59946],[-50.91392,-25.60092],[-50.91366,-25.60095],[-50.9137,-25.60148],[-50.9138,-25.60169],[-50.91383,-25.60201],[-50.91373,-25.60208],[-50.91311,-25.60177],[-50.91273,-25.60231],[-50.91271,-25.60268],[-50.9141,-25.60354],[-50.914,-25.60373],[-50.91388,-25.60369],[-50.91354,-25.60397],[-50.91356,-25.60412],[-50.91415,-25.60451],[-50.91431,-25.60456],[-50.91496,-25.60489],[-50.91491,-25.60615],[-50.91445,-25.60672],[-50.91413,-25.60697],[-50.91434,-25.60716],[-50.91417,-25.60786],[-50.91434,-25.60808],[-50.91476,-25.60905],[-50.91502,-25.60987],[-50.91473,-25.61014],[-50.91491,-25.61059],[-50.91508,-25.61065],[-50.91528,-25.61098],[-50.91585,-25.61177],[-50.91569,-25.61273],[-50.91579,-25.61275],[-50.91668,-25.61502],[-50.91663,-25.61555],[-50.91691,-25.61547],[-50.9189,-25.6155],[-50.91905,-25.61526],[-50.91885,-25.6151],[-50.91851,-25.61417],[-50.91866,-25.61376],[-50.91902,-25.61372],[-50.91932,-25.6141],[-50.92052,-25.61274],[-50.92094,-25.6121],[-50.92132,-25.61189],[-50.92204,-25.61156],[-50.9226,-25.61155],[-50.92282,-25.61057],[-50.9226,-25.60973],[-50.92263,-25.60951],[-50.92277,-25.60736],[-50.923,-25.60698],[-50.92319,-25.60715],[-50.92336,-25.60714],[-50.92328,-25.60702],[-50.92389,-25.60628],[-50.92414,-25.60648],[-50.92447,-25.60605],[-50.92507,-25.60599],[-50.92583,-25.60547],[-50.92558,-25.60519],[-50.92528,-25.60463],[-50.92533,-25.60461],[-50.92514,-25.60441],[-50.92495,-25.60433],[-50.92452,-25.60438],[-50.92367,-25.6044],[-50.92248,-25.60403],[-50.92185,-25.60349],[-50.92145,-25.60309],[-50.92022,-25.60221],[-50.91916,-25.60164],[-50.91899,-25.60163],[-50.91868,-25.60148],[-50.91821,-25.60115],[-50.91801,-25.60108],[-50.91824,-25.59985],[-50.91711,-25.59954],[-50.91691,-25.59989],[-50.91614,-25.59947],[-50.91601,-25.59947],[-50.91588,-25.59916],[-50.91579,-25.59919],[-50.91568,-25.59897],[-50.91584,-25.5989],[-50.91553,-25.59858],[-50.91541,-25.59863],[-50.91522,-25.59887],[-50.91487,-25.59903],[-50.9144,-25.59837],[-50.91424,-25.59804],[-50.91397,-25.59726],[-50.91313,-25.59788],[-50.91297,-25.59768],[-50.913,-25.5968],[-50.91263,-25.59675],[-50.91193,-25.59684],[-50.91132,-25.59672],[-50.91097,-25.59529],[-50.91067,-25.5954],[-50.91048,-25.59513],[-50.90941,-25.59438],[-50.90713,-25.59602],[-50.90609,-25.59484],[-50.90562,-25.59412],[-50.90559,-25.59258],[-50.90595,-25.59141],[-50.90741,-25.59119],[-50.90702,-25.59031],[-50.90813,-25.59013],[-50.90933,-25.59002],[-50.90924,-25.58966],[-50.90916,-25.58892],[-50.9075,-25.58927],[-50.90666,-25.5896],[-50.90576,-25.5893],[-50.90579,-25.58996],[-50.90567,-25.59003],[-50.90577,-25.59006],[-50.90586,-25.59081],[-50.90541,-25.591],[-50.90536,-25.59078],[-50.90525,-25.5908],[-50.9023,-25.58773],[-50.90213,-25.58805],[-50.9015,-25.58839],[-50.90111,-25.5888],[-50.90102,-25.5893],[-50.90143,-25.58975],[-50.9016,-25.58985],[-50.90201,-25.59045]]]}},{"type":"Feature","properties":{"nome":"Faxinal Água Quente Dos Meiras","base":"CAR","perimetro":"Área do Território","aresur":"Sim","resolucao":"048/2009","area_ha":237.3566,"area_resolucao_ha":244.4,"area_imovel_ha":null,"obs":"","recibo_car":"PR-4122008-51FD39B3B4BB4167A176CC2955008E72","municipio":"Rio Azul","ibge":"4122008"},"geometry":{"type":"MultiPolygon","coordinates":[[[[-50.85475,-25.59989],[-50.85466,-25.59993],[-50.85458,-25.59991],[-50.85432,-25.59989],[-50.85428,-25.59984],[-50.85422,-25.5999],[-50.85409,-25.59996],[-50.85369,-25.59997],[-50.8536,-25.60003],[-50.85346,-25.60004],[-50.85338,-25.60002],[-50.85321,-25.60006],[-50.85306,-25.60003],[-50.85306,-25.59999],[-50.85304,-25.6],[-50.8528,-25.6004],[-50.85283,-25.60042],[-50.85291,-25.60066],[-50.85219,-25.60086],[-50.85208,-25.60103],[-50.85196,-25.60112],[-50.85179,-25.60119],[-50.85178,-25.6013],[-50.85173,-25.60129],[-50.85171,-25.60123],[-50.85168,-25.60124],[-50.85163,-25.60113],[-50.85163,-25.60121],[-50.85159,-25.60124],[-50.85035,-25.60149],[-50.85029,-25.60149],[-50.84996,-25.60129],[-50.84978,-25.60122],[-50.84975,-25.60107],[-50.84972,-25.60106],[-50.84959,-25.6011],[-50.8495,-25.60123],[-50.84947,-25.60133],[-50.8495,-25.60133],[-50.84952,-25.60146],[-50.84948,-25.60148],[-50.84898,-25.60122],[-50.84898,-25.60113],[-50.8489,-25.60095],[-50.84892,-25.60094],[-50.84866,-25.60099],[-50.84859,-25.60104],[-50.84841,-25.60103],[-50.84819,-25.60096],[-50.84765,-25.60059],[-50.84684,-25.60019],[-50.84589,-25.60086],[-50.84561,-25.60102],[-50.84512,-25.60138],[-50.84512,-25.60141],[-50.84494,-25.60157],[-50.84462,-25.60181],[-50.84456,-25.60193],[-50.84438,-25.60207],[-50.8444,-25.60208],[-50.84445,-25.60653],[-50.84449,-25.60687],[-50.84444,-25.60718],[-50.84447,-25.6072],[-50.84447,-25.60861],[-50.84438,-25.60864],[-50.84354,-25.60849],[-50.8433,-25.60841],[-50.84323,-25.60834],[-50.84303,-25.60826],[-50.84267,-25.60818],[-50.84226,-25.60801],[-50.84188,-25.60792],[-50.84176,-25.60786],[-50.84176,-25.60784],[-50.84169,-25.60788],[-50.84147,-25.60788],[-50.8415,-25.60792],[-50.84148,-25.60795],[-50.84152,-25.60803],[-50.84154,-25.60817],[-50.84152,-25.60819],[-50.84158,-25.60829],[-50.84153,-25.60837],[-50.84156,-25.60865],[-50.84152,-25.60889],[-50.84154,-25.60924],[-50.84173,-25.60932],[-50.84168,-25.60938],[-50.84171,-25.60944],[-50.84184,-25.60955],[-50.84192,-25.60968],[-50.84297,-25.6093],[-50.8431,-25.6093],[-50.84375,-25.61068],[-50.84376,-25.61078],[-50.84384,-25.61077],[-50.84381,-25.61108],[-50.84375,-25.61107],[-50.84377,-25.6111],[-50.84426,-25.61104],[-50.84447,-25.61109],[-50.8445,-25.61113],[-50.84453,-25.61146],[-50.84451,-25.61159],[-50.84454,-25.6116],[-50.84462,-25.6119],[-50.84468,-25.61225],[-50.84472,-25.61229],[-50.84477,-25.61254],[-50.84477,-25.61273],[-50.84483,-25.61281],[-50.84484,-25.61293],[-50.84501,-25.61296],[-50.84507,-25.61302],[-50.84517,-25.61305],[-50.84544,-25.61306],[-50.84545,-25.61284],[-50.84554,-25.61275],[-50.84552,-25.61268],[-50.84588,-25.61235],[-50.84593,-25.61238],[-50.84602,-25.61252],[-50.84612,-25.61255],[-50.84613,-25.61284],[-50.84618,-25.6129],[-50.84619,-25.61299],[-50.84622,-25.61302],[-50.84627,-25.61301],[-50.84626,-25.6131],[-50.84631,-25.61315],[-50.84662,-25.61304],[-50.84665,-25.6131],[-50.84663,-25.6132],[-50.84656,-25.61324],[-50.84677,-25.61334],[-50.84678,-25.61351],[-50.84674,-25.61471],[-50.84666,-25.6151],[-50.84768,-25.61469],[-50.84793,-25.61464],[-50.84791,-25.61459],[-50.84805,-25.61428],[-50.84832,-25.61395],[-50.8484,-25.61367],[-50.84849,-25.61353],[-50.84852,-25.61355],[-50.84968,-25.6131],[-50.85048,-25.61267],[-50.85051,-25.61261],[-50.85066,-25.61256],[-50.85079,-25.6124],[-50.85092,-25.61231],[-50.85093,-25.61234],[-50.85093,-25.61231],[-50.8509,-25.6122],[-50.85089,-25.61207],[-50.85077,-25.61172],[-50.85076,-25.61159],[-50.85077,-25.61151],[-50.85085,-25.61146],[-50.85102,-25.61147],[-50.85127,-25.61159],[-50.85142,-25.61177],[-50.85147,-25.61184],[-50.85141,-25.61193],[-50.85144,-25.61194],[-50.85145,-25.61222],[-50.85154,-25.61213],[-50.8517,-25.61216],[-50.85202,-25.61203],[-50.85205,-25.61204],[-50.85239,-25.6118],[-50.85253,-25.61176],[-50.85284,-25.61158],[-50.85294,-25.61156],[-50.85314,-25.61144],[-50.85389,-25.61116],[-50.85409,-25.61104],[-50.85414,-25.61107],[-50.85441,-25.61092],[-50.85441,-25.6109],[-50.85468,-25.61084],[-50.85519,-25.61059],[-50.85526,-25.61057],[-50.85535,-25.61064],[-50.85554,-25.6104],[-50.85547,-25.61023],[-50.85554,-25.61007],[-50.85543,-25.61005],[-50.8554,-25.61],[-50.85537,-25.61002],[-50.85543,-25.60996],[-50.85549,-25.60995],[-50.85564,-25.60984],[-50.85607,-25.60963],[-50.85622,-25.60979],[-50.85635,-25.60988],[-50.85667,-25.61029],[-50.85677,-25.61057],[-50.85679,-25.61072],[-50.85688,-25.61091],[-50.85691,-25.61116],[-50.85697,-25.61131],[-50.85701,-25.61156],[-50.85701,-25.61181],[-50.85704,-25.612],[-50.85701,-25.61208],[-50.85705,-25.61225],[-50.85702,-25.61227],[-50.85703,-25.61238],[-50.857,-25.61257],[-50.85703,-25.6127],[-50.85687,-25.61336],[-50.85695,-25.61342],[-50.85775,-25.61423],[-50.85786,-25.6143],[-50.85833,-25.61474],[-50.85968,-25.6137],[-50.86056,-25.61379],[-50.86066,-25.61467],[-50.8611,-25.61475],[-50.86124,-25.61483],[-50.86177,-25.61481],[-50.86281,-25.6152],[-50.86311,-25.61536],[-50.86323,-25.61537],[-50.86347,-25.61549],[-50.86361,-25.61572],[-50.86366,-25.61571],[-50.86361,-25.61597],[-50.86361,-25.61622],[-50.86357,-25.61644],[-50.86352,-25.61657],[-50.86346,-25.61696],[-50.86348,-25.61703],[-50.86345,-25.61724],[-50.86351,-25.61726],[-50.86338,-25.61751],[-50.86344,-25.61758],[-50.86367,-25.61813],[-50.86388,-25.61852],[-50.86405,-25.61871],[-50.86405,-25.6189],[-50.86415,-25.61914],[-50.86433,-25.61936],[-50.86436,-25.61948],[-50.86431,-25.61951],[-50.86433,-25.61958],[-50.86442,-25.61948],[-50.86438,-25.61942],[-50.86495,-25.61882],[-50.86503,-25.61867],[-50.86532,-25.61836],[-50.8653,-25.61832],[-50.86534,-25.61826],[-50.86536,-25.61829],[-50.86556,-25.61829],[-50.86567,-25.61832],[-50.86573,-25.61841],[-50.86628,-25.61857],[-50.86645,-25.61869],[-50.86662,-25.6187],[-50.86666,-25.61875],[-50.86694,-25.61881],[-50.86741,-25.61899],[-50.86791,-25.61914],[-50.8679,-25.61901],[-50.868,-25.6186],[-50.8693,-25.617],[-50.86915,-25.61667],[-50.86911,-25.61666],[-50.86885,-25.61648],[-50.8688,-25.61646],[-50.8688,-25.61649],[-50.86877,-25.61649],[-50.86873,-25.61646],[-50.86879,-25.6164],[-50.86873,-25.61639],[-50.86871,-25.61633],[-50.86867,-25.61587],[-50.86863,-25.61578],[-50.86863,-25.61567],[-50.86874,-25.61549],[-50.86841,-25.61549],[-50.86828,-25.61566],[-50.86821,-25.61561],[-50.86818,-25.61544],[-50.86837,-25.61509],[-50.86832,-25.61501],[-50.86834,-25.61487],[-50.86819,-25.6146],[-50.8681,-25.61467],[-50.86798,-25.61467],[-50.86779,-25.61487],[-50.86775,-25.61487],[-50.86767,-25.61471],[-50.86773,-25.61454],[-50.86786,-25.61445],[-50.86793,-25.61444],[-50.86789,-25.61437],[-50.86793,-25.61429],[-50.86793,-25.61412],[-50.8679,-25.61396],[-50.86802,-25.61363],[-50.86801,-25.61342],[-50.86796,-25.61337],[-50.86794,-25.61327],[-50.86797,-25.61307],[-50.86796,-25.61262],[-50.86799,-25.61259],[-50.8679,-25.61245],[-50.86808,-25.61231],[-50.86811,-25.61223],[-50.86804,-25.61212],[-50.86804,-25.61196],[-50.86785,-25.61185],[-50.86758,-25.61177],[-50.8674,-25.61181],[-50.86711,-25.61167],[-50.86695,-25.61168],[-50.86689,-25.61179],[-50.86682,-25.61168],[-50.86681,-25.61157],[-50.86677,-25.61153],[-50.86677,-25.61145],[-50.86673,-25.61147],[-50.86665,-25.61107],[-50.86654,-25.61096],[-50.86609,-25.61057],[-50.86581,-25.61042],[-50.86538,-25.61013],[-50.86532,-25.61017],[-50.86513,-25.61003],[-50.86498,-25.60977],[-50.86496,-25.60983],[-50.86489,-25.60987],[-50.86479,-25.60977],[-50.86473,-25.60967],[-50.86474,-25.60939],[-50.86446,-25.60888],[-50.86433,-25.60853],[-50.86409,-25.60873],[-50.864,-25.60876],[-50.86381,-25.60889],[-50.86377,-25.60895],[-50.86364,-25.60902],[-50.86355,-25.60911],[-50.86323,-25.60929],[-50.86309,-25.60933],[-50.86221,-25.60982],[-50.86211,-25.60995],[-50.86197,-25.61],[-50.86162,-25.61021],[-50.86169,-25.61022],[-50.86175,-25.61035],[-50.86174,-25.61041],[-50.86115,-25.61036],[-50.86072,-25.61042],[-50.86045,-25.61053],[-50.86052,-25.61056],[-50.86055,-25.61069],[-50.8604,-25.61061],[-50.8602,-25.61056],[-50.86016,-25.61088],[-50.86021,-25.61096],[-50.86015,-25.61111],[-50.85964,-25.61113],[-50.85958,-25.61106],[-50.85953,-25.61085],[-50.85953,-25.61057],[-50.85959,-25.61051],[-50.85955,-25.61039],[-50.85809,-25.61038],[-50.85797,-25.61043],[-50.85728,-25.61039],[-50.85723,-25.61032],[-50.85709,-25.60914],[-50.85691,-25.6085],[-50.85687,-25.60825],[-50.85689,-25.60829],[-50.85707,-25.60814],[-50.8566,-25.60747],[-50.85651,-25.60739],[-50.85642,-25.60719],[-50.85627,-25.60702],[-50.85576,-25.60614],[-50.85531,-25.60552],[-50.85521,-25.60531],[-50.85493,-25.60495],[-50.85531,-25.60486],[-50.8553,-25.60477],[-50.85534,-25.60477],[-50.85534,-25.60472],[-50.85552,-25.6048],[-50.85558,-25.60477],[-50.8557,-25.60482],[-50.85602,-25.60468],[-50.8561,-25.60467],[-50.85601,-25.60453],[-50.85603,-25.60447],[-50.85647,-25.60445],[-50.85674,-25.6045],[-50.85712,-25.60449],[-50.85716,-25.60439],[-50.85719,-25.60401],[-50.85731,-25.60339],[-50.85721,-25.60336],[-50.8572,-25.60328],[-50.85716,-25.60322],[-50.85715,-25.60309],[-50.85704,-25.60285],[-50.85692,-25.6027],[-50.8569,-25.60253],[-50.85707,-25.6024],[-50.85731,-25.6023],[-50.85764,-25.60208],[-50.85822,-25.60177],[-50.85832,-25.60176],[-50.85831,-25.60174],[-50.8582,-25.60175],[-50.85812,-25.6017],[-50.8579,-25.60167],[-50.85784,-25.60161],[-50.85774,-25.60162],[-50.85777,-25.60155],[-50.85762,-25.60161],[-50.85751,-25.60158],[-50.85744,-25.60161],[-50.85713,-25.60144],[-50.8569,-25.60123],[-50.85687,-25.60092],[-50.8568,-25.60085],[-50.8566,-25.6008],[-50.85644,-25.60082],[-50.85637,-25.60077],[-50.85626,-25.60086],[-50.85591,-25.60079],[-50.85585,-25.60075],[-50.85582,-25.60061],[-50.85586,-25.60054],[-50.85602,-25.6005],[-50.85609,-25.60042],[-50.85614,-25.60041],[-50.85618,-25.60037],[-50.85615,-25.60026],[-50.85585,-25.60021],[-50.85582,-25.60023],[-50.85579,-25.60018],[-50.8557,-25.60019],[-50.85557,-25.60011],[-50.85549,-25.60016],[-50.85511,-25.60002],[-50.85497,-25.59992],[-50.8549,-25.59992],[-50.85481,-25.59982],[-50.85475,-25.59989]]],[[[-50.85206,-25.61204],[-50.85207,-25.61204],[-50.85209,-25.61203],[-50.85206,-25.61204]]]]}},{"type":"Feature","properties":{"nome":"Faxinal Do Emboque","base":"CAR","perimetro":"Área do Território","aresur":"Sim","resolucao":"049/2009","area_ha":163.2746,"area_resolucao_ha":166.1,"area_imovel_ha":null,"obs":"","recibo_car":"PR-4125605-C247BD9A922B4E97A78FCD3DA40F682D","municipio":"São Mateus do Sul","ibge":"4125605"},"geometry":{"type":"Polygon","coordinates":[[[-50.47545,-25.89835],[-50.4754,-25.89922],[-50.47483,-25.89905],[-50.47378,-25.89893],[-50.47256,-25.89959],[-50.47278,-25.90002],[-50.47296,-25.90065],[-50.47338,-25.9011],[-50.47357,-25.90153],[-50.4738,-25.90192],[-50.47407,-25.90228],[-50.47433,-25.9027],[-50.47457,-25.90316],[-50.47484,-25.90356],[-50.47475,-25.90373],[-50.4751,-25.90423],[-50.47548,-25.9047],[-50.47597,-25.90523],[-50.47605,-25.90557],[-50.4762,-25.9064],[-50.47631,-25.90669],[-50.47649,-25.90747],[-50.47778,-25.90824],[-50.47855,-25.90876],[-50.47787,-25.90979],[-50.4776,-25.91002],[-50.47764,-25.91014],[-50.47777,-25.91034],[-50.47791,-25.91049],[-50.47848,-25.91064],[-50.47986,-25.91148],[-50.48014,-25.91174],[-50.48035,-25.91172],[-50.48066,-25.91177],[-50.48088,-25.9117],[-50.48146,-25.91179],[-50.48192,-25.91178],[-50.48269,-25.91184],[-50.48384,-25.91118],[-50.48416,-25.91105],[-50.48457,-25.9109],[-50.4854,-25.91075],[-50.48593,-25.90946],[-50.48622,-25.90854],[-50.48658,-25.90847],[-50.4872,-25.90877],[-50.4874,-25.90894],[-50.48762,-25.9082],[-50.48708,-25.90749],[-50.48682,-25.90721],[-50.48583,-25.90659],[-50.48506,-25.90581],[-50.48442,-25.90439],[-50.48368,-25.90337],[-50.48347,-25.90298],[-50.48596,-25.90258],[-50.48533,-25.90062],[-50.48495,-25.90063],[-50.48484,-25.9005],[-50.48457,-25.90051],[-50.48456,-25.90042],[-50.4845,-25.90042],[-50.4845,-25.90031],[-50.48458,-25.9003],[-50.48458,-25.90025],[-50.48474,-25.90023],[-50.48497,-25.89993],[-50.48536,-25.89989],[-50.48578,-25.89979],[-50.48613,-25.89967],[-50.48626,-25.89957],[-50.4862,-25.89944],[-50.48617,-25.89883],[-50.48599,-25.89798],[-50.48588,-25.89705],[-50.48482,-25.8968],[-50.48474,-25.8966],[-50.48432,-25.89654],[-50.48444,-25.89577],[-50.48426,-25.89538],[-50.48402,-25.89497],[-50.48115,-25.89604],[-50.47758,-25.8975],[-50.47686,-25.89783],[-50.47545,-25.89835]]]}},{"type":"Feature","properties":{"nome":"Faxinal Saudade Santa Anita","base":"CAR","perimetro":"Área do Território","aresur":"Sim","resolucao":"020/2013","area_ha":1149.4108,"area_resolucao_ha":820.0,"area_imovel_ha":null,"obs":"","recibo_car":"PR-4127965-35B2AF1A8E53460C973F09A3234FFCC3","municipio":"Turvo","ibge":"4127965"},"geometry":{"type":"Polygon","coordinates":[[[-51.64053,-25.02385],[-51.63927,-25.03025],[-51.63771,-25.03683],[-51.62835,-25.04071],[-51.62844,-25.04281],[-51.6273,-25.04282],[-51.62614,-25.04532],[-51.62589,-25.05041],[-51.63669,-25.05101],[-51.64186,-25.05525],[-51.64405,-25.05591],[-51.64523,-25.05367],[-51.65765,-25.04574],[-51.67817,-25.03781],[-51.6771,-25.03046],[-51.67382,-25.0288],[-51.67102,-25.02915],[-51.66866,-25.02582],[-51.66935,-25.02468],[-51.66756,-25.02325],[-51.66128,-25.02423],[-51.65973,-25.02261],[-51.65361,-25.02107],[-51.64968,-25.02031],[-51.64781,-25.01945],[-51.64247,-25.02176],[-51.64053,-25.02385]]]}},{"type":"Feature","properties":{"nome":"Faxinal dos Seixas","base":"ARESUR","perimetro":"Perímetro ARESUR","aresur":"Sim","resolucao":"075/2010","area_ha":40.8373197740064,"area_resolucao_ha":37.9,"area_imovel_ha":null,"obs":"","recibo_car":"","municipio":"São João do Triunfo","ibge":"4125100"},"geometry":{"type":"Polygon","coordinates":[[[-50.38174,-25.56729],[-50.38133,-25.56742],[-50.38119,-25.56741],[-50.38106,-25.56735],[-50.38069,-25.56734],[-50.3803,-25.56745],[-50.38018,-25.56756],[-50.37984,-25.5682],[-50.37962,-25.56851],[-50.37939,-25.56869],[-50.37924,-25.569],[-50.37996,-25.56955],[-50.38041,-25.57009],[-50.38046,-25.57016],[-50.38044,-25.57038],[-50.38068,-25.57086],[-50.38094,-25.57115],[-50.38126,-25.57171],[-50.38145,-25.57182],[-50.38156,-25.57195],[-50.3817,-25.57216],[-50.38242,-25.57302],[-50.38272,-25.57349],[-50.38282,-25.5737],[-50.38285,-25.57391],[-50.38302,-25.57448],[-50.38314,-25.57468],[-50.38324,-25.5748],[-50.38412,-25.57532],[-50.38426,-25.57548],[-50.38469,-25.57561],[-50.38595,-25.57453],[-50.38637,-25.57428],[-50.38701,-25.57399],[-50.38705,-25.57381],[-50.38699,-25.57346],[-50.38702,-25.57332],[-50.38713,-25.5732],[-50.38713,-25.57306],[-50.38671,-25.57198],[-50.38656,-25.57186],[-50.38652,-25.5718],[-50.38662,-25.57153],[-50.38663,-25.57136],[-50.38635,-25.57111],[-50.38604,-25.57059],[-50.38586,-25.57049],[-50.38548,-25.56999],[-50.38517,-25.56972],[-50.38494,-25.56939],[-50.38473,-25.56896],[-50.38481,-25.56841],[-50.38478,-25.56801],[-50.3841,-25.56773],[-50.38325,-25.56733],[-50.38294,-25.56717],[-50.38281,-25.56705],[-50.38174,-25.56729]]]}},{"type":"Feature","properties":{"nome":"Faxinal Rio do Couro","base":"ARESUR","perimetro":"Perímetro ARESUR","aresur":"Sim","resolucao":"072/2010","area_ha":980.761118854557,"area_resolucao_ha":960.0,"area_imovel_ha":null,"obs":"","recibo_car":"","municipio":"Irati","ibge":"4110706"},"geometry":{"type":"Polygon","coordinates":[[[-50.88929,-25.4233],[-50.88978,-25.42056],[-50.88849,-25.41799],[-50.88565,-25.41797],[-50.88504,-25.4162],[-50.88387,-25.41589],[-50.88377,-25.414],[-50.88362,-25.41283],[-50.88355,-25.41193],[-50.88368,-25.4111],[-50.88362,-25.41076],[-50.88364,-25.41047],[-50.88369,-25.41026],[-50.88383,-25.41007],[-50.88376,-25.40978],[-50.8839,-25.4096],[-50.88406,-25.40947],[-50.88401,-25.40931],[-50.88343,-25.40977],[-50.8834,-25.40984],[-50.88327,-25.40995],[-50.88323,-25.41009],[-50.88304,-25.41037],[-50.88289,-25.41051],[-50.88273,-25.41058],[-50.88264,-25.41075],[-50.88233,-25.4111],[-50.88224,-25.41115],[-50.88223,-25.41121],[-50.88211,-25.41135],[-50.88117,-25.41149],[-50.88087,-25.4116],[-50.88079,-25.41167],[-50.88067,-25.41192],[-50.88066,-25.412],[-50.88074,-25.41218],[-50.88075,-25.41293],[-50.88032,-25.41344],[-50.87991,-25.41367],[-50.87958,-25.41369],[-50.87918,-25.41351],[-50.87891,-25.41326],[-50.87869,-25.41295],[-50.87837,-25.4127],[-50.8781,-25.41262],[-50.87785,-25.41268],[-50.87754,-25.41287],[-50.87747,-25.41317],[-50.87744,-25.41359],[-50.8768,-25.41422],[-50.87653,-25.41456],[-50.87555,-25.4155],[-50.87496,-25.41564],[-50.87414,-25.41604],[-50.87324,-25.41642],[-50.87257,-25.41646],[-50.87155,-25.41678],[-50.87102,-25.41726],[-50.8706,-25.41758],[-50.87061,-25.41788],[-50.87055,-25.41826],[-50.87025,-25.41874],[-50.87007,-25.41889],[-50.86986,-25.41897],[-50.86985,-25.4192],[-50.86969,-25.41946],[-50.8694,-25.41942],[-50.86951,-25.4197],[-50.86992,-25.41994],[-50.86998,-25.4204],[-50.87063,-25.42054],[-50.87097,-25.42068],[-50.87118,-25.42087],[-50.87185,-25.42179],[-50.87282,-25.42223],[-50.87307,-25.42256],[-50.87328,-25.42307],[-50.87294,-25.42367],[-50.87237,-25.42443],[-50.87237,-25.42485],[-50.87258,-25.42532],[-50.8725,-25.42557],[-50.87247,-25.42597],[-50.87251,-25.42638],[-50.87238,-25.42679],[-50.87219,-25.42713],[-50.87198,-25.42734],[-50.87164,-25.42755],[-50.87057,-25.42838],[-50.87015,-25.4293],[-50.8693,-25.43049],[-50.86981,-25.43069],[-50.86985,-25.43125],[-50.87009,-25.43206],[-50.86992,-25.43288],[-50.86932,-25.43399],[-50.86938,-25.43497],[-50.86921,-25.436],[-50.86912,-25.43703],[-50.86854,-25.43746],[-50.86859,-25.43799],[-50.86855,-25.43831],[-50.86787,-25.43872],[-50.86681,-25.43866],[-50.86636,-25.43879],[-50.86577,-25.43934],[-50.86571,-25.44019],[-50.86587,-25.44102],[-50.86576,-25.44142],[-50.86574,-25.44201],[-50.86583,-25.44231],[-50.86553,-25.44319],[-50.86527,-25.44364],[-50.86531,-25.44416],[-50.86519,-25.44444],[-50.86518,-25.44468],[-50.86529,-25.44508],[-50.86555,-25.44529],[-50.86551,-25.44616],[-50.86571,-25.44651],[-50.86568,-25.44703],[-50.86573,-25.44754],[-50.86572,-25.4478],[-50.86618,-25.44823],[-50.86629,-25.44846],[-50.86686,-25.44915],[-50.86707,-25.44949],[-50.86722,-25.44982],[-50.86713,-25.4506],[-50.867,-25.45115],[-50.86687,-25.45146],[-50.86685,-25.45179],[-50.86725,-25.45227],[-50.86834,-25.45335],[-50.8688,-25.45408],[-50.86955,-25.45427],[-50.87038,-25.45466],[-50.87119,-25.45538],[-50.87167,-25.45603],[-50.87189,-25.45739],[-50.87189,-25.45854],[-50.8733,-25.45804],[-50.87349,-25.45615],[-50.87449,-25.45594],[-50.87549,-25.4559],[-50.8784,-25.45476],[-50.87796,-25.45375],[-50.87866,-25.45343],[-50.87772,-25.45119],[-50.88084,-25.45016],[-50.88333,-25.44992],[-50.88674,-25.44998],[-50.88879,-25.44886],[-50.89275,-25.44879],[-50.89334,-25.4473],[-50.89443,-25.44704],[-50.89656,-25.44445],[-50.89773,-25.44353],[-50.89768,-25.44213],[-50.90075,-25.4421],[-50.90058,-25.43874],[-50.89847,-25.43886],[-50.89741,-25.43733],[-50.89655,-25.43501],[-50.89345,-25.43397],[-50.8932,-25.43347],[-50.89284,-25.43249],[-50.89061,-25.43219],[-50.89006,-25.43064],[-50.88781,-25.43086],[-50.88677,-25.43066],[-50.88714,-25.42945],[-50.88734,-25.42717],[-50.88688,-25.42626],[-50.88973,-25.42535],[-50.88929,-25.4233]]]}}]}