{"type":"FeatureCollection","otimizacao":{"tolerancia":2e-05,"casas":5},"features":[{"type":"Feature","properties":{"nome":"Porto Velho","municipio":"","fase":"PORTARIA"},"geometry":{"type":"MultiPolygon","coordinates":[[[[-48.7792,-24.69608],[-48.77943,-24.69586],[-48.77952,-24.69494],[-48.78071,-24.69287],[-48.78129,-24.69099],[-48.78137,-24.68937],[-48.78167,-24.68849],[-48.78203,-24.68779],[-48.78294,-24.68687],[-48.78363,-24.68531],[-48.78359,-24.68478],[-48.78439,-24.68388],[-48.78623,-24.68333],[-48.78646,-24.68314],[-48.78676,-24.68154],[-48.79021,-24.67971],[-48.79337,-24.67858],[-48.79431,-24.67784],[-48.79545,-24.6764],[-48.79678,-24.67565],[-48.79869,-24.67499],[-48.79873,-24.67471],[-48.79779,-24.67167],[-48.79362,-24.67185],[-48.79371,-24.67224],[-48.79345,-24.67263],[-48.79338,-24.67312],[-48.79369,-24.67378],[-48.7944,-24.67424],[-48.79441,-24.67446],[-48.79424,-24.67499],[-48.79354,-24.67551],[-48.79307,-24.67684],[-48.79233,-24.67713],[-48.79233,-24.67798],[-48.79142,-24.67911],[-48.79038,-24.67934],[-48.78886,-24.6787],[-48.7878,-24.67896],[-48.78633,-24.68012],[-48.78454,-24.682],[-48.7841,-24.68195],[-48.78395,-24.68248],[-48.78348,-24.68301],[-48.7834,-24.68366],[-48.78257,-24.68453],[-48.78211,-24.68479],[-48.78155,-24.6856],[-48.78078,-24.68575],[-48.78022,-24.68647],[-48.77998,-24.68644],[-48.77953,-24.68589],[-48.77857,-24.68541],[-48.77744,-24.68575],[-48.77703,-24.68618],[-48.77739,-24.68738],[-48.77729,-24.68751],[-48.77655,-24.68731],[-48.7762,-24.68743],[-48.77588,-24.68721],[-48.77473,-24.68729],[-48.77428,-24.68706],[-48.77334,-24.68572],[-48.77297,-24.68552],[-48.77123,-24.68538],[-48.77,-24.68569],[-48.76875,-24.68533],[-48.76688,-24.68449],[-48.76607,-24.68495],[-48.76535,-24.68499],[-48.76501,-24.68487],[-48.76446,-24.68409],[-48.76442,-24.68381],[-48.76368,-24.6838],[-48.7634,-24.6829],[-48.76307,-24.68293],[-48.76169,-24.68172],[-48.76029,-24.68218],[-48.7616,-24.68403],[-48.76226,-24.68543],[-48.76287,-24.68612],[-48.76328,-24.68689],[-48.76441,-24.68806],[-48.76502,-24.68903],[-48.76629,-24.69004],[-48.76753,-24.69265],[-48.76795,-24.69392],[-48.76904,-24.69507],[-48.76977,-24.69559],[-48.7703,-24.69576],[-48.77144,-24.6957],[-48.77304,-24.69544],[-48.77467,-24.69433],[-48.77519,-24.69441],[-48.77663,-24.6951],[-48.77799,-24.69594],[-48.7792,-24.69608]]],[[[-48.7646,-24.68007],[-48.76523,-24.67927],[-48.76498,-24.67773],[-48.76508,-24.67699],[-48.76425,-24.67652],[-48.76438,-24.67551],[-48.76466,-24.67525],[-48.76466,-24.67502],[-48.76403,-24.67414],[-48.76327,-24.67369],[-48.76246,-24.67184],[-48.76211,-24.67167],[-48.76215,-24.67127],[-48.76192,-24.67067],[-48.7615,-24.67042],[-48.75993,-24.66852],[-48.75689,-24.67323],[-48.75877,-24.67395],[-48.7646,-24.68007]]],[[[-48.76001,-24.6684],[-48.76156,-24.67034],[-48.76201,-24.67061],[-48.76226,-24.67126],[-48.76224,-24.67161],[-48.76254,-24.67176],[-48.76337,-24.67364],[-48.7641,-24.67407],[-48.76477,-24.67499],[-48.76478,-24.67528],[-48.76448,-24.67557],[-48.76437,-24.67646],[-48.76522,-24.67695],[-48.76509,-24.67773],[-48.76518,-24.67892],[-48.76534,-24.67925],[-48.76467,-24.68019],[-48.76525,-24.68075],[-48.76445,-24.68145],[-48.76414,-24.68237],[-48.76345,-24.68281],[-48.76376,-24.68368],[-48.76454,-24.68374],[-48.76457,-24.68405],[-48.76509,-24.6848],[-48.76536,-24.68489],[-48.76605,-24.68486],[-48.76685,-24.6844],[-48.76768,-24.68464],[-48.76879,-24.68525],[-48.77,-24.68559],[-48.77123,-24.68529],[-48.77301,-24.68543],[-48.77343,-24.68567],[-48.77435,-24.68698],[-48.77475,-24.68719],[-48.77592,-24.68712],[-48.77621,-24.68731],[-48.77654,-24.68721],[-48.77724,-24.68739],[-48.77691,-24.68619],[-48.77702,-24.68596],[-48.77769,-24.68553],[-48.77802,-24.68556],[-48.77859,-24.68531],[-48.77956,-24.68579],[-48.78002,-24.68634],[-48.78021,-24.68636],[-48.78068,-24.68567],[-48.78149,-24.68552],[-48.78199,-24.68475],[-48.78317,-24.68377],[-48.78337,-24.68345],[-48.78337,-24.68298],[-48.78385,-24.68244],[-48.78385,-24.6821],[-48.78404,-24.68187],[-48.7845,-24.68191],[-48.78623,-24.68008],[-48.78775,-24.67888],[-48.78887,-24.67861],[-48.7904,-24.67924],[-48.79134,-24.67903],[-48.79223,-24.67793],[-48.79222,-24.67712],[-48.79298,-24.67678],[-48.79343,-24.67547],[-48.79413,-24.67496],[-48.7943,-24.67445],[-48.79428,-24.67427],[-48.79359,-24.67382],[-48.79327,-24.67313],[-48.79358,-24.67206],[-48.79302,-24.67139],[-48.79373,-24.67115],[-48.79402,-24.67073],[-48.79394,-24.66984],[-48.79355,-24.66936],[-48.79359,-24.66811],[-48.79328,-24.66818],[-48.79222,-24.6678],[-48.79094,-24.66787],[-48.7823,-24.66271],[-48.7778,-24.66133],[-48.77688,-24.66121],[-48.7763,-24.66067],[-48.7759,-24.66061],[-48.77503,-24.66084],[-48.77427,-24.65996],[-48.77415,-24.65924],[-48.77384,-24.65907],[-48.77253,-24.65963],[-48.77172,-24.66046],[-48.77122,-24.66144],[-48.76675,-24.65798],[-48.76001,-24.6684]]]]}},{"type":"Feature","properties":{"nome":"Mamãs","municipio":"","fase":"RTID"},"geometry":{"type":"MultiPolygon","coordinates":[[[[-49.50268,-24.77738],[-49.50183,-24.77872],[-49.5012,-24.78099],[-49.50429,-24.78171],[-49.50421,-24.78638],[-49.50187,-24.7882],[-49.50545,-24.791],[-49.50791,-24.79175],[-49.50974,-24.79267],[-49.51095,-24.79258],[-49.51099,-24.7897],[-49.51203,-24.78935],[-49.51377,-24.79034],[-49.51487,-24.78758],[-49.51546,-24.78745],[-49.51581,-24.78705],[-49.51606,-24.78407],[-49.51584,-24.78325],[-49.5161,-24.78263],[-49.51631,-24.78253],[-49.51465,-24.78127],[-49.51388,-24.78112],[-49.51373,-24.78054],[-49.51368,-24.7767],[-49.51246,-24.7757],[-49.51089,-24.77604],[-49.51,-24.77473],[-49.50957,-24.77459],[-49.509,-24.77369],[-49.5096,-24.772],[-49.50867,-24.77113],[-49.5084,-24.77147],[-49.50762,-24.77187],[-49.50691,-24.77283],[-49.5062,-24.77294],[-49.50268,-24.77738]]],[[[-49.51111,-24.76115],[-49.51065,-24.76091],[-49.5097,-24.76088],[-49.5077,-24.76041],[-49.50705,-24.76064],[-49.50591,-24.76014],[-49.50464,-24.76184],[-49.50438,-24.76273],[-49.5033,-24.7634],[-49.50241,-24.76437],[-49.50175,-24.76462],[-49.50109,-24.76528],[-49.50282,-24.76744],[-49.50361,-24.76792],[-49.50472,-24.76777],[-49.5065,-24.7682],[-49.51016,-24.76638],[-49.51106,-24.76881],[-49.5121,-24.76845],[-49.51267,-24.76769],[-49.51421,-24.76846],[-49.51668,-24.76788],[-49.51707,-24.76795],[-49.51722,-24.76492],[-49.51856,-24.76318],[-49.51818,-24.7627],[-49.51816,-24.76154],[-49.51754,-24.76081],[-49.51358,-24.75945],[-49.51367,-24.75965],[-49.51318,-24.76005],[-49.51283,-24.76009],[-49.51238,-24.7605],[-49.5122,-24.76093],[-49.51111,-24.76115]]]]}},{"type":"Feature","properties":{"nome":"São João","municipio":"","fase":"RTID"},"geometry":{"type":"Polygon","coordinates":[[[-48.55399,-24.78106],[-48.56035,-24.77327],[-48.56191,-24.77314],[-48.56448,-24.77428],[-48.56718,-24.77024],[-48.56167,-24.76894],[-48.55723,-24.76302],[-48.55434,-24.76023],[-48.55335,-24.76094],[-48.55281,-24.76104],[-48.55116,-24.76181],[-48.55,-24.76187],[-48.54905,-24.75945],[-48.54867,-24.75925],[-48.54788,-24.7594],[-48.54733,-24.75921],[-48.54696,-24.75822],[-48.54638,-24.75742],[-48.54471,-24.75717],[-48.54189,-24.75619],[-48.54289,-24.75474],[-48.54246,-24.75435],[-48.5512,-24.74384],[-48.56159,-24.74713],[-48.56255,-24.74528],[-48.57063,-24.75502],[-48.57228,-24.74954],[-48.57006,-24.74934],[-48.56708,-24.74219],[-48.56259,-24.7371],[-48.56449,-24.73314],[-48.57518,-24.73498],[-48.58087,-24.72718],[-48.56762,-24.71994],[-48.57084,-24.71595],[-48.56937,-24.71338],[-48.57716,-24.70409],[-48.57823,-24.70211],[-48.57729,-24.70152],[-48.57634,-24.70003],[-48.5743,-24.69974],[-48.57185,-24.69962],[-48.57079,-24.69905],[-48.56985,-24.69887],[-48.56961,-24.69849],[-48.56929,-24.70032],[-48.5688,-24.70039],[-48.5692,-24.70081],[-48.56473,-24.70624],[-48.5617,-24.70715],[-48.56001,-24.70944],[-48.56011,-24.71071],[-48.55799,-24.71092],[-48.55342,-24.7097],[-48.55211,-24.70961],[-48.55128,-24.71102],[-48.55241,-24.7152],[-48.55181,-24.71662],[-48.55092,-24.71743],[-48.548,-24.71782],[-48.54458,-24.71796],[-48.546,-24.72059],[-48.54575,-24.72185],[-48.54458,-24.7227],[-48.54356,-24.7252],[-48.54259,-24.72597],[-48.54078,-24.72579],[-48.53775,-24.72626],[-48.53386,-24.72805],[-48.53064,-24.73013],[-48.52917,-24.73159],[-48.53042,-24.73309],[-48.53026,-24.73432],[-48.53178,-24.73677],[-48.53084,-24.73839],[-48.52945,-24.73929],[-48.52786,-24.73929],[-48.52658,-24.73869],[-48.52559,-24.7372],[-48.52401,-24.73629],[-48.52247,-24.73607],[-48.52006,-24.7376],[-48.51655,-24.73885],[-48.51517,-24.7388],[-48.513,-24.74021],[-48.5115,-24.74057],[-48.50947,-24.74015],[-48.50768,-24.73834],[-48.50662,-24.73581],[-48.50503,-24.73494],[-48.50381,-24.73495],[-48.50209,-24.73739],[-48.50031,-24.73735],[-48.49931,-24.73897],[-48.50053,-24.73939],[-48.5032,-24.73909],[-48.50397,-24.74014],[-48.50409,-24.74154],[-48.50214,-24.74467],[-48.5019,-24.74598],[-48.50706,-24.75114],[-48.5077,-24.75237],[-48.50761,-24.7536],[-48.50735,-24.75409],[-48.50746,-24.75532],[-48.50825,-24.7563],[-48.50849,-24.75723],[-48.50778,-24.76063],[-48.50819,-24.76169],[-48.5081,-24.76197],[-48.5068,-24.76331],[-48.50729,-24.76479],[-48.50787,-24.76517],[-48.51033,-24.76396],[-48.51209,-24.76396],[-48.51304,-24.76534],[-48.51383,-24.76497],[-48.51617,-24.76468],[-48.51747,-24.76254],[-48.519,-24.76149],[-48.52417,-24.7593],[-48.52927,-24.75861],[-48.53244,-24.75977],[-48.53404,-24.76209],[-48.53546,-24.7649],[-48.5376,-24.77041],[-48.55399,-24.78106]]]}},{"type":"Feature","properties":{"nome":"Varzeão","municipio":"","fase":"RTID"},"geometry":{"type":"Polygon","coordinates":[[[-49.28749,-24.52574],[-49.28732,-24.5255],[-49.28704,-24.52537],[-49.28695,-24.52548],[-49.28724,-24.52608],[-49.30651,-24.52805],[-49.30747,-24.52723],[-49.30805,-24.52638],[-49.30858,-24.52628],[-49.30937,-24.52561],[-49.3116,-24.52615],[-49.31386,-24.524],[-49.31962,-24.5224],[-49.31978,-24.52217],[-49.32025,-24.52197],[-49.32033,-24.52138],[-49.32097,-24.52103],[-49.3214,-24.52025],[-49.32133,-24.51959],[-49.32048,-24.51915],[-49.32031,-24.5188],[-49.32031,-24.51826],[-49.32044,-24.51767],[-49.32125,-24.51618],[-49.32114,-24.51537],[-49.3214,-24.5143],[-49.32193,-24.51359],[-49.32188,-24.51298],[-49.3229,-24.5119],[-49.3242,-24.51137],[-49.33092,-24.51301],[-49.34608,-24.5163],[-49.35048,-24.51773],[-49.35295,-24.51041],[-49.39244,-24.4912],[-49.39158,-24.49014],[-49.39188,-24.48822],[-49.39178,-24.4875],[-49.39728,-24.48529],[-49.39882,-24.48372],[-49.39779,-24.4825],[-49.39774,-24.48115],[-49.39303,-24.48305],[-49.39168,-24.4833],[-49.38812,-24.48315],[-49.381,-24.48212],[-49.37311,-24.48212],[-49.37173,-24.48163],[-49.36851,-24.47894],[-49.36251,-24.47708],[-49.35707,-24.47435],[-49.3545,-24.47273],[-49.3523,-24.4702],[-49.35176,-24.46901],[-49.35123,-24.46643],[-49.35038,-24.46359],[-49.3486,-24.4596],[-49.34789,-24.45847],[-49.34693,-24.4575],[-49.34581,-24.45662],[-49.34443,-24.45599],[-49.33846,-24.45455],[-49.33284,-24.4523],[-49.33078,-24.4506],[-49.32733,-24.44606],[-49.32637,-24.44541],[-49.32472,-24.44466],[-49.31655,-24.44118],[-49.31534,-24.44018],[-49.3145,-24.43912],[-49.31378,-24.43785],[-49.31349,-24.43657],[-49.31336,-24.43253],[-49.31314,-24.43165],[-49.31224,-24.43033],[-49.31105,-24.42924],[-49.30983,-24.42865],[-49.30881,-24.42839],[-49.29187,-24.42828],[-49.29001,-24.42755],[-49.26713,-24.47844],[-49.26739,-24.47845],[-49.26752,-24.47863],[-49.26782,-24.47855],[-49.26783,-24.4788],[-49.26819,-24.4789],[-49.26813,-24.47917],[-49.26756,-24.47953],[-49.26749,-24.47978],[-49.26793,-24.48012],[-49.26779,-24.48022],[-49.26797,-24.4804],[-49.26784,-24.48091],[-49.26826,-24.48098],[-49.2686,-24.48083],[-49.26861,-24.4806],[-49.26908,-24.48052],[-49.26922,-24.48029],[-49.26994,-24.48003],[-49.27028,-24.48031],[-49.27016,-24.4806],[-49.27021,-24.48191],[-49.27069,-24.48191],[-49.27146,-24.48231],[-49.27123,-24.4826],[-49.27091,-24.48251],[-49.27002,-24.48309],[-49.26937,-24.48386],[-49.26925,-24.48426],[-49.26921,-24.48445],[-49.26994,-24.48545],[-49.26988,-24.48626],[-49.27067,-24.48719],[-49.27061,-24.48791],[-49.27087,-24.48819],[-49.27084,-24.48865],[-49.27117,-24.48909],[-49.27111,-24.48949],[-49.26979,-24.49005],[-49.26934,-24.49066],[-49.26914,-24.49055],[-49.26886,-24.49134],[-49.26916,-24.49194],[-49.27037,-24.49226],[-49.27071,-24.49205],[-49.27094,-24.49133],[-49.27157,-24.4912],[-49.27228,-24.49169],[-49.27319,-24.4917],[-49.27344,-24.49207],[-49.27428,-24.49214],[-49.27441,-24.49272],[-49.27495,-24.49302],[-49.2759,-24.49271],[-49.27617,-24.49277],[-49.27655,-24.49194],[-49.27665,-24.49091],[-49.27698,-24.49054],[-49.2769,-24.48951],[-49.27725,-24.48687],[-49.27723,-24.4853],[-49.27757,-24.48356],[-49.28753,-24.485],[-49.28518,-24.49427],[-49.28548,-24.49456],[-49.28652,-24.49479],[-49.2886,-24.49583],[-49.2886,-24.49626],[-49.28917,-24.49711],[-49.28959,-24.49725],[-49.28997,-24.49706],[-49.2901,-24.49726],[-49.29021,-24.49839],[-49.29129,-24.49903],[-49.29455,-24.49913],[-49.29578,-24.5001],[-49.29594,-24.50104],[-49.29549,-24.50207],[-49.29591,-24.50224],[-49.29612,-24.50274],[-49.29585,-24.50297],[-49.2955,-24.50293],[-49.29532,-24.50309],[-49.29516,-24.50351],[-49.29549,-24.50358],[-49.29481,-24.50413],[-49.29399,-24.5041],[-49.29382,-24.50422],[-49.29418,-24.50507],[-49.29403,-24.5054],[-49.29271,-24.5059],[-49.29229,-24.50732],[-49.29194,-24.50778],[-49.29128,-24.50809],[-49.29099,-24.50871],[-49.29069,-24.50888],[-49.29001,-24.50889],[-49.28966,-24.5087],[-49.28917,-24.50904],[-49.28914,-24.50928],[-49.28933,-24.50968],[-49.29619,-24.51226],[-49.29454,-24.51788],[-49.29386,-24.51813],[-49.29264,-24.51814],[-49.29099,-24.51772],[-49.2894,-24.51693],[-49.28744,-24.51656],[-49.28723,-24.51646],[-49.28707,-24.51606],[-49.28612,-24.51635],[-49.28588,-24.51622],[-49.28577,-24.51651],[-49.28589,-24.5169],[-49.28563,-24.51708],[-49.28546,-24.51769],[-49.2862,-24.5181],[-49.28627,-24.5183],[-49.28588,-24.51892],[-49.28638,-24.52032],[-49.28636,-24.52078],[-49.28694,-24.52171],[-49.28671,-24.5224],[-49.28693,-24.5229],[-49.28757,-24.52298],[-49.28816,-24.52279],[-49.28835,-24.52293],[-49.28818,-24.52347],[-49.2879,-24.52371],[-49.28716,-24.5238],[-49.28687,-24.52401],[-49.28705,-24.52468],[-49.28652,-24.52487],[-49.28661,-24.52514],[-49.28746,-24.5251],[-49.28772,-24.52487],[-49.28796,-24.5249],[-49.28773,-24.52561],[-49.28749,-24.52574]]]}},{"type":"Feature","properties":{"nome":"Manoel Ciriaco","municipio":"","fase":"RTID"},"geometry":{"type":"Polygon","coordinates":[[[-54.16351,-24.21453],[-54.18771,-24.21475],[-54.18761,-24.21442],[-54.18771,-24.21379],[-54.16352,-24.21357],[-54.16351,-24.21453]]]}},{"type":"Feature","properties":{"nome":"Córrego do Franco","municipio":"","fase":"RTID"},"geometry":{"type":"Polygon","coordinates":[[[-48.52417,-24.7593],[-48.519,-24.76149],[-48.51747,-24.76254],[-48.51617,-24.76468],[-48.51422,-24.7656],[-48.51431,-24.76595],[-48.51497,-24.7667],[-48.51655,-24.76708],[-48.51775,-24.76823],[-48.51822,-24.76939],[-48.51819,-24.77039],[-48.51772,-24.77198],[-48.51778,-24.77256],[-48.51826,-24.77301],[-48.5186,-24.77426],[-48.51842,-24.77502],[-48.51795,-24.77603],[-48.51729,-24.77629],[-48.5173,-24.77647],[-48.51674,-24.77682],[-48.51617,-24.77791],[-48.51617,-24.77817],[-48.51673,-24.77903],[-48.51723,-24.77941],[-48.51716,-24.77993],[-48.51786,-24.78037],[-48.52058,-24.7805],[-48.52236,-24.78104],[-48.52327,-24.78098],[-48.5263,-24.78227],[-48.52726,-24.78212],[-48.528,-24.78247],[-48.52827,-24.78282],[-48.52924,-24.78344],[-48.52992,-24.7842],[-48.53005,-24.78542],[-48.5305,-24.78564],[-48.53143,-24.7858],[-48.53407,-24.78586],[-48.53436,-24.78558],[-48.53481,-24.7856],[-48.53609,-24.7865],[-48.53607,-24.78739],[-48.53625,-24.7882],[-48.53692,-24.78914],[-48.53767,-24.78967],[-48.5388,-24.79016],[-48.53922,-24.78994],[-48.53969,-24.79064],[-48.5414,-24.79152],[-48.542,-24.79222],[-48.54375,-24.7934],[-48.54504,-24.79383],[-48.54714,-24.79527],[-48.54847,-24.79556],[-48.54989,-24.7971],[-48.55051,-24.7987],[-48.55168,-24.80008],[-48.55257,-24.8008],[-48.55252,-24.80164],[-48.55287,-24.80207],[-48.55348,-24.80228],[-48.55349,-24.80264],[-48.55411,-24.80311],[-48.55455,-24.80319],[-48.55508,-24.8037],[-48.55523,-24.80436],[-48.55562,-24.80503],[-48.55659,-24.80597],[-48.5566,-24.8073],[-48.55608,-24.8078],[-48.55602,-24.80815],[-48.55635,-24.809],[-48.55614,-24.81009],[-48.55698,-24.81184],[-48.5579,-24.81226],[-48.55836,-24.81269],[-48.57652,-24.80308],[-48.58032,-24.80716],[-48.5859,-24.81012],[-48.58797,-24.81016],[-48.5907,-24.81533],[-48.5971,-24.80701],[-48.59833,-24.80467],[-48.59642,-24.80315],[-48.59471,-24.8025],[-48.59356,-24.8016],[-48.59289,-24.80167],[-48.59238,-24.80267],[-48.59206,-24.80287],[-48.59154,-24.80277],[-48.5915,-24.80218],[-48.59096,-24.80112],[-48.58796,-24.7976],[-48.58704,-24.7972],[-48.58634,-24.79737],[-48.58554,-24.79723],[-48.58493,-24.7964],[-48.58444,-24.79606],[-48.58447,-24.79443],[-48.58348,-24.79282],[-48.58228,-24.79246],[-48.58202,-24.79224],[-48.58169,-24.79152],[-48.5805,-24.7904],[-48.57951,-24.78973],[-48.57874,-24.78937],[-48.57801,-24.78933],[-48.57793,-24.78822],[-48.57699,-24.78715],[-48.57526,-24.78582],[-48.57398,-24.78547],[-48.57378,-24.78528],[-48.5737,-24.78432],[-48.57299,-24.78403],[-48.57265,-24.78259],[-48.57216,-24.78171],[-48.57155,-24.78113],[-48.57147,-24.78021],[-48.57082,-24.77963],[-48.57068,-24.77928],[-48.57065,-24.779],[-48.57087,-24.77864],[-48.57213,-24.77831],[-48.57224,-24.77782],[-48.57196,-24.7773],[-48.57143,-24.77717],[-48.57068,-24.77768],[-48.57007,-24.77778],[-48.56998,-24.77702],[-48.56952,-24.77647],[-48.56924,-24.77576],[-48.56655,-24.775],[-48.56589,-24.7739],[-48.56551,-24.77393],[-48.56533,-24.77433],[-48.56503,-24.77441],[-48.56445,-24.77432],[-48.56176,-24.77321],[-48.56035,-24.77327],[-48.55399,-24.78106],[-48.5376,-24.77041],[-48.53546,-24.7649],[-48.53404,-24.76209],[-48.53244,-24.75977],[-48.52927,-24.75861],[-48.52417,-24.7593]]]}},{"type":"Feature","properties":{"nome":"Serra do Apon","municipio":"","fase":"RTID"},"geometry":{"type":"MultiPolygon","coordinates":[[[[-49.58608,-24.67159],[-49.5857,-24.67133],[-49.58431,-24.67312],[-49.58396,-24.67444],[-49.58409,-24.67491],[-49.58383,-24.67679],[-49.58359,-24.67729],[-49.58291,-24.67805],[-49.58257,-24.67928],[-49.58129,-24.68154],[-49.58059,-24.68244],[-49.58023,-24.68358],[-49.57984,-24.68419],[-49.57742,-24.68507],[-49.57698,-24.68499],[-49.57561,-24.68535],[-49.57453,-24.68523],[-49.574,-24.68574],[-49.57379,-24.6862],[-49.57333,-24.68618],[-49.57306,-24.68668],[-49.57204,-24.68713],[-49.57205,-24.68753],[-49.57258,-24.68762],[-49.57286,-24.68723],[-49.57385,-24.68707],[-49.57435,-24.68725],[-49.57483,-24.68814],[-49.575,-24.68729],[-49.57512,-24.6871],[-49.57537,-24.68714],[-49.57634,-24.68787],[-49.57763,-24.68813],[-49.57819,-24.68944],[-49.57891,-24.6896],[-49.57974,-24.68929],[-49.58088,-24.68841],[-49.58139,-24.68845],[-49.58168,-24.68829],[-49.58181,-24.68792],[-49.58363,-24.68701],[-49.58473,-24.68749],[-49.58484,-24.68787],[-49.58513,-24.68795],[-49.58601,-24.68871],[-49.58626,-24.68871],[-49.58632,-24.6872],[-49.58674,-24.68763],[-49.58704,-24.68772],[-49.5873,-24.68811],[-49.58717,-24.68892],[-49.58771,-24.6891],[-49.58842,-24.68898],[-49.58839,-24.68973],[-49.58868,-24.69032],[-49.58831,-24.69065],[-49.58822,-24.69104],[-49.58842,-24.69134],[-49.5895,-24.69212],[-49.58964,-24.69326],[-49.58936,-24.69469],[-49.59016,-24.69435],[-49.59062,-24.69484],[-49.5914,-24.69495],[-49.59193,-24.69462],[-49.59222,-24.6936],[-49.59244,-24.69341],[-49.59431,-24.6936],[-49.5944,-24.69444],[-49.59406,-24.69535],[-49.59409,-24.6958],[-49.5939,-24.69598],[-49.59379,-24.6966],[-49.59349,-24.69691],[-49.59347,-24.69722],[-49.59445,-24.69733],[-49.59481,-24.69807],[-49.59451,-24.69865],[-49.59469,-24.69919],[-49.59453,-24.69977],[-49.59477,-24.70007],[-49.59467,-24.70151],[-49.59527,-24.7023],[-49.59541,-24.70221],[-49.59569,-24.70246],[-49.59617,-24.70348],[-49.59605,-24.70369],[-49.5964,-24.70394],[-49.59665,-24.70447],[-49.59668,-24.70483],[-49.59639,-24.70525],[-49.59655,-24.70595],[-49.59689,-24.70596],[-49.59697,-24.70646],[-49.59758,-24.70712],[-49.59829,-24.70734],[-49.59856,-24.70773],[-49.59895,-24.70747],[-49.59927,-24.70764],[-49.59986,-24.70885],[-49.60027,-24.70929],[-49.60026,-24.70957],[-49.60059,-24.70992],[-49.60013,-24.71132],[-49.60054,-24.71235],[-49.60101,-24.71277],[-49.60182,-24.71293],[-49.60263,-24.71419],[-49.60342,-24.71429],[-49.60378,-24.71495],[-49.60531,-24.71571],[-49.606,-24.71729],[-49.60656,-24.71726],[-49.60682,-24.71684],[-49.60692,-24.71623],[-49.60765,-24.71584],[-49.60965,-24.71603],[-49.60989,-24.71548],[-49.60979,-24.71511],[-49.6092,-24.71486],[-49.60941,-24.7142],[-49.60967,-24.71491],[-49.61021,-24.71492],[-49.6112,-24.71556],[-49.61256,-24.71716],[-49.61208,-24.71827],[-49.61246,-24.71864],[-49.61279,-24.71966],[-49.61296,-24.72308],[-49.61522,-24.72291],[-49.61566,-24.72253],[-49.61682,-24.72215],[-49.6285,-24.72021],[-49.6318,-24.71938],[-49.63269,-24.72036],[-49.63356,-24.72014],[-49.63407,-24.7203],[-49.63456,-24.72008],[-49.63527,-24.72022],[-49.63568,-24.72002],[-49.63657,-24.71865],[-49.637,-24.719],[-49.63715,-24.71949],[-49.63768,-24.72008],[-49.6401,-24.71963],[-49.63817,-24.71581],[-49.6396,-24.71519],[-49.63635,-24.71091],[-49.63301,-24.70575],[-49.63225,-24.70593],[-49.63126,-24.70517],[-49.63018,-24.70402],[-49.62986,-24.70406],[-49.62992,-24.70283],[-49.62829,-24.70317],[-49.62751,-24.69962],[-49.62566,-24.69942],[-49.62479,-24.69879],[-49.6238,-24.6968],[-49.62328,-24.69513],[-49.62299,-24.69479],[-49.62233,-24.69432],[-49.62195,-24.69424],[-49.62057,-24.69442],[-49.61939,-24.69366],[-49.61934,-24.69342],[-49.61963,-24.69258],[-49.61941,-24.69209],[-49.62003,-24.69128],[-49.62005,-24.69053],[-49.61965,-24.68989],[-49.61888,-24.68943],[-49.61858,-24.6883],[-49.61815,-24.68756],[-49.61699,-24.68721],[-49.61698,-24.68678],[-49.61784,-24.68543],[-49.61747,-24.68464],[-49.61799,-24.68408],[-49.61743,-24.68326],[-49.61753,-24.68277],[-49.61734,-24.68212],[-49.61671,-24.68153],[-49.61623,-24.68082],[-49.61541,-24.68049],[-49.61438,-24.68032],[-49.61322,-24.68104],[-49.61285,-24.68092],[-49.61293,-24.68009],[-49.612,-24.67998],[-49.61056,-24.67885],[-49.61026,-24.67836],[-49.60998,-24.67697],[-49.60942,-24.67619],[-49.60939,-24.67591],[-49.60915,-24.67593],[-49.60867,-24.67564],[-49.60875,-24.67543],[-49.60862,-24.67535],[-49.60819,-24.67577],[-49.60799,-24.67565],[-49.6076,-24.67574],[-49.60725,-24.67529],[-49.60641,-24.67512],[-49.60603,-24.67522],[-49.60541,-24.67479],[-49.60495,-24.67475],[-49.60397,-24.67164],[-49.60223,-24.67352],[-49.59865,-24.67479],[-49.59676,-24.67573],[-49.59672,-24.67626],[-49.59527,-24.67626],[-49.59496,-24.67612],[-49.59484,-24.67534],[-49.59458,-24.67514],[-49.59336,-24.67538],[-49.59298,-24.675],[-49.59255,-24.67499],[-49.59154,-24.67426],[-49.58998,-24.67358],[-49.58892,-24.67267],[-49.58814,-24.67289],[-49.58828,-24.67255],[-49.58813,-24.67214],[-49.58731,-24.6712],[-49.58636,-24.67077],[-49.58608,-24.67159]]],[[[-49.67165,-24.68852],[-49.67028,-24.68827],[-49.66974,-24.68839],[-49.66688,-24.68974],[-49.6647,-24.68987],[-49.66302,-24.68963],[-49.65855,-24.69295],[-49.65759,-24.6932],[-49.656,-24.69436],[-49.65498,-24.69471],[-49.6546,-24.69511],[-49.65351,-24.69534],[-49.65266,-24.69573],[-49.65174,-24.69652],[-49.65072,-24.69693],[-49.66983,-24.69893],[-49.67409,-24.70143],[-49.68449,-24.6935],[-49.68313,-24.69334],[-49.68138,-24.6939],[-49.68014,-24.69324],[-49.67908,-24.69204],[-49.6789,-24.69159],[-49.6775,-24.69056],[-49.67694,-24.69073],[-49.67665,-24.69063],[-49.67611,-24.68989],[-49.67572,-24.68874],[-49.67431,-24.68714],[-49.67358,-24.68704],[-49.67306,-24.68799],[-49.67246,-24.6884],[-49.67165,-24.68852]]]]}},{"type":"Feature","properties":{"nome":"Água Morna","municipio":"","fase":"PORTARIA"},"geometry":{"type":"Polygon","coordinates":[[[-50.5959,-24.03222],[-50.59405,-24.03293],[-50.59203,-24.03264],[-50.59144,-24.03272],[-50.58996,-24.03314],[-50.58876,-24.0337],[-50.58802,-24.03358],[-50.58732,-24.03369],[-50.58326,-24.03482],[-50.58176,-24.0354],[-50.57827,-24.03794],[-50.57593,-24.0394],[-50.5755,-24.03985],[-50.57438,-24.04179],[-50.57435,-24.04224],[-50.5748,-24.04346],[-50.57553,-24.04449],[-50.57676,-24.04563],[-50.579,-24.04666],[-50.57933,-24.04776],[-50.57965,-24.04818],[-50.57958,-24.04908],[-50.58041,-24.0496],[-50.58044,-24.04984],[-50.58003,-24.05038],[-50.58013,-24.05088],[-50.58034,-24.05139],[-50.58105,-24.05201],[-50.58065,-24.05261],[-50.58101,-24.05312],[-50.58055,-24.05325],[-50.58047,-24.0535],[-50.58121,-24.05428],[-50.58126,-24.05481],[-50.58115,-24.05587],[-50.58076,-24.05678],[-50.58087,-24.05699],[-50.58158,-24.05698],[-50.5817,-24.05821],[-50.5822,-24.05876],[-50.58203,-24.05886],[-50.58198,-24.05917],[-50.58246,-24.05998],[-50.58216,-24.06092],[-50.58269,-24.06112],[-50.5828,-24.06236],[-50.58242,-24.06276],[-50.58244,-24.06295],[-50.58277,-24.0632],[-50.58255,-24.06401],[-50.58288,-24.06504],[-50.58276,-24.06552],[-50.58299,-24.06733],[-50.58335,-24.06723],[-50.58382,-24.06767],[-50.58316,-24.06832],[-50.58274,-24.07008],[-50.58289,-24.07179],[-50.58312,-24.07239],[-50.58354,-24.07267],[-50.5842,-24.07278],[-50.58456,-24.07234],[-50.58492,-24.07108],[-50.58546,-24.07102],[-50.58582,-24.07146],[-50.58575,-24.07295],[-50.58596,-24.07333],[-50.58674,-24.07366],[-50.58739,-24.07372],[-50.58817,-24.07416],[-50.58817,-24.0746],[-50.58781,-24.07493],[-50.58422,-24.07569],[-50.58311,-24.07662],[-50.58376,-24.07794],[-50.58561,-24.07872],[-50.58693,-24.0796],[-50.58785,-24.07949],[-50.5885,-24.07906],[-50.58906,-24.07845],[-50.59061,-24.07763],[-50.59139,-24.07697],[-50.59169,-24.07527],[-50.59221,-24.07434],[-50.59406,-24.0733],[-50.59478,-24.07258],[-50.59449,-24.07198],[-50.59443,-24.07138],[-50.59485,-24.07105],[-50.59536,-24.07138],[-50.59529,-24.07193],[-50.59571,-24.07204],[-50.59601,-24.07177],[-50.59614,-24.07012],[-50.59684,-24.06915],[-50.59842,-24.06776],[-50.59994,-24.06738],[-50.60084,-24.0681],[-50.60311,-24.06821],[-50.60335,-24.06867],[-50.60341,-24.06926],[-50.60313,-24.0714],[-50.60349,-24.0719],[-50.60403,-24.07157],[-50.60493,-24.06987],[-50.60566,-24.0675],[-50.60632,-24.06646],[-50.60672,-24.06627],[-50.60694,-24.06636],[-50.60736,-24.06578],[-50.60824,-24.0654],[-50.60831,-24.06368],[-50.60859,-24.06311],[-50.60762,-24.06266],[-50.60698,-24.0627],[-50.6066,-24.06295],[-50.60633,-24.06374],[-50.60606,-24.06374],[-50.60563,-24.06325],[-50.60568,-24.06286],[-50.60499,-24.06216],[-50.60502,-24.06085],[-50.60529,-24.06005],[-50.60517,-24.05891],[-50.60463,-24.05758],[-50.60463,-24.05658],[-50.6042,-24.05574],[-50.60447,-24.05525],[-50.60377,-24.05361],[-50.60267,-24.05163],[-50.60406,-24.04931],[-50.60535,-24.04777],[-50.60541,-24.04699],[-50.60575,-24.04633],[-50.60715,-24.04619],[-50.60902,-24.04556],[-50.60988,-24.04504],[-50.61159,-24.0435],[-50.61195,-24.04336],[-50.61313,-24.04325],[-50.61393,-24.04337],[-50.61334,-24.03472],[-50.61258,-24.03467],[-50.61253,-24.03408],[-50.60609,-24.03229],[-50.60407,-24.03136],[-50.60301,-24.03275],[-50.6025,-24.03041],[-50.5974,-24.02995],[-50.59523,-24.03119],[-50.59618,-24.03191],[-50.5959,-24.03222]]]}},{"type":"Feature","properties":{"nome":"Invernada Paiol de Telha","municipio":"","fase":"DECRETO"},"geometry":{"type":"Polygon","coordinates":[[[-51.9845,-25.75652],[-51.98407,-25.75785],[-51.98236,-25.75778],[-51.98092,-25.7572],[-51.97998,-25.75602],[-51.97948,-25.75633],[-51.9791,-25.75699],[-51.97884,-25.75716],[-51.97643,-25.75743],[-51.97565,-25.75781],[-51.97515,-25.75838],[-51.97463,-25.75868],[-51.97373,-25.7599],[-51.97371,-25.76048],[-51.97404,-25.76143],[-51.97363,-25.7621],[-51.97322,-25.76228],[-51.9724,-25.76232],[-51.97092,-25.76178],[-51.9704,-25.76248],[-51.96929,-25.76283],[-51.96907,-25.76343],[-51.96933,-25.76439],[-51.96921,-25.76485],[-51.96851,-25.76586],[-51.96713,-25.76642],[-51.96666,-25.7669],[-51.96638,-25.76745],[-51.96508,-25.76881],[-51.96482,-25.76984],[-51.96321,-25.77088],[-51.96249,-25.77096],[-51.96158,-25.77137],[-51.96124,-25.772],[-51.96011,-25.77258],[-51.95992,-25.77369],[-51.95996,-25.7747],[-51.95943,-25.77573],[-51.95873,-25.7762],[-51.95515,-25.77659],[-51.95404,-25.77687],[-51.9536,-25.77715],[-51.95331,-25.77835],[-51.9528,-25.77901],[-51.95195,-25.77952],[-51.95133,-25.78126],[-51.95039,-25.78225],[-51.94962,-25.78334],[-51.9487,-25.78517],[-51.94765,-25.78571],[-51.9468,-25.78674],[-51.94616,-25.78705],[-51.94589,-25.78743],[-51.94609,-25.78836],[-51.94558,-25.78897],[-51.94501,-25.79011],[-51.94422,-25.79091],[-51.94408,-25.79129],[-51.94348,-25.79173],[-51.94301,-25.79259],[-51.94031,-25.79357],[-51.93906,-25.79469],[-51.93838,-25.79557],[-51.93703,-25.79794],[-51.9391,-25.79812],[-51.94045,-25.79875],[-51.94173,-25.80085],[-51.94168,-25.80162],[-51.94205,-25.80185],[-51.94263,-25.80285],[-51.94387,-25.80353],[-51.94484,-25.80376],[-51.94556,-25.80436],[-51.94575,-25.8049],[-51.94657,-25.80571],[-51.94778,-25.80637],[-51.94936,-25.80648],[-51.95051,-25.80704],[-51.95121,-25.80713],[-51.95169,-25.80683],[-51.95219,-25.80604],[-51.95253,-25.80594],[-51.95327,-25.80618],[-51.95352,-25.80642],[-51.95359,-25.80739],[-51.95388,-25.80797],[-51.95537,-25.80795],[-51.95603,-25.80752],[-51.95669,-25.80677],[-51.95843,-25.80591],[-51.95915,-25.80513],[-51.95918,-25.80464],[-51.95948,-25.80464],[-51.95985,-25.80503],[-51.96025,-25.80495],[-51.96047,-25.80462],[-51.96068,-25.80356],[-51.96004,-25.80338],[-51.96004,-25.80315],[-51.96037,-25.80294],[-51.96105,-25.80198],[-51.96192,-25.8018],[-51.96261,-25.80096],[-51.96279,-25.80094],[-51.963,-25.80101],[-51.9632,-25.80187],[-51.96446,-25.8019],[-51.9652,-25.80248],[-51.96569,-25.80331],[-51.96593,-25.80438],[-51.96623,-25.80459],[-51.96632,-25.80518],[-51.967,-25.80549],[-51.96663,-25.80595],[-51.96672,-25.8062],[-51.96733,-25.80637],[-51.96839,-25.80602],[-51.96911,-25.80629],[-51.96925,-25.80647],[-51.96896,-25.80708],[-51.9691,-25.80732],[-51.9695,-25.807],[-51.97008,-25.80683],[-51.97038,-25.80648],[-51.97136,-25.80622],[-51.97198,-25.80661],[-51.97238,-25.80643],[-51.9727,-25.80648],[-51.97272,-25.80703],[-51.97294,-25.80723],[-51.97282,-25.80776],[-51.97334,-25.80788],[-51.97353,-25.8078],[-51.97365,-25.80734],[-51.97433,-25.80718],[-51.97456,-25.80686],[-51.97482,-25.807],[-51.97526,-25.80684],[-51.9756,-25.80631],[-51.97613,-25.80635],[-51.97647,-25.80567],[-51.97663,-25.80571],[-51.97675,-25.80619],[-51.97697,-25.80627],[-51.97911,-25.80618],[-51.98103,-25.80664],[-51.98263,-25.8057],[-51.98334,-25.80567],[-51.98446,-25.80617],[-51.98409,-25.80659],[-51.98385,-25.80809],[-51.98408,-25.80835],[-51.98489,-25.80854],[-51.98515,-25.80877],[-51.98536,-25.81013],[-51.98617,-25.81044],[-51.98714,-25.81031],[-51.9874,-25.81016],[-51.98725,-25.80973],[-51.98737,-25.8093],[-51.98819,-25.80941],[-51.98903,-25.81025],[-51.98939,-25.81087],[-51.98956,-25.81167],[-51.98994,-25.81188],[-51.99075,-25.81131],[-51.99129,-25.80996],[-51.99203,-25.80908],[-51.99262,-25.80787],[-51.99259,-25.80772],[-51.99185,-25.80754],[-51.99018,-25.80765],[-51.99008,-25.80743],[-51.99037,-25.8058],[-51.99159,-25.80553],[-51.99226,-25.80479],[-51.99188,-25.80414],[-51.99123,-25.80212],[-51.99078,-25.79993],[-51.99102,-25.79919],[-51.99175,-25.79845],[-51.99282,-25.79813],[-51.99425,-25.79824],[-51.99511,-25.79791],[-51.99683,-25.79761],[-51.99996,-25.79811],[-52.00058,-25.79774],[-52.00121,-25.79665],[-52.00286,-25.79522],[-52.00398,-25.79481],[-52.00442,-25.79485],[-52.007,-25.79604],[-52.00827,-25.79678],[-52.00898,-25.79689],[-52.00923,-25.79674],[-52.00943,-25.79586],[-52.01043,-25.79462],[-52.01096,-25.79363],[-52.0109,-25.793],[-52.01071,-25.79269],[-52.00982,-25.79222],[-52.00841,-25.7901],[-52.008,-25.78973],[-52.00712,-25.78954],[-52.0052,-25.78854],[-52.00198,-25.78743],[-52.00158,-25.78615],[-52.00165,-25.78586],[-52.00207,-25.78509],[-52.00359,-25.78318],[-52.00429,-25.783],[-52.00506,-25.78328],[-52.00608,-25.78336],[-52.00722,-25.78326],[-52.00774,-25.78299],[-52.00775,-25.78208],[-52.00718,-25.77939],[-52.00729,-25.77859],[-52.00753,-25.77838],[-52.01063,-25.77826],[-52.01154,-25.77806],[-52.01189,-25.77778],[-52.01221,-25.77698],[-52.01218,-25.77656],[-52.01171,-25.77479],[-52.01122,-25.77398],[-52.01041,-25.7735],[-52.01016,-25.77299],[-52.0123,-25.77119],[-52.0144,-25.76881],[-52.0152,-25.76862],[-52.01554,-25.76882],[-52.01694,-25.77041],[-52.01761,-25.77078],[-52.01906,-25.77094],[-52.02006,-25.77083],[-52.02016,-25.77017],[-52.0198,-25.76887],[-52.01925,-25.76834],[-52.01862,-25.76824],[-52.01828,-25.76799],[-52.01795,-25.76756],[-52.01787,-25.76707],[-52.01808,-25.76647],[-52.01973,-25.76452],[-52.02101,-25.76146],[-52.02133,-25.7603],[-52.02208,-25.75929],[-52.02059,-25.75944],[-52.01956,-25.7591],[-52.01819,-25.75789],[-52.01753,-25.75642],[-52.01619,-25.75706],[-52.01521,-25.7573],[-52.01286,-25.75729],[-52.0091,-25.75863],[-52.00544,-25.75919],[-52.00371,-25.75968],[-52.00166,-25.76051],[-52.00053,-25.76073],[-51.99896,-25.76048],[-51.99794,-25.7595],[-51.99697,-25.75682],[-51.99547,-25.75608],[-51.99386,-25.75607],[-51.99247,-25.7566],[-51.99097,-25.75653],[-51.99058,-25.75506],[-51.99042,-25.75347],[-51.98891,-25.75294],[-51.98736,-25.75352],[-51.98466,-25.75516],[-51.9845,-25.75652]]]}},{"type":"Feature","properties":{"nome":"João Surá","municipio":"","fase":"PORTARIA"},"geometry":{"type":"Polygon","coordinates":[[[-48.68967,-24.66787],[-48.68781,-24.6695],[-48.68468,-24.67089],[-48.67872,-24.67089],[-48.67697,-24.67161],[-48.67622,-24.67342],[-48.67689,-24.67537],[-48.67432,-24.67767],[-48.67147,-24.6793],[-48.67237,-24.68097],[-48.67445,-24.68284],[-48.67495,-24.68405],[-48.67237,-24.686],[-48.67211,-24.68731],[-48.67281,-24.68885],[-48.6763,-24.69139],[-48.67706,-24.69253],[-48.67634,-24.69395],[-48.67364,-24.69659],[-48.67189,-24.69731],[-48.67151,-24.69867],[-48.67314,-24.69881],[-48.67609,-24.69776],[-48.6772,-24.69841],[-48.67501,-24.70179],[-48.67128,-24.70347],[-48.66987,-24.7031],[-48.66851,-24.70337],[-48.66748,-24.70455],[-48.66445,-24.70654],[-48.66049,-24.70676],[-48.65935,-24.70598],[-48.66117,-24.70414],[-48.66081,-24.69914],[-48.65778,-24.69431],[-48.65848,-24.69326],[-48.65817,-24.69205],[-48.65498,-24.69091],[-48.64506,-24.6899],[-48.64337,-24.68912],[-48.64164,-24.68967],[-48.64075,-24.68803],[-48.64109,-24.6865],[-48.64478,-24.68306],[-48.64531,-24.68153],[-48.64422,-24.68094],[-48.64284,-24.68102],[-48.64106,-24.68011],[-48.64006,-24.67886],[-48.63781,-24.67767],[-48.63353,-24.67776],[-48.63225,-24.67698],[-48.63106,-24.6773],[-48.63157,-24.67866],[-48.63081,-24.67983],[-48.62962,-24.68046],[-48.62817,-24.68051],[-48.62512,-24.67887],[-48.62131,-24.67407],[-48.61845,-24.67216],[-48.61662,-24.66867],[-48.61536,-24.6684],[-48.61326,-24.67053],[-48.61145,-24.67088],[-48.60731,-24.66857],[-48.60403,-24.6683],[-48.60117,-24.6691],[-48.59884,-24.67082],[-48.59709,-24.67145],[-48.59337,-24.67429],[-48.59089,-24.67687],[-48.59053,-24.6799],[-48.58925,-24.68053],[-48.58781,-24.6798],[-48.58653,-24.67858],[-48.58557,-24.67649],[-48.58467,-24.67179],[-48.58348,-24.67102],[-48.58203,-24.6707],[-48.58075,-24.67157],[-48.58003,-24.68002],[-48.57894,-24.68273],[-48.57897,-24.68352],[-48.59901,-24.68576],[-48.60614,-24.70118],[-48.61454,-24.69957],[-48.61578,-24.69844],[-48.61683,-24.69907],[-48.62227,-24.69843],[-48.6198,-24.70307],[-48.61871,-24.71059],[-48.61905,-24.71212],[-48.61992,-24.71273],[-48.62121,-24.71331],[-48.62383,-24.71363],[-48.62567,-24.71441],[-48.62694,-24.71377],[-48.62766,-24.71376],[-48.62852,-24.71407],[-48.62984,-24.71404],[-48.63038,-24.71372],[-48.63196,-24.7132],[-48.63221,-24.71363],[-48.6322,-24.71451],[-48.63288,-24.71504],[-48.63327,-24.71565],[-48.63317,-24.71605],[-48.63203,-24.71742],[-48.63196,-24.71793],[-48.63244,-24.71835],[-48.6336,-24.71797],[-48.63379,-24.71832],[-48.63287,-24.7193],[-48.63282,-24.71971],[-48.63322,-24.72038],[-48.63418,-24.72082],[-48.63415,-24.72108],[-48.63289,-24.72108],[-48.63225,-24.72137],[-48.63228,-24.72341],[-48.63192,-24.72394],[-48.63103,-24.72441],[-48.63064,-24.72556],[-48.63082,-24.72645],[-48.63047,-24.72719],[-48.6292,-24.72832],[-48.62676,-24.72877],[-48.62437,-24.73056],[-48.62279,-24.73058],[-48.62087,-24.73149],[-48.62159,-24.73285],[-48.623,-24.73335],[-48.62341,-24.73399],[-48.62359,-24.7365],[-48.6234,-24.73736],[-48.62388,-24.73822],[-48.62135,-24.73909],[-48.62006,-24.74055],[-48.61984,-24.74103],[-48.61999,-24.74209],[-48.6198,-24.74429],[-48.62017,-24.74452],[-48.62199,-24.74397],[-48.62239,-24.74401],[-48.62412,-24.74539],[-48.6256,-24.74688],[-48.62589,-24.74803],[-48.62646,-24.74895],[-48.62627,-24.7497],[-48.62689,-24.74978],[-48.62763,-24.75046],[-48.62916,-24.75114],[-48.63084,-24.75158],[-48.63418,-24.75165],[-48.63484,-24.75211],[-48.63563,-24.75212],[-48.63623,-24.7525],[-48.63716,-24.75225],[-48.63765,-24.75262],[-48.63932,-24.75261],[-48.64121,-24.7529],[-48.64149,-24.75282],[-48.64174,-24.75247],[-48.64429,-24.7522],[-48.64614,-24.75343],[-48.64772,-24.75395],[-48.64931,-24.75509],[-48.64997,-24.75639],[-48.65051,-24.75707],[-48.65032,-24.75821],[-48.65049,-24.75877],[-48.65006,-24.75939],[-48.65034,-24.75981],[-48.6509,-24.76013],[-48.65188,-24.75949],[-48.65734,-24.75886],[-48.66001,-24.75929],[-48.67452,-24.76014],[-48.67893,-24.75923],[-48.68201,-24.75648],[-48.68345,-24.75463],[-48.6926,-24.73663],[-48.69533,-24.73708],[-48.70222,-24.73532],[-48.70914,-24.73046],[-48.70856,-24.72453],[-48.70796,-24.72186],[-48.70664,-24.72097],[-48.7044,-24.71872],[-48.70008,-24.71504],[-48.69751,-24.71394],[-48.69667,-24.71197],[-48.69619,-24.70888],[-48.69491,-24.70717],[-48.69277,-24.70499],[-48.68909,-24.70291],[-48.68793,-24.70206],[-48.68592,-24.69539],[-48.68989,-24.69385],[-48.68884,-24.69254],[-48.6887,-24.69072],[-48.68908,-24.6891],[-48.6904,-24.68656],[-48.69084,-24.68398],[-48.69031,-24.68258],[-48.68862,-24.68036],[-48.68828,-24.67746],[-48.69347,-24.67345],[-48.69403,-24.672],[-48.69409,-24.67068],[-48.69348,-24.6695],[-48.69251,-24.66878],[-48.69131,-24.66819],[-48.68967,-24.66787]]]}}]}