{"type":"FeatureCollection","features":[{"type":"Feature","properties":{"rota":"Rota do Queijo Paranaense","nome":"Queijaria Cornelia - Arapoti - PR","descricao":"Queijos: Tipo Gouda (natural, com cominho, com ervas italianas, com fenogrego, com ortiga).\nRegistro: SIM 0013/21\nExperiências turísticas:\n- Visita guiada à propriedade e à queijaria;\n- Café rural (somente com agendamento);\n- Storytelling com os proprietários;\n- Degustação;\n- Venda de queijos.\n\nContato e horários de funcionamento:\nGezina (43) 98817-0172\nAGENDE SUA VISITA"},"geometry":{"type":"Point","coordinates":[-49.77176,-24.197191]}},{"type":"Feature","properties":{"rota":"Rota do Queijo Paranaense","nome":"Dutch Lady - Carambeí - PR","descricao":"Queijos: Gouda, Cremagge (autoral), Frescal, Ricota e Coalho.                                                          Registro: SIM 01-L\n\nExperiências turísticas:\n- Degustação dos queijos no Parque das Águas, explorando a explosão de sabores em cada maturação de queijo gouda e dos queijos frescos, todos produzidos artesanalmente;\n- História e tradição holandesa na fabricação dos queijos.\n- Venda de queijos.\n\nContato e horários de funcionamento:\nFabiane (42) 99147-5377\nAGENDE SUA VISITA"},"geometry":{"type":"Point","coordinates":[-50.127952,-24.995893]}},{"type":"Feature","properties":{"rota":"Rota do Queijo Paranaense","nome":"Het Dorp - Carambeí - PR","descricao":"Queijos: Gouda, Quark, Frescal, Gouda com lavanda, Gouda com ervas, Gouda com bacon, Gouda picante, e Queijo Autoral.                               Registro: SIM L02\nExperiências turísticas:\n- Vitrine para acompanhar o processamento dos queijos;\n- Visita guiada ao vilarejo com arquitetura holandesa e os deslumbrantes campos de lavandas;\n- Piquenique nos campos de lavandas;\n- Degustação e venda de queijos.\nContato e horários de funcionamento:\ndas 14h às 17h (terça a domingo) ou por agendamento - Paulo (42) 98870-3715;\ne-mail: pauloricardolos@yahoo.com.br"},"geometry":{"type":"Point","coordinates":[-50.138688,-24.891188]}},{"type":"Feature","properties":{"rota":"Rota do Queijo Paranaense","nome":"Queijaria Irmão Queijeiro - Chopinzinho","descricao":"Queijos: Colonial, Colonial Amanteigado, Doce de Leite e Iogurte.                                                             Registro: SIM 011\n\nExperiências turísticas ofertadas:\nVisita guiada à propriedade e à agroindústria;\nDegustação e venda de queijos;\nTurismo pedagógico;\nJantar rural com degustação de queijos premiados, pizza Irmão Queijeiro, saladas e vinhos coloniais produzidos na região;\nEm breve, pousada rural.\n\nContato e horários de funcionamento:\nFone: (46)999336942 (46) 999373425\nAGENDE SUA VISITA"},"geometry":{"type":"Point","coordinates":[-52.606731,-25.836633]}},{"type":"Feature","properties":{"rota":"Rota do Queijo Paranaense","nome":"Queijaria São Bento - Chopinzinho - PR","descricao":"Queijos: Colonial, Coalho, Mussarela e Tipo Parmesão.                                                                     Registro: SIM 04\n\nExperiências turísticas:\n- Visita guiada à propriedade e à agroindústria;\n- Degustação e venda de queijos;\n- Espaço específico para exposição e venda de produtos coloniais;\n- Turismo pedagógico;\n- Jantar rural (com agendamento).\n\nContato e horários de funcionamento:\nClaudemir (46) 99934-3483\nAGENDE SUA VISITA"},"geometry":{"type":"Point","coordinates":[-52.32873,-25.850872]}},{"type":"Feature","properties":{"rota":"Rota do Queijo Paranaense","nome":"Arteijo Queijos Artesanais - Cianorte - PR","descricao":"Queijos: Campeiro (meia cura, curado, com ervas, com pimenta calabresa), Frescal (natural, rechado com goiabada, recheado com doce de leite), Ricota temperada, Coalho, Mussarela (barra, nozinho, trança maturada no vinho), Cabaça, Tipo Reino, Parmesão e Queijos Finos.\nRegistro: SIM 021\nExperiências turísticas:\n- Receptivo ao turista com degustação de queijos finos, geleias e doces de leite acompanhada de café passado na hora;\n- Storytelling com os proprietários Raquel e Ronaldo;\n- Contemplação da paisagem;\n- Café e restaurante rural;\n- Redário e local para leitura;\n- Colônia de férias;\n- Turismo pedagógico;\n- Passeio a cavalo;\n- Ordenha educativa;\n- Locação para eventos;\n- Loja de vendas de queijos, geleias, bebidas, kits para presentear e artesanatos.\n\nContato e horários de funcionamento:\n(44) 99124-4800\nAGENDE SUA VISITA"},"geometry":{"type":"Point","coordinates":[-52.58627,-23.61584]}},{"type":"Feature","properties":{"rota":"Rota do Queijo Paranaense","nome":"Produtos Eliane - Dois Vizinhos - PR","descricao":"Queijos: Colonial, Queijo Temperado, Ricota, Manteiga.                                                                       Registro: SUSAF 004\n\nExperiências turísticas:\n- Visita guiada às instalações de produção do queijo colonial;\n- Storytelling com os proprietários;\n- Acompanhamento à produção de queijos;\n- Degustação e venda de queijos; café rural.\n\nContato e horários de funcionamento:\nEliane (46) 99982-5264\nAGENDE SUA VISITA"},"geometry":{"type":"Point","coordinates":[-53.185085,-25.716276]}},{"type":"Feature","properties":{"rota":"Rota do Queijo Paranaense","nome":"Queijaria Vidalat - Fco Beltrão - PR","descricao":"Queijos:\nColonial Tradicional, Colonial Temperado ao Vinho, Colonial Maturado.\nO queijo colonial produzido na propriedade é o primeiro do Brasil com selo verde neutro em carbono.                                                                         Registro: SUSAF 011\nExperiências turísticas:\n- Visita guiada à propriedade e à agroindústria;\n- Degustação e venda de queijos;\n- O visitante pode conhecer a história da propriedade, o modo de produção, assim como a preservação e integração com a natureza.\n\nContato e horários de funcionamento:\nRecebe grupos de 5 a 20 pessoas de quinta a sábado, com duração média de duas horas.\nMarildo e Roseli (46) 99927-7393\nAGENDE SUA VISITA"},"geometry":{"type":"Point","coordinates":[-53.130472,-26.116037]}},{"type":"Feature","properties":{"rota":"Rota do Queijo Paranaense","nome":"Agroindústria Brandalise - Guaraniaçu - PR","descricao":"Queijos:\nColonial, com ervas finas e ao vinho.\nRegistro: SIM 040\nExperiências turísticas:\n- Visita guiada à propriedade;\n- Café rural;\n- Degustação e venda de queijos.\n\nContato e horários de funcionamento:\nValéria (45) 99921-2070\nAGENDE SUA VISITA"},"geometry":{"type":"Point","coordinates":[-52.963496,-25.096352]}},{"type":"Feature","properties":{"rota":"Rota do Queijo Paranaense","nome":"Queijos Martinazzo - Itapejara do Oeste - PR","descricao":"Queijos: Colonial, temperado e curado ao vinho.\nRegistro: SUSAF 002\nExperiências turísticas:\n- Visita guiada à propriedade e na agroindústria;\n- Degustação e venda de queijos.\n\nContato e horários de funcionamento:\nClaudemir e Rozeli (46) 99978-7059\nAGENDE SUA VISITA"},"geometry":{"type":"Point","coordinates":[-52.83197,-25.954093]}},{"type":"Feature","properties":{"rota":"Rota do Queijo Paranaense","nome":"Estância Baobá - Jaguapitã - PR","descricao":"Queijos: Frescal de vaca e ovelha, Maturados de vaca e ovelha, Requeijão Cremoso, Requeijão de Corte, Coalhada Seca com Zattar, Borsins, St. Marcellin, Brie, Gorgonzola e Roquefort.\nRegistro: SIM 005                                                                                                                                                Experiências turísticas:\n- Visita guiada pela propriedade e na agroindústria;\n- Turismo pedagógico com temáticas sobre o manejo agroecológico do solo e os demais processos até chegar na fabricação do queijo;\n- Turismo de experiência: vivências na ordenha do leite e na fabricação do queijo;\n- Degustação e venda de queijos e doces de leite.\n\nContato e horários de funcionamento:\nLívia (43) 99190-3278\nAGENDE SUA VISITA"},"geometry":{"type":"Point","coordinates":[-51.475779,-23.112441]}},{"type":"Feature","properties":{"rota":"Rota do Queijo Paranaense","nome":"Queijaria Deleite - Londrina - PR","descricao":"Queijos: Parmesão, Frescal, Queijo Fresco, Cremoso, Meia Cura, Coalhada, Coalhada Seca, Doce de Leite, Doce de Leite com Café.\nRegistro: SIM 611\nExperiências turísticas:\n- Visita guiada na área da ordenha e sala de espera (conforto animal);\n- Visita guiada na queijaria;\n- Storytelling com os proprietários Márcia e Valdeir;\n- Degustação e venda de queijos e doces de leite.\n\nContato e horários de funcionamento:\nValdeir (43) 99991-2936\nAGENDE SUA VISITA"},"geometry":{"type":"Point","coordinates":[-51.158537,-23.232991]}},{"type":"Feature","properties":{"rota":"Rota do Queijo Paranaense","nome":"Queijos Venetto - Marmeleiro - PR","descricao":"Queijos: Queijo Parmesão, Tipo Asiago, Tipo Gouda, Colonial Zero Lactose, Prato Cobocó, Curado ao Vinho, Queijo Colonial, Colonial com orégano e Colonial condimentado com tomate seco e orégano.\nRegistro: SIM / SISBI 005\nExperiências turísticas:\n- Degustação guiada (previamente agendada);\n- Venda de queijos finos.\n\nContato e horários de funcionamento:\nDe segunda a sexta, das 8h30 às 12h e das 13h às 18:30h; sábados das 8h30 às 15h.\nFone (46) 93505-1860"},"geometry":{"type":"Point","coordinates":[-52.994244,-26.145247]}},{"type":"Feature","properties":{"rota":"Rota do Queijo Paranaense","nome":"Queijos Serra dos Macacos - Nova Laranjeiras - PR","descricao":"Queijos: Colonial (natural, maturado e temperado).\nRegistro: SIM 010\nExperiências turísticas:\n- Visita guiada à propriedade;\n- Café rural;\n- Degustação e venda de queijos.\n\nContato e horários de funcionamento:\nOzana (44) 99145-2285\nAGENDE SUA VISITA"},"geometry":{"type":"Point","coordinates":[-52.448861,-25.296681]}},{"type":"Feature","properties":{"rota":"Rota do Queijo Paranaense","nome":"Queijaria Família Baptista - Palmeira - PR","descricao":"Queijos: Purungo, Nozinho, Trançado, Queijo Colonial, Queijos Maturados, Requeijão, Manteiga.\nRegistro: SIM 004\nExperiências turísticas:\n- Turismo de experiência: vivênciar a produção do queijo purungo;\n- Café rural; redário; contemplação da paisagem;\n- Degustação e venda de queijos.\n\nContato e horários de funcionamento:\nCarolina (42) 99906-3829\nAtendimento somente com agendamento.\nAGENDE SUA VISITA"},"geometry":{"type":"Point","coordinates":[-50.007711,-25.415427]}},{"type":"Feature","properties":{"rota":"Rota do Queijo Paranaense","nome":"Cooperativa Agroindustrial Witmarsum - Palmeira - PR","descricao":"Queijos: Ricota fresca, Minas Frescal, tipo Camembert, tipo Brie, Witmarsum Colonial (natural, pimenta verde), tipo Asiago, tipo Gouda, tipo Raclette, tipo Appenzeller, tipo Emmental, tipo Emmental Extra (longa maturação) e Mistura de Queijos para Fondue.                            Registro: SIF 1434\n\nExperiências turísticas:\n- O turista que visita a loja tem acesso a toda linha de queijos finos produzidos pela Cooperativa Witmarsum, além dos produtos locais e típicos da cultura germânica.\n- É possível adquirir a “Experiência Sensorial em Queijos Finos”, a atração que conta a história da cooperativa com uma breve oficina de degustação e harmonização dos queijos Witmarsum. O evento acontece uma vez ao mês (sábado), com vagas limitadas e com agendamento prévio.\n\nContato e horários de funcionamento:\nPara informações e reservas, escreva para comunicacao@witmarsum.coop.br"},"geometry":{"type":"Point","coordinates":[-49.821566,-25.423069]}},{"type":"Feature","properties":{"rota":"Rota do Queijo Paranaense","nome":"Queijos Artesanais São Bento - Pinhal de São Bento - PR","descricao":"Queijos: Colonial, Coalho, Provolone e Mussarela.                Registro: SIM 001\nExperiências turísticas:\n- Visita guiada à propriedade e à agroindústria de queijos;\n- Degustação e venda dos queijos: Mussarela, Colonial, Provolone, Coalho, Maturados, temperados, ao Vinho, Frescal, Frescal Trufado, especiais de época, Ricota, Nata e Manteiga.\n\nContato e horários de funcionamento:\nAtendimento a grupos de 4 a 8 pessoas de quinta a sábado.\nContato: WhatsApp (46) 99936-8058.\nInstagram: @saobentoqueijos\nFacebook: São Bento Queijos Artesanais\nAGENDE SUA VISITA"},"geometry":{"type":"Point","coordinates":[-53.510203,-26.036462]}},{"type":"Feature","properties":{"rota":"Rota do Queijo Paranaense","nome":"Produtos da Angelita - Pinhão - PR","descricao":"Queijos: Colonial Meia Cura, tipo Ouro, defumado, temperado e ao Vinho.\nRegistro: SIM 010\nExperiências turísticas:\n- Visita guiada à produção de leite (bem estar animal) e à agroindústria;\n- Café rural;\n- Degustação e vendas de queijos.\n\nContato e horários de funcionamento:\nAngelita (42) 99908-4154\nAGENDE SUA VISITA"},"geometry":{"type":"Point","coordinates":[-51.606359,-25.836779]}},{"type":"Feature","properties":{"rota":"Rota do Queijo Paranaense","nome":"Queijaria Bella Vista - Ribeirão Claro - PR","descricao":"Queijos: Zeca (meia cura); Cura JR (60 dias de maturação); Cura (120 dias de maturação); Sr Cura (240 dias de maturação).                                Registro: SIM 002\n\nExperiências turísticas:\n- Visita guiada à propriedade;\n- Degustação e venda de queijos.\n\nContato e horários de funcionamento:\nLuiz Henrique (14) 99762-1498\nE-mail: lhpedroso@hotmail.com\nAGENDE SUA VISITA"},"geometry":{"type":"Point","coordinates":[-49.829938,-23.329209]}},{"type":"Feature","properties":{"rota":"Rota do Queijo Paranaense","nome":"Laticínio Salgado Filho - Salgado Filho - PR","descricao":"Queijos: Colonial, Colonial Temperado, Queijo Colonial Envelhecido ao Vinho.                                 Registro: SIM / SISBI 009\n\nExperiências turísticas:\n- Visita guiada à queijaria com degustação e venda dos queijos: colonial, colonial temperado e colonial envelhecido ao vinho.\n\nContato e horários de funcionamento:\nAtendimento a grupos de 4 a 10 pessoas de quinta a sábado; a visita tem duração aproximada de duas horas;\nWhatsApp (46) 99988-9491\nAGENDE SUA VISITA"},"geometry":{"type":"Point","coordinates":[-53.385583,-26.162083]}},{"type":"Feature","properties":{"rota":"Rota do Queijo Paranaense","nome":"Queijos Bach - Santa Izabel do Oeste - PR","descricao":"Queijos: Colonial, Colonial Temperado, Queijo Prato, Ricota.                                                                 Registro: SIM 001\nExperiências turísticas:\n- Turismo de experiência: alimentação para os bezerros e assistir a ordenha;\n- Degustação e venda dos queijos: colonial, colonial temperado, queijo prato, ricota e o queijo amanteigado de leite cru maturado.\nContato e horários de funcionamento:\nRecebe grupos de 4 a 10 pessoas, de quinta a sábado; visita com duração aproximada de 2 horas.\nwhatsApp (46) 99920-9224\nAGENDE SUA VISITA"},"geometry":{"type":"Point","coordinates":[-53.359367,-25.905552]}},{"type":"Feature","properties":{"rota":"Rota do Queijo Paranaense","nome":"Queijaria Due Sorelle - Santo Antônio do Sudoeste - PR","descricao":"Queijos: Queijo Colonial, queijo tipo Provolone, Ricota e Doce de Leite.                                              Registro: SIM 010\nExperiências turísticas:\n- Visita guiada à propriedade e à agroindústria;\n- Café rural com produtos da propriedade;\n- Piquenique;\n- Trilha ecológica;\n- Degustação e venda de queijos.\nContato e horários de funcionamento:\nRecebe grupos de 2 a 10 pessoas\nWhatsApp (46) 99973-9363\nAGENDE SUA VISITA"},"geometry":{"type":"Point","coordinates":[-53.581317,-26.071962]}},{"type":"Feature","properties":{"rota":"Rota do Queijo Paranaense","nome":"Queijos Marangon - Saudade do Iguaçu - PR","descricao":"Queijos: Colonial, Queijos Temperados e Queijo Coalho.\nRegistro: SIM 007\nExperiências turísticas:\n- Visita guiada à propriedade e à agroindústria;\n- Turismo pedagógico;\n- Degustação e venda de queijos.\n\nContato e horários de funcionamento:\nAngela (46) 99900-9778\nE-mail: queijosmarangon@gmail.com\nAGENDE SUA VISITA"},"geometry":{"type":"Point","coordinates":[-52.634079,-25.683176]}},{"type":"Feature","properties":{"rota":"Rota do Queijo Paranaense","nome":"Fazenda Magedanz - Sulina - PR","descricao":"Queijos: Colonial, Queijo Coalho, Queijo Temperado, Queijo ao Vinho.                                    Registro: SIM/SUSAF 070\n\nExperiências turísticas:\n- Visita guiada à propriedade e à agroindústria;\n- Turismo pedagógico;\n- Turismo de experiência;\n- Hospedagem rural;\n- Café rural;\n- Degustação e venda de queijos.\n\nContato e horários de funcionamento:\nValmor (46) 99918-6103\nAGENDE SUA VISITA"},"geometry":{"type":"Point","coordinates":[-52.765213,-25.639995]}},{"type":"Feature","properties":{"rota":"Rota do Queijo Paranaense","nome":"Átani Queijos - Toledo - PR","descricao":"Queijos: Morbier, Saint Paulin, Nonna Lúcia e Donna Rossi.                                                                Registro: SIM 56 - L\n\nExperiências turísticas:\n- Visualização externa do processo de fabricação dos queijos; imersão na história da queijaria através de pinturas e poemas caprichosamente feitas nas paredes;\n- Degustação de 4 tipos de queijos (sendo 2 queijos autorais de receitas herdadas dos antepassados);\nTrilha ecológica;\nRefeições (com agendamento);\nVenda de queijos.\n\nContato e horários de funcionamento:\nVisitas individuais: segunda a sábado, das 9h às 19h.\nGrupos somente com agendamento.\nContato: Cirlei (45) 99832-8886\nE-mail: cirleirossi@gmail.com\nAGENDE SUA VISITA"},"geometry":{"type":"Point","coordinates":[-53.776967,-24.566661]}},{"type":"Feature","properties":{"rota":"Rota do Queijo Paranaense","nome":"Queijaria Vila Belli - Toledo - PR","descricao":"Queijo: Colonial.                                                            Registro: SIM 46 - L\n\nExperiências turísticas:\n- Visita guiada à propriedade e à agroindústria, apresentando a longa trajetória da produtora na fabricação de queijos;                                                - O visitante é recebido com degustação de queijo colonial e do queijo fino Tomme Negro D'Oeste, Medalha de Prata no Mundial do Queijo/Brasil em 2022 e Medalha de Bronze no Premio Queijo Brasil em 2023;\n- Degustação e venda de queijos.\n\nContato e horários de funcionamento:\nGelir (45) 99917-9644\nE-mail: gelir.maria.giombelli@gmail.com\nAGENDE SUA VISITA"},"geometry":{"type":"Point","coordinates":[-53.75375,-24.796825]}},{"type":"Feature","properties":{"rota":"Rota do Queijo Paranaense","nome":"Flor da Terra - Queijos Finos - Toledo - PR","descricao":"Queijos: Brie, Brie Duplo Creme, Camembert, Saint-Marcellin, Tomme Vaudoise, Neufchâtel, Cheddar, Creme de Brie e Creme de Cheddar.         Registro: SUSAF 58L\nExperiências turísticas:\n- Visita guiada pelo Parque Tecnológico do Paraná – Biopark;\n- Degustação de queijos finos;\n- Eventos para grupos de negócios (com agendamento).\nContato e horários de funcionamento:\nA queijaria recebe visitantes de forma individual ou coletiva de segunda à sexta–feira, das 8h às 17h30, e aos sábados, das 9h30 às 13h.\nContato: (45) 99155-2520\nE-mail: queijaria@biopark.com.br"},"geometry":{"type":"Point","coordinates":[-53.717649,-24.62457]}},{"type":"Feature","properties":{"rota":"Rota do Queijo Paranaense","nome":"Rancho Zulian","descricao":"Queijos:\nQueijo colonial e frescal.\n\nExperiências turísticas:\nVisita guiada à propriedade;\nDegustação e venda de queijos;\nVivência rural sobre o processo\nprodutivo;\nCafé e almoço rural."},"geometry":{"type":"Point","coordinates":[-51.444635,-24.285913]}},{"type":"Feature","properties":{"rota":"Rota do Queijo Paranaense","nome":"QUEIJARIA SÍTIO DELLA PASQUA","descricao":"Tipos de queijos produzidos: QUEIJO COLONIAL, QUEIJO DE COALHO, QUEIJO DE COALHO CONDIMENTADO, QUEIJO MATURADO JACK JOSS.\nExperiências turísticas (visita guiada\npelas instalações, aula sobre fabricação de queijos, degustação de queijos, ordenha,\ntrilhas, etc.) e/ou serviços (café rural, almoço rural, hospedagem, etc.) que oferece, ou irá oferecer, aos visitantes & horários, métodos e capacidade de atendimento\n\nVISITA GUIADA A TRILHA EM DIREÇÃO A DUAS CACHOEIRAS, CAFÉ RURAL, ALMOÇO RURAL ( A COMBINAR) DEGUSTAÇÃO DE QUEIJOS, GELÉIAS E DOCE DE LEITE."},"geometry":{"type":"Point","coordinates":[-53.733106,-24.61022]}},{"type":"Feature","properties":{"rota":"Rota da Uva e do Vinho","nome":"Vinicola Legado","descricao":"Município:\nCampo Largo\n\nProdutos comercializados:\nUva, Vinhos, Sucos de uva, Souvenirs/artesanato, Derivados de uva e vinho (geléias, sucos, grapa, licores, entre outros).\n\nQual a experiência turística que vai ofertar?\nVindima, Degustação de vinhos, Serviços de alimentação, Eventos, Experiências pedagógicas\n\nTelefone: (41) 9 9199-9744\n@vinicolalegado\nhttps://www.instagram.com/vinicolalegado/\nSite: https://vinicolalegado.com.br/"},"geometry":{"type":"Point","coordinates":[-49.496791,-25.402956]}},{"type":"Feature","properties":{"rota":"Rota da Uva e do Vinho","nome":"Vinícola Socreppa","descricao":"Município:\nPiên\n\nProdutos comercializados:\nUva, Vinhos, Sucos de uva, Derivados de uva e vinho (geléias, sucos, grapa, licores, entre outros).\n\nQual a experiência turística que vai ofertar?\nColha e pague, Piqueniques, Vindima, Degustação de vinhos, Serviços de alimentação, Eventos, Meios de hospedagem.\n\nTelefone: 47996067225\n@vinicolasocreppa\nhttps://www.instagram.com/vinicolasocreppa/\nE-mail: socreppakeven@gmail.com  vinicolasocreppa@gmail.com\n\n🍷 Nossa Experiência Atual\nAtualmente, já recebemos visitantes para viverem o turismo rural em nossa propriedade com um atendimento acolhedor e autêntico:\n\nRecepção na Adega: Uma imersão na nossa produção de vinhos, onde acolhemos os visitantes.\n\nVenda de Frutas: Comercialização de frutas frescas, direto do produtor para a sua casa.\n\n🚀 Em breve:\nEstamos expandindo para receber você ainda melhor! Preparamos grandes novidades com inauguração prevista para meados de 2025:\n\nNova Loja e Receptivo: Uma estrutura moderna e confortável para melhor atender nossos turistas.\n\nEspaço Gastronômico: Um ambiente dedicado a deliciosos cafés coloniais e almoços.\n\nEspaço de Eventos: O cenário ideal para celebrar momentos especiais junto à natureza.\n\nHospedagem em Chalés: Projetos prontos e em execução para oferecer estadias inesquecíveis em nossos novos chalés."},"geometry":{"type":"Point","coordinates":[-49.49094,-26.167047]}},{"type":"Feature","properties":{"rota":"Rota da Uva e do Vinho","nome":"Uvas Papuan","descricao":"Município:\nPiên\n\nProdutos comercializados:\nUva, Vinhos, Sucos de uva, Derivados de uva e vinho (geléias, sucos, grapa, licores, entre outros),.\n\nQual a experiência turística que vai ofertar?\nColha e pague, Piqueniques, Experiências pedagógicas\n\nTelefone: 47997609192\n@uvas_papuan\nhttps://www.instagram.com/uvas_papuan/"},"geometry":{"type":"Point","coordinates":[-49.415408,-26.122719]}},{"type":"Feature","properties":{"rota":"Rota da Uva e do Vinho","nome":"Vinícola Betiatto","descricao":"Município:\nFrancisco Beltrão\n\nProdutos comercializados:\nUva, Vinhos, Sucos de uva, Derivados de uva e vinho (geléias, sucos, grapa, licores, entre outros), Destilados.\n\nQual a experiência turística que vai ofertar?\nPiqueniques, Vindima, Degustação de vinhos, Eventos\n\nTelefone: 46 991036045\n@vinhosbetiatto\nhttps://www.instagram.com/vinhosbetiatto/\nSite: https://vinicolabetiatto.com.br/our-story/contact/"},"geometry":{"type":"Point","coordinates":[-53.009186,-26.064225]}},{"type":"Feature","properties":{"rota":"Rota da Uva e do Vinho","nome":"Di Sandi","descricao":"Município:\nBituruna\n\nProdutos comercializados:\nVinhos, Sucos de uva, Derivados de uva e vinho (geléias, sucos, grapa, licores, entre outros).\n\nQual a experiência turística que vai ofertar?\nPiqueniques, Degustação de vinhos, Eventos, Meios de hospedagem, Visita Guiada e Tábua de Frios.\n\nTelefone: (42) 99808-8751\nE-mail: vinicoladisandi@gmail.com (vinicoladisandi@gmail.com)\n@vinicoladisandi\nhttps://www.instagram.com/vinicoladisandi/\nSite: https://www.disandi.com.br/?srsltid=AfmBOopSFR_J9alZ0VbwR80NVpL5nCmenKrt4uvcImiKzW6kiHRc3ctj"},"geometry":{"type":"Point","coordinates":[-51.509834,-26.145948]}},{"type":"Feature","properties":{"rota":"Rota da Uva e do Vinho","nome":"Vinícola Franco Italiano","descricao":"Município:\nColombo\n\nProdutos comercializados:\nVinhos, Sucos de uva.\n\nQual a experiência turística que vai ofertar?\nDegustação de vinhos.\n\nTelefone: 41 9807-0920\n@vinicolafrancoitaliano\nhttps://www.instagram.com/vinicolafrancoitaliano/\nE-mail: enoturismo@francoitaliano.com.br (enoturismo@francoitaliano.com.br)\nSite: https://francoitaliano.com.br/"},"geometry":{"type":"Point","coordinates":[-49.228187,-25.321973]}},{"type":"Feature","properties":{"rota":"Rota da Uva e do Vinho","nome":"Vinícola Araucária","descricao":"Município:\nSão José dos Pinhais\n\nProdutos comercializados:\nVinhos, Sucos de uva, Souvenirs/artesanato, Derivados de uva e vinho (geléias, sucos, grapa, licores, entre outros).\n\nQual a experiência turística que vai ofertar?\nColha e pague, Piqueniques, Vindima, Degustação de vinhos, Serviços de alimentação, Eventos, Experiências pedagógicas, Meios de hospedagem.\n\nTelefone: 41996892434\n@vinicolaaraucaria\nhttps://www.instagram.com/vinicolaaraucaria/\nSite: https://vinicolaaraucaria.com.br/"},"geometry":{"type":"Point","coordinates":[-49.070044,-25.656084]}},{"type":"Feature","properties":{"rota":"Rota da Uva e do Vinho","nome":"Vinícola RH","descricao":"Município:\nMariópolis\n\nProdutos comercializados:\nVinhos.\n\nQual a experiência turística que vai ofertar?\nDegustação de vinhos.\n\nTelefone:\n46 99973-7359\n@vinicolarh\nhttps://www.instagram.com/vinicolarh/\nE-mail: vinicolarh@hotmail.com (vinicolarh@hotmail.com)\nSite: https://www.vinicolarh.com.br/sobre"},"geometry":{"type":"Point","coordinates":[-52.607532,-26.401918]}},{"type":"Feature","properties":{"rota":"Rota da Uva e do Vinho","nome":"Vinícola Bertoletti","descricao":"Município:\nBituruna\n\nProdutos comercializados:\nVinhos, Sucos de uva, Souvenirs/artesanato, Derivados de uva e vinho (geléias, sucos, grapa, licores, entre outros).\n\nQual a experiência turística que vai ofertar?\nPiqueniques, Degustação de vinhos\n\nTelefone:\n42 999166804\n@vinicola_bertoletti\nhttps://www.instagram.com/vinicola_bertoletti/\nSite:\nhttps://vinicolabertoletti.com.br/?srsltid=AfmBOop--NEdmbnlWTjsRcNeqJU724CIdn7BZAJyECfRFfC3y0OndKi6"},"geometry":{"type":"Point","coordinates":[-51.540959,-26.157727]}},{"type":"Feature","properties":{"rota":"Rota da Uva e do Vinho","nome":"Vinho Monarin","descricao":"Município:\nMarialva\n\nProdutos comercializados:\nUva, Vinhos.\n\nQual a experiência turística que vai ofertar?\nDegustação de vinhos\n\nTelefone:\n44 9.9952.6666\nEmail: valdirmonarin@hotmail.com (valdirmonarin@hotmail.com)\n@vinhomonarin\nhttps://www.instagram.com/vinhomonarin/"},"geometry":{"type":"Point","coordinates":[-51.837072,-23.514136]}},{"type":"Feature","properties":{"rota":"Rota da Uva e do Vinho","nome":"Vinícola Casa Carnasciali","descricao":"Município:\nApucarana\n\nProdutos comercializados:\nVinhos, Souvenirs/artesanato, Rejeições, hospedagem.\n\nQual a experiência turística que vai ofertar?\nPiqueniques, Degustação de vinhos, Serviços de alimentação, Eventos, Experiências pedagógicas, Meios de hospedagem.\n\nTelefone:\n21997221963\nEmail: vinicolacasacarnasciali@gmail.com (vinicolacasacarnasciali@gmail.com)\n@vinicolacasacarnasciali\nhttps://www.instagram.com/vinicolacasacarnasciali/"},"geometry":{"type":"Point","coordinates":[-51.52782,-23.616521]}},{"type":"Feature","properties":{"rota":"Rota da Uva e do Vinho","nome":"Vinícola Família Fardo","descricao":"Município:\nQuatro Barras\n\nProdutos comercializados:\nUva, Vinhos, Sucos de uva, Souvenirs/artesanato, Derivados de uva e vinho (geléias, sucos, grapa, licores, entre outros).\n\nQual a experiência turística que vai ofertar?\nColha e pague, Piqueniques, Degustação de vinhos, Serviços de alimentação, Eventos, Meios de hospedagem, experiência enogastronômica.\n\nTelefone:\n(41) 99147-7374\nEmail: adm@familiafardo.com.br (adm@familiafardo.com.br)\n@familia.fardo\nhttps://www.instagram.com/familia.fardo/"},"geometry":{"type":"Point","coordinates":[-49.024706,-25.323624]}},{"type":"Feature","properties":{"rota":"Rota da Uva e do Vinho","nome":"Recanto Da Uva Fina","descricao":"Município:\nMarialva\n\nProdutos comercializados:\nUva, Vinhos, Sucos de uva, Derivados de uva e vinho (geléias, sucos, grapa, licores, entre outros).\n\nQual a experiência turística que vai ofertar?\nColha e pague, Degustação de vinhos, Experiências pedagógicas, Visualização de alguns animais, brinquedos para crianças e um amplo espaços para contemplação da natureza, com ambientes para descanso. Uma verdadeira experiência de turismo rural com contato direto com a natureza.\n\nTelefone:\n44920003234\n@recanto_da_uva_fina\nhttps://www.instagram.com/recanto_da_uva_fina/"},"geometry":{"type":"Point","coordinates":[-51.845458,-23.533153]}},{"type":"Feature","properties":{"rota":"Rota da Uva e do Vinho","nome":"Ecovine","descricao":"Município:\nSanta Tereza do Oeste\n\nProdutos comercializados:\nUva.\n\nQual a experiência turística que vai ofertar?\nServiços de alimentação, Eventos, Meios de hospedagem, Pesca Esportiva.\n\nTelefones:\n45-999770279 e 45-998123564\nEmail: parquelubeck@hotmail.com (parquelubeck@hotmail.com)\n@pousadaecovine\nhttps://www.instagram.com/pousadaecovine/"},"geometry":{"type":"Point","coordinates":[-53.631433,-25.054565]}},{"type":"Feature","properties":{"rota":"Rota da Uva e do Vinho","nome":"Frutas Pertile","descricao":"Município:\nFrancisco Beltrão\n\nProdutos comercializados:\nUva\n\nQual a experiência turística que vai ofertar?\nVindima\n\nTelefone:\n46999261419\nEmail: pertileitacir@gmail.com (pertileitacir@gmail.com)\nhttps://www.facebook.com/p/Frutas-Pertile-100077386263385/"},"geometry":{"type":"Point","coordinates":[-53.141424,-26.084863]}},{"type":"Feature","properties":{"rota":"Rota da Uva e do Vinho","nome":"Cantina Zanchetta","descricao":"Município:\nSão José dos Pinhais\n\nProdutos comercializados:\nUva, Experiências ligadas a uva.\n\nQual a experiência turística que vai ofertar?\nColha e pague, Vindima, Serviços de alimentação, Eventos.\n\nTelefone:\n41 999655494\n@cantinazanchetta\nhttps://www.instagram.com/cantinazanchetta/"},"geometry":{"type":"Point","coordinates":[-49.207482,-25.612038]}},{"type":"Feature","properties":{"rota":"Rota da Uva e do Vinho","nome":"Kantinho do Paraíso","descricao":"Município:\nRio Negro Paraná\n\nProdutos comercializados:\nUva, Derivados de uva e vinho (geléias, sucos, grapa, licores, entre outros).\n\nQual a experiência turística que vai ofertar?\nColha e pague, Piqueniques, Serviços de alimentação, Eventos, Meios de hospedagem.\n\nTelefone:\n(47)988357670\nEmail: sandraeassiselias@gmail.com (sandraeassiselias@gmail.com)\n@kantinho_do_paraiso_rn\nhttps://www.instagram.com/kantinho_do_paraiso_rn/"},"geometry":{"type":"Point","coordinates":[-49.723211,-26.140872]}},{"type":"Feature","properties":{"rota":"Rota da Uva e do Vinho","nome":"Vinícola Sanber","descricao":"Município:\nBituruna\n\nProdutos comercializados:\nUva, Vinhos, Sucos de uva, Souvenirs/artesanato, Derivados de uva e vinho (geléias, sucos, grapa, licores, entre outros).\n\nQual a experiência turística que vai ofertar?\nColha e pague, Vindima, Degustação de vinhos, Serviços de alimentação, Eventos, Experiências pedagógicas.\n\nTelefone:\n4235532652\n@vinicolasanber\nhttps://www.instagram.com/vinicolasanber/\nSite:\nhttps://vinicolasanber.com.br/"},"geometry":{"type":"Point","coordinates":[-51.50928,-26.14919]}},{"type":"Feature","properties":{"rota":"Rota da Uva e do Vinho","nome":"Sozim Vitinícola","descricao":"Município:\nPonta Grossa\n\nProdutos comercializados:\nUva, Vinhos, Sucos de uva.\n\nQual a experiência turística que vai ofertar?\nDegustação de vinhos, Serviços de alimentação, Visitação a vinhedo e vinícola\n\nTelefone:\n(42) 99922-2545\nEmail: rafael.sozim@gmail.com (rafael.sozim@gmail.com)\n@chacarasozim\nhttps://www.instagram.com/chacarasozim/"},"geometry":{"type":"Point","coordinates":[-50.177903,-25.151523]}},{"type":"Feature","properties":{"rota":"Rota da Uva e do Vinho","nome":"Chácara Castelari","descricao":"Município:\nMarialva\n\nProdutos comercializados:\nUva\n\nQual a experiência turística que vai ofertar?\nColha e pague, Open de uva\n\nTelefone:\n44 999289117\nEmail: fabianacastelarileme@gmail.com (fabianacastelarileme@gmail.com)\n@chacaracastelari\nhttps://www.instagram.com/chacaracastelari/"},"geometry":{"type":"Point","coordinates":[-51.798384,-23.471662]}},{"type":"Feature","properties":{"rota":"Rota da Uva e do Vinho","nome":"Chácara Raizes Da Uva","descricao":"Município:\nMarialva\n\nProdutos comercializados:\nUva.\n\nQual a experiência turística que vai ofertar?\nColha e pague.\n\nTelefone:\n(44) 998926917\n@raizesdauva\nhttps://www.instagram.com/raizesdauva/"},"geometry":{"type":"Point","coordinates":[-51.799905,-23.396136]}},{"type":"Feature","properties":{"rota":"Rota da Uva e do Vinho","nome":"Vinicola Busato","descricao":"Município:\nColombo\n\nProdutos comercializados:\nUva, Vinhos, Sucos de uva, Derivados de uva e vinho (geléias, sucos, grapa, licores, entre outros).\n\nQual a experiência turística que vai ofertar?\nDegustação de vinhos.\n\nTelefone:\n41 99962-3952\nEmail: vinicolabusato@yahoo.com.br (vinicolabusato@yahoo.com.br)\n@vinicolabusato\nhttps://www.instagram.com/vinicolabusato/"},"geometry":{"type":"Point","coordinates":[-49.250607,-25.2759]}},{"type":"Feature","properties":{"rota":"Rota da Uva e do Vinho","nome":"Vinícola Strapasson","descricao":"Município:\nColombo\n\nProdutos comercializados:\nUva, Vinhos, Sucos de uva, Derivados de uva e vinho (geléias, sucos, grapa, licores, entre outros).\n\nQual a experiência turística que vai ofertar?\nVindima, Degustação de vinhos.\n\nTelefone:\n41997602989\nEmail: jessica.martini12@outlook.com (jessica.martini12@outlook.com)\n@vinicola.strapasson\nhttps://www.instagram.com/vinicola.strapasson/\nhttps://vinicolastrapasson.com.br/"},"geometry":{"type":"Point","coordinates":[-49.228454,-25.27846]}},{"type":"Feature","properties":{"rota":"Rota da Uva e do Vinho","nome":"Cave Colinas de Pedra","descricao":"Município:\nPiraquara\n\nProdutos comercializados:\nVinhos, Souvenirs/artesanato, Derivados de uva e vinho (geléias, sucos, grapa, licores, entre outros).\n\nQual a experiência turística que vai ofertar?\nPiqueniques, Degustação de vinhos, Serviços de alimentação, Eventos, Experiências pedagógicas.\n\nTelefone:\n41996675000\n@cavecolinasdepedra\nhttps://www.instagram.com/cavecolinasdepedra/"},"geometry":{"type":"Point","coordinates":[-49.013835,-25.4725]}},{"type":"Feature","properties":{"rota":"Rota da Uva e do Vinho","nome":"Vinícola Durigan","descricao":"Município:\nCuritiba\n\nProdutos comercializados:\nVinhos, Sucos de uva, Souvenirs/artesanato, Derivados de uva e vinho (geléias, sucos, grapa, licores, entre outros), Queijos e frios, chocolates, sorvetes. Adegas e acessórios de vinhos.\n\nQual a experiência turística que vai ofertar?\nDegustação de vinhos, Serviços de alimentação.\n\nTelefone:\n41984049295\nEmail: lojapipa1873@gmail.com (lojapipa1873@gmail.com)\n@vinicola_vinhosdurigan\nhttps://www.instagram.com/vinicola_vinhosdurigan/"},"geometry":{"type":"Point","coordinates":[-49.325553,-25.407324]}},{"type":"Feature","properties":{"rota":"Rota da Uva e do Vinho","nome":"Unus Mundus - Vinícola Boutique","descricao":"Município:\nCampo Largo\n\nProdutos comercializados:\nVinhos, Souvenirs/artesanato.\n\nQual a experiência turística que vai ofertar?\nDegustação de vinhos, Serviços de alimentação, Eventos, Experiências pedagógicas, Visitação com degustação , acompanhado de tábua de frios.\n\nTelefone:\n(41) 99694-4490\n@vinicolaunusmundus\nhttps://www.instagram.com/vinicolaunusmundus/\nSite: https://www.vinicolaunusmundus.com/"},"geometry":{"type":"Point","coordinates":[-49.688784,-25.458516]}},{"type":"Feature","properties":{"rota":"Rota da Uva e do Vinho","nome":"Vinícola Dell Monte","descricao":"Município:\nBituruna\n\nProdutos comercializados:\nUva, Vinhos, Sucos de uva, Derivados de uva e vinho (geléias, sucos, grapa, licores, entre outros).\n\nQual a experiência turística que vai ofertar?\nDegustação de vinhos.\n\nTelefone:\n(42) 9 9804-5237"},"geometry":{"type":"Point","coordinates":[-51.505329,-26.154589]}},{"type":"Feature","properties":{"rota":"Rota da Uva e do Vinho","nome":"COAVITI","descricao":"Município:\nMarialva\n\nProdutos comercializados\nVinhos\n\nQual a experiência turística que vai ofertar?\nDegustação de vinhos\n\nTelefone:\n44 3232-4329\n@vinicolacoaviti"},"geometry":{"type":"Point","coordinates":[-51.815719,-23.472166]}},{"type":"Feature","properties":{"rota":"Rota da Uva e do Vinho","nome":"Vinícola Vinhos Vô Vito","descricao":"Município:\nSão José dos Pinhais\n\nQual a experiência turística que vai ofertar?\nDegustação de vinhos, Visita ao acervo de equipamentos antigos de fabricação de vinho da família, além de acesso ao histórico da colonização italiana da família Pissaia no Paraná.\n\nProdutos comercializados:\nVinhos, Sucos de uva, Souvenirs/artesanato, Derivados de uva e vinho (geléias, sucos, grapa, licores, entre outros), Queijos, salames, bolachas.\n\nContatos:\n41 998937050\nvinhovovito@gmail.com (vinhovovito@gmail.com)\n@vinhos_vo_vito\nhttps://www.instagram.com/vinhos_vo_vito/\nSite: https://vinhosvovito.com.br/"},"geometry":{"type":"Point","coordinates":[-49.127483,-25.569346]}},{"type":"Feature","properties":{"rota":"Rota da Uva e do Vinho","nome":"Casa Scolaro","descricao":"Município:\nChopinzinho\n\nProdutos comercializados:\nUva, Vinhos, Sucos de uva, Souvenirs/artesanato, Derivados de uva e vinho (geléias, sucos, grapa, licores, entre outros)\n\nQual a experiência turística que vai ofertar?\nPiqueniques, Degustação de vinhos, Experiências pedagógicas\n\nTelefone:\n46 9125-1758\n@casascolaro\nhttps://www.instagram.com/casascolaro/"},"geometry":{"type":"Point","coordinates":[-52.531151,-25.875491]}},{"type":"Feature","properties":{"rota":"Rota da Uva e do Vinho","nome":"Vinhos Moleta","descricao":"Município:\nGuamiranga\n\nProdutos comercializados:\nDerivados de uva e vinho (geléias, sucos, grapa, licores, entre outros)\n\nQual a experiência turística que vai ofertar?\nDegustação de vinhos, Serviços de alimentação\n\nTelefone:\n42998136211\nEmail: claudinei_moleta@hotmail.com (claudinei_moleta@hotmail.com)\n@vinicola_moleta\nhttps://www.instagram.com/vinicola_moleta/"},"geometry":{"type":"Point","coordinates":[-50.910865,-25.160011]}},{"type":"Feature","properties":{"rota":"Rota da Uva e do Vinho","nome":"Cantina Dom Celeste","descricao":"Município:\nItapejara D'Oeste\n\nProdutos comercializados:\nUva, Vinhos, Sucos de uva, Derivados de uva e vinho (geléias, sucos, grapa, licores, entre outros)\n\nQual a experiência turística que vai ofertar?\nColha e pague, Piqueniques, Vindima, Degustação de vinhos, Experiências pedagógicas\n\nContato: celestezgnoatto@gmail.com (celestezgnoatto@gmail.com)"},"geometry":{"type":"Point","coordinates":[-52.826719,-25.96542]}},{"type":"Feature","properties":{"rota":"Rota da Uva e do Vinho","nome":"Comafrut","descricao":"Município:\nMarialva\n\nProdutos comercializados:\nUva, Vinhos, Sucos de uva\n\nQual a experiência turística que vai ofertar?\nVindima, Degustação de vinhos, Vendinha da agricultura famíliar (produtos regionais de produores e cooperativas da agricultura famíliar)\n\nTelefone:\n44999614936\nSite: https://comafrut.com.br/"},"geometry":{"type":"Point","coordinates":[-51.816719,-23.472476]}},{"type":"Feature","properties":{"rota":"Rota da Uva e do Vinho","nome":"Dejulio uvas","descricao":"Município:\nMarialva\n\nProdutos comercializados:\nUva\n\nQual a experiência turística que vai ofertar?\nColha e pague\n\nTelefone:\n(44)999357692"},"geometry":{"type":"Point","coordinates":[-51.871766,-23.552385]}},{"type":"Feature","properties":{"rota":"Rota da Uva e do Vinho","nome":"Cantina Simioni","descricao":"Município:\nMariópolis\n\nProdutos comercializados:\nUva, Vinhos, Sucos de uva, Derivados de uva e vinho (geléias, sucos, grapa, licores, entre outros)\n\nQual a experiência turística que vai ofertar?\nColha e pague, Vindima, Degustação de vinhos, Eventos, Experiências pedagógicas\n\nTelefone:\n46 99114-0946"},"geometry":{"type":"Point","coordinates":[-52.548106,-26.290461]}},{"type":"Feature","properties":{"rota":"Rota da Uva e do Vinho","nome":"Família Bresolin","descricao":"Município:\nMariópolis\n\nProdutos comercializados:\nUva, Vinhos, Sucos de uva, Derivados de uva e vinho (geléias, sucos, grapa, licores, entre outros).\n\nQual a experiência turística que vai ofertar?\nColha e pague, Vindima, Degustação de vinhos, Eventos, Experiências pedagógicas, Passeios com Trator e Carreta agrícola nos parreirais\n\nTelefone:\n46 99111-7311"},"geometry":{"type":"Point","coordinates":[-52.572888,-26.294107]}},{"type":"Feature","properties":{"rota":"Rota da Uva e do Vinho","nome":"Vinicola Makaloto","descricao":"Município:\nMariópolis\n\nProdutos comercializados:\nUva, Vinhos, Sucos de uva, Derivados de uva e vinho (geléias, sucos, grapa, licores, entre outros)\n\nQual a experiência turística que vai ofertar?\nColha e pague, Piqueniques, Serviços de alimentação, Eventos, Experiências pedagógicas, Passeio com trator e carreta agrícola no pereiral\n\nTelefone:\n46 99125-7766\n@vinicolamakaloto\nhttps://www.instagram.com/vinicolamakaloto/"},"geometry":{"type":"Point","coordinates":[-52.557491,-26.328482]}},{"type":"Feature","properties":{"rota":"Rota da Uva e do Vinho","nome":"GR Vitivinicola","descricao":"Município:\nLapa\n\nProdutos comercializados:\nUva, Vinhos, Sucos de uva, Derivados de uva e vinho (geléias, sucos, grapa, licores, entre outros).\n\nQual a experiência turística que vai ofertar?\nDegustação de vinhos, Experiências pedagógicas\n\nTelefone:\n42988804635"},"geometry":{"type":"Point","coordinates":[-50.144425,-25.863677]}},{"type":"Feature","properties":{"rota":"Rota da Uva e do Vinho","nome":"Vinhedo Família Griten","descricao":"Município:\nAntônio Olinto\n\nProdutos comercializados:\nUva, Vinhos, Sucos de uva\n\nQual a experiência turística que vai ofertar?\nColha e pague, Degustação de vinhos, Experiências pedagógicas\n\nTelefone:\n42988650302"},"geometry":{"type":"Point","coordinates":[-50.187056,-25.946]}},{"type":"Feature","properties":{"rota":"Rota da Uva e do Vinho","nome":"Sitio Boa Esperança","descricao":"Município:\nBoa Ventura de São Roque\n\nProdutos comercializados:\nUva\n\nQual a experiência turística que vai ofertar?\nColha e pague\n\nTelefone:\n42984170330"},"geometry":{"type":"Point","coordinates":[-51.513364,-24.823913]}},{"type":"Feature","properties":{"rota":"Rota da Uva e do Vinho","nome":"Vinícola Horst","descricao":"Município:\nGuarapuava\n\nProdutos comercializados:\nVinhos, Experiemcias do Enoturismo\n\nQual a experiência turística que vai ofertar?\nPiqueniques, Vindima, Degustação de vinhos, Serviços de alimentação, Eventos, Cursos e workshoops\n\nTelefone:\n42 9 9862 9205\n@vinicolahorst\nhttps://www.instagram.com/vinicolahorst/\nSite: https://www.vinicolahorst.com.br/"},"geometry":{"type":"Point","coordinates":[-51.519604,-25.459122]}},{"type":"Feature","properties":{"rota":"Rota da Uva e do Vinho","nome":"Vinhedo Vô Nelson","descricao":"Município:\nInácio Martins\n\nProdutos comercializados:\nUva, Sucos de uva, Derivados de uva e vinho (geléias, sucos, grapa, licores, entre outros)\n\nQual a experiência turística que vai ofertar?\nColha e pague, Piqueniques, Serviços de alimentação, Eventos\n\nTelefone:\n42 998326042\nEmail: anakperussolo@hotmail.com (anakperussolo@hotmail.com)\n@vinhedovonelson\nhttps://www.instagram.com/vinhedovonelson/"},"geometry":{"type":"Point","coordinates":[-51.118399,-25.572123]}},{"type":"Feature","properties":{"rota":"Rota da Uva e do Vinho","nome":"Vinícola Lavarone","descricao":"Município:\nReserva do Iguaçu\n\nProdutos comercializados:\nUva, Vinhos, Sucos de uva, Souvenirs/artesanato, Derivados de uva e vinho (geléias, sucos, grapa, licores, entre outros)\n\nQual a experiência turística que vai ofertar?\nColha e pague, Piqueniques, Vindima, Degustação de vinhos, Serviços de alimentação, Eventos, Experiências pedagógicas\n\nTelefone:\n(42) 99910-4555"},"geometry":{"type":"Point","coordinates":[-51.981518,-25.812226]}},{"type":"Feature","properties":{"rota":"Rota da Uva e do Vinho","nome":"Adega Sabor do Sul","descricao":"Município:\nPinhão\n\nProdutos comercializados:\nUva, Vinhos, Sucos de uva, Derivados de uva e vinho (geléias, sucos, grapa, licores, entre outros), Doce de uva.\n\nQual a experiência turística que vai ofertar?\nColha e pague, Degustação de vinhos, Experiências pedagógicas\n\nTelefone:\n42 999654011\n@adega_sabordosul\nhttps://www.instagram.com/adega_sabordosul/"},"geometry":{"type":"Point","coordinates":[-51.619332,-25.737989]}},{"type":"Feature","properties":{"rota":"Rota da Uva e do Vinho","nome":"Chácara do Tavinho","descricao":"Município:\nAraucária\n\nProdutos comercializados\nUva\n\nQual a experiência turística que vai ofertar?\nColha e pague, Piqueniques, Serviços de alimentação, Eventos\n\nTelefone:\n(41) 99687-8222\n@chacara_do_tavinho\nhttps://www.instagram.com/chacara_do_tavinho/"},"geometry":{"type":"Point","coordinates":[-49.517764,-25.558437]}},{"type":"Feature","properties":{"rota":"Rota da Uva e do Vinho","nome":"Domianski","descricao":"Município:\nCruz machado\n\nProdutos comercializados\nUva\n\nQual a experiência turística que vai ofertar?\nColha e pague\n\nTelefone:\n(42)999834870"},"geometry":{"type":"Point","coordinates":[-51.130794,-25.916977]}},{"type":"Feature","properties":{"rota":"Rota da Uva e do Vinho","nome":"Estância Galanti","descricao":"Município:\nRosário do Ivaí\n\nProdutos comercializados\nUva\n\nQual a experiência turística que vai ofertar?\nColha e pague\n\nTelefone:\n43 99836-6721\nEmail: diogogalanti3@gmail.com (diogogalanti3@gmail.com)\n@estanciagalanti\nhttps://www.instagram.com/estanciagalanti/"},"geometry":{"type":"Point","coordinates":[-51.310251,-24.205738]}},{"type":"Feature","properties":{"rota":"Rota da Uva e do Vinho","nome":"Recanto das uvas","descricao":"Município:\nMato Rico\n\nProdutos comercializados\nUva\n\nQual a experiência turística que vai ofertar?\nColha e pague\n\nTelefone:\n42998354780\n@chacararecantodasuvas\nhttps://www.instagram.com/chacararecantodasuvas/"},"geometry":{"type":"Point","coordinates":[-52.1518,-24.694796]}},{"type":"Feature","properties":{"rota":"Rota da Uva e do Vinho","nome":"Sitio Boa Sorte","descricao":"Município:\nMato Rico\n\nProdutos comercializados\nUva, Sucos de uva, Derivados de uva e vinho (geléias, sucos, grapa, licores, entre outros), Polpa de uva.\n\nQual a experiência turística que vai ofertar?\nPiqueniques, Degustação de vinhos, Serviços de alimentação\n\nTelefone:\n42 999549706"},"geometry":{"type":"Point","coordinates":[-52.202166,-24.703237]}},{"type":"Feature","properties":{"rota":"Rota da Uva e do Vinho","nome":"Vinicola Borille","descricao":"Município:\nUnião da Vitória\n\nProdutos comercializados\nUva, Vinhos, Sucos de uva, Souvenirs/artesanato, Derivados de uva e vinho (geléias, sucos, grapa, licores, entre outros),\n\nQual a experiência turística que vai ofertar?\nColha e pague, Piqueniques, Vindima, Degustação de vinhos, Serviços de alimentação, Eventos, Experiências pedagógicas, Passeios\n\nTelefone:\n42 988153121\n@vinicolaborille\nhttps://www.instagram.com/vinicolaborille/"},"geometry":{"type":"Point","coordinates":[-51.024896,-26.194787]}},{"type":"Feature","properties":{"rota":"Rota da Uva e do Vinho","nome":"Vinicola Capital da Fronteira","descricao":"Município:\nSanto Antônio do Sudoeste\n\nProdutos comercializados\nUva, Vinhos, Sucos de uva, Souvenirs/artesanato, Derivados de uva e vinho (geléias, sucos, grapa, licores, entre outros)\n\nQual a experiência turística que vai ofertar?\nColha e pague, Piqueniques, Vindima, Degustação de vinhos, Serviços de alimentação, Eventos, Experiências pedagógicas, Meios de hospedagem\n\nTelefone:\n46999061500"},"geometry":{"type":"Point","coordinates":[-53.583531,-26.032639]}},{"type":"Feature","properties":{"rota":"Rota da Uva e do Vinho","nome":"Vinicola Casa Zator","descricao":"Município:\nRio Negro\n\nQual a experiência turística que vai ofertar?\nColha e pague, Vindima, Degustação de vinhos, Serviços de alimentação, Eventos, Experiências pedagógicas, Meios de hospedagem\n\nProdutos comercializados:\nUva, Vinhos, Sucos de uva, Derivados de uva e vinho (geléias, sucos, grapa, licores, entre outros)\n\nTelefone:\n47 996981865\n@casa_zator_oficial\nhttps://www.instagram.com/casa_zator_oficial/"},"geometry":{"type":"Point","coordinates":[-49.553544,-26.172614]}},{"type":"Feature","properties":{"rota":"Rota da Uva e do Vinho","nome":"José Rissardi Neto","descricao":"Município:\nMariópolis\n\nProdutos comercializados:\nUva, Derivados de uva e vinho (geléias, sucos, grapa, licores, entre outros)\n\nQual a experiência turística que vai ofertar?\nColha e pague, Vindima, Eventos, Experiências pedagógicas\n\nTelefone:\n46 99101-8025"},"geometry":{"type":"Point","coordinates":[-52.541249,-26.309099]}},{"type":"Feature","properties":{"rota":"Rota da Uva e do Vinho","nome":"Enoteca Maestá","descricao":"Município:\nRoncador\n\nProdutos comercializados:\nUva, Vinhos, Souvenirs/artesanato, Derivados de uva e vinho (geléias, sucos, grapa, licores, entre outros), Experiências Enogastronômicas\n\nQual a experiência turística que vai ofertar?\nColha e pague, Piqueniques, Vindima, Degustação de vinhos, Serviços de alimentação, Eventos, Experiências pedagógicas, Meios de hospedagem\n\nContatos:\n11 96340-7574\n\nEmail\n\nInstagram"},"geometry":{"type":"Point","coordinates":[-52.244354,-24.545343]}},{"type":"Feature","properties":{"rota":"Rota da Uva e do Vinho","nome":"Quinta Dom José","descricao":"Município:\nQuitandinha\n\nProdutos comercializados:\nUva, Vinhos, Sucos de uva\n\nQual a experiência turística que vai ofertar?\nColha e pague, Degustação de vinhos, serviços de degustação e passeio de carretinha.\n\nTelefone:\n(41)9 9243-3321"},"geometry":{"type":"Point","coordinates":[-49.427448,-25.836312]}},{"type":"Feature","properties":{"rota":"Rota da Uva e do Vinho","nome":"Vinícola Strapasson","descricao":"Município:\nColombo\n\nProdutos comercializados: Uvas,\nvinhos, sucos de uva, derivados de uva e vinho (geléias, sucos, grapa, licores, entre outros)\n\nQual a experiência turística que vai ofertar?\nDegustação de vinhos e vindima.\n\nTelefone:\n(41)997602989\nEmail: jessica.martini12@outlook.com"},"geometry":{"type":"Point","coordinates":[-49.228312,-25.278562]}}]}