{"type":"FeatureCollection","features":[{"type":"Feature","properties":{"nome":"SE Andirá Leste","tensao":"230/138","ano":"2019","planejada":false},"geometry":{"type":"Point","coordinates":[-50.19299,-23.07738]}},{"type":"Feature","properties":{"nome":"SE Apucarana","tensao":"230/138/34,5","ano":"-","planejada":false},"geometry":{"type":"Point","coordinates":[-51.44683,-23.53438]}},{"type":"Feature","properties":{"nome":"SE Areia","tensao":"525/230/138","ano":"1997","planejada":false},"geometry":{"type":"Point","coordinates":[-51.60034,-25.96918]}},{"type":"Feature","properties":{"nome":"SE Assis","tensao":"500/440/230","ano":"-","planejada":false},"geometry":{"type":"Point","coordinates":[-50.35068,-22.66873]}},{"type":"Feature","properties":{"nome":"SE Avaré Nova","tensao":"230","ano":"2003","planejada":false},"geometry":{"type":"Point","coordinates":[-48.9329,-23.06261]}},{"type":"Feature","properties":{"nome":"SE Bateias","tensao":"525/230/138","ano":"1999","planejada":false},"geometry":{"type":"Point","coordinates":[-49.53264,-25.41165]}},{"type":"Feature","properties":{"nome":"SE Botucatu","tensao":"230/138","ano":"-","planejada":false},"geometry":{"type":"Point","coordinates":[-48.43762,-22.9505]}},{"type":"Feature","properties":{"nome":"SE Campo do Assobio","tensao":"230/138/13,8","ano":"1998","planejada":false},"geometry":{"type":"Point","coordinates":[-49.18304,-25.66841]}},{"type":"Feature","properties":{"nome":"SE Campo Mourão","tensao":"230/138","ano":"-","planejada":false},"geometry":{"type":"Point","coordinates":[-52.36761,-24.07477]}},{"type":"Feature","properties":{"nome":"SE Canoinhas","tensao":"230/138","ano":"-","planejada":false},"geometry":{"type":"Point","coordinates":[-50.40314,-26.19641]}},{"type":"Feature","properties":{"nome":"SE Capão Bonito","tensao":"230/138/13,8","ano":"-","planejada":false},"geometry":{"type":"Point","coordinates":[-48.34308,-23.98669]}},{"type":"Feature","properties":{"nome":"SE Capivara","tensao":"440/138/14,4","ano":"1977","planejada":false},"geometry":{"type":"Point","coordinates":[-51.36031,-22.65766]}},{"type":"Feature","properties":{"nome":"SE Cascavel","tensao":"230/138/34,5/13,8","ano":"1986","planejada":false},"geometry":{"type":"Point","coordinates":[-53.45618,-24.99503]}},{"type":"Feature","properties":{"nome":"SE Cascavel Oeste","tensao":"525/230","ano":"2001","planejada":false},"geometry":{"type":"Point","coordinates":[-53.5332,-25.0291]}},{"type":"Feature","properties":{"nome":"SE Chavantes","tensao":"230/88","ano":"1970","planejada":false},"geometry":{"type":"Point","coordinates":[-49.72872,-23.12601]}},{"type":"Feature","properties":{"nome":"SE Cidade Industrial de Curitiba","tensao":"230/69/13,8","ano":"2003","planejada":false},"geometry":{"type":"Point","coordinates":[-49.33272,-25.52586]}},{"type":"Feature","properties":{"nome":"SE Curitiba","tensao":"525/230","ano":"-","planejada":false},"geometry":{"type":"Point","coordinates":[-49.31813,-25.59323]}},{"type":"Feature","properties":{"nome":"SE Curitiba Leste","tensao":"525/230","ano":"2015","planejada":false},"geometry":{"type":"Point","coordinates":[-49.07982,-25.57142]}},{"type":"Feature","properties":{"nome":"SE Distrito Industrial de São José dos Pinhais","tensao":"230/69/13,8","ano":"-","planejada":false},"geometry":{"type":"Point","coordinates":[-49.12808,-25.52959]}},{"type":"Feature","properties":{"nome":"SE Figueira","tensao":"230/138","ano":"-","planejada":false},"geometry":{"type":"Point","coordinates":[-50.38843,-23.84938]}},{"type":"Feature","properties":{"nome":"SE Foz do Chopim","tensao":"230/138","ano":"1998","planejada":false},"geometry":{"type":"Point","coordinates":[-53.09614,-25.52355]}},{"type":"Feature","properties":{"nome":"SE Foz do Iguaçu","tensao":"765/600/500/127","ano":"1984","planejada":false},"geometry":{"type":"Point","coordinates":[-54.53942,-25.46784]}},{"type":"Feature","properties":{"nome":"SE Gralha Azul","tensao":"230","ano":"-","planejada":false},"geometry":{"type":"Point","coordinates":[-49.35476,-25.58687]}},{"type":"Feature","properties":{"nome":"SE Guaíra","tensao":"230/138/34,5","ano":"1984","planejada":false},"geometry":{"type":"Point","coordinates":[-54.22607,-24.10271]}},{"type":"Feature","properties":{"nome":"SE Ibiporã","tensao":"230/138/34,5","ano":"-","planejada":false},"geometry":{"type":"Point","coordinates":[-51.07698,-23.29176]}},{"type":"Feature","properties":{"nome":"SE Itaberá","tensao":"765","ano":"1982","planejada":false},"geometry":{"type":"Point","coordinates":[-49.13202,-23.95131]}},{"type":"Feature","properties":{"nome":"SE Itararé II","tensao":"230/138","ano":"-","planejada":false},"geometry":{"type":"Point","coordinates":[-49.31276,-24.10247]}},{"type":"Feature","properties":{"nome":"SE Ivaiporã","tensao":"525","ano":"-","planejada":false},"geometry":{"type":"Point","coordinates":[-51.67743,-24.43102]}},{"type":"Feature","properties":{"nome":"SE Ivaiporã","tensao":"765","ano":"1982","planejada":false},"geometry":{"type":"Point","coordinates":[-51.67409,-24.42059]}},{"type":"Feature","properties":{"nome":"SE Jaguariaíva","tensao":"230/138/69/34,5","ano":"1993","planejada":false},"geometry":{"type":"Point","coordinates":[-49.69457,-24.23384]}},{"type":"Feature","properties":{"nome":"SE Joinville Norte","tensao":"230/138","ano":"2009","planejada":false},"geometry":{"type":"Point","coordinates":[-48.90117,-26.25183]}},{"type":"Feature","properties":{"nome":"SE Joinville","tensao":"230/138/69","ano":"-","planejada":false},"geometry":{"type":"Point","coordinates":[-48.88757,-26.29152]}},{"type":"Feature","properties":{"nome":"SE Jurumirim","tensao":"230/138","ano":"1962","planejada":false},"geometry":{"type":"Point","coordinates":[-49.23031,-23.20856]}},{"type":"Feature","properties":{"nome":"SE Londrina (ESUL)","tensao":"525/230","ano":"-","planejada":false},"geometry":{"type":"Point","coordinates":[-51.14103,-23.46318]}},{"type":"Feature","properties":{"nome":"SE Maringá","tensao":"230/138/34,5","ano":"1984","planejada":false},"geometry":{"type":"Point","coordinates":[-51.98715,-23.44835]}},{"type":"Feature","properties":{"nome":"SE Parigot Souza","tensao":"230/138","ano":"1996","planejada":false},"geometry":{"type":"Point","coordinates":[-48.76196,-25.25298]}},{"type":"Feature","properties":{"nome":"SE Pato Branco","tensao":"230/138/34,5","ano":"1989","planejada":false},"geometry":{"type":"Point","coordinates":[-52.67247,-26.21028]}},{"type":"Feature","properties":{"nome":"SE Pilarzinho","tensao":"230/69/13,8","ano":"-","planejada":false},"geometry":{"type":"Point","coordinates":[-49.27548,-25.37171]}},{"type":"Feature","properties":{"nome":"SE Piraju","tensao":"230","ano":"2002","planejada":false},"geometry":{"type":"Point","coordinates":[-49.37834,-23.15428]}},{"type":"Feature","properties":{"nome":"SE Ponta Grossa Sul","tensao":"230/138/34,5","ano":"-","planejada":false},"geometry":{"type":"Point","coordinates":[-50.09953,-25.17544]}},{"type":"Feature","properties":{"nome":"SE Ponta Grossa Norte","tensao":"230/138/34,5","ano":"-","planejada":false},"geometry":{"type":"Point","coordinates":[-50.14035,-25.0446]}},{"type":"Feature","properties":{"nome":"SE Posto Fiscal","tensao":"230/138/13,8","ano":"2007","planejada":false},"geometry":{"type":"Point","coordinates":[-48.56419,-25.55299]}},{"type":"Feature","properties":{"nome":"SE Realeza Sul","tensao":"230/138","ano":"2017","planejada":false},"geometry":{"type":"Point","coordinates":[-53.51696,-25.78244]}},{"type":"Feature","properties":{"nome":"SE Salto Grande","tensao":"230/88","ano":"1958","planejada":false},"geometry":{"type":"Point","coordinates":[-49.99884,-22.90534]}},{"type":"Feature","properties":{"nome":"SE Salto Osório","tensao":"230/69","ano":"-","planejada":false},"geometry":{"type":"Point","coordinates":[-53.01282,-25.53981]}},{"type":"Feature","properties":{"nome":"SE Salto Santiago","tensao":"525","ano":"1980","planejada":false},"geometry":{"type":"Point","coordinates":[-52.62237,-25.63013]}},{"type":"Feature","properties":{"nome":"SE Santa Mônica","tensao":"230/69","ano":"2007","planejada":false},"geometry":{"type":"Point","coordinates":[-49.14417,-25.36374]}},{"type":"Feature","properties":{"nome":"SE São Mateus do Sul","tensao":"230/34,5","ano":"-","planejada":false},"geometry":{"type":"Point","coordinates":[-50.40202,-25.85342]}},{"type":"Feature","properties":{"nome":"SE Sarandi","tensao":"230/138","ano":"2006","planejada":false},"geometry":{"type":"Point","coordinates":[-51.82683,-23.44339]}},{"type":"Feature","properties":{"nome":"SE Taquaruçu","tensao":"440/138","ano":"1992","planejada":false},"geometry":{"type":"Point","coordinates":[-52.00091,-22.53863]}},{"type":"Feature","properties":{"nome":"SE Uberaba","tensao":"230/69/13,8","ano":"-","planejada":false},"geometry":{"type":"Point","coordinates":[-49.20848,-25.47678]}},{"type":"Feature","properties":{"nome":"SE Umbará","tensao":"230/69","ano":"-","planejada":false},"geometry":{"type":"Point","coordinates":[-49.31743,-25.59205]}},{"type":"Feature","properties":{"nome":"SE Londrina","tensao":"230/138","ano":"1984","planejada":false},"geometry":{"type":"Point","coordinates":[-51.23797,-23.27581]}},{"type":"Feature","properties":{"nome":"SE Segredo","tensao":"500","ano":"1992","planejada":false},"geometry":{"type":"Point","coordinates":[-52.0964,-25.78843]}},{"type":"Feature","properties":{"nome":"SE Campo Comprido","tensao":"230/69/13,8","ano":"-","planejada":false},"geometry":{"type":"Point","coordinates":[-49.36952,-25.43112]}},{"type":"Feature","properties":{"nome":"SE Siderúrgica Guaíra","tensao":"230","ano":"-","planejada":false},"geometry":{"type":"Point","coordinates":[-49.4202,-25.566]}},{"type":"Feature","properties":{"nome":"SE Santa Quitéria","tensao":"230/69/13,8","ano":"2014","planejada":false},"geometry":{"type":"Point","coordinates":[-49.31181,-25.46111]}},{"type":"Feature","properties":{"nome":"SE Salto Caxias","tensao":"500","ano":"1999","planejada":false},"geometry":{"type":"Point","coordinates":[-53.49758,-25.54341]}},{"type":"Feature","properties":{"nome":"SE Repar","tensao":"230/69","ano":"2009","planejada":false},"geometry":{"type":"Point","coordinates":[-49.3627,-25.57951]}},{"type":"Feature","properties":{"nome":"SE UHE Governador Bento Munhoz da Rocha Netto","tensao":"500/16,5","ano":"1980","planejada":false},"geometry":{"type":"Point","coordinates":[-51.66916,-26.00693]}},{"type":"Feature","properties":{"nome":"SE Margem Direita","tensao":"500/220","ano":"-","planejada":false},"geometry":{"type":"Point","coordinates":[-54.60897,-25.41945]}},{"type":"Feature","properties":{"nome":"SE Mauá","tensao":"230/34,5","ano":"2012","planejada":false},"geometry":{"type":"Point","coordinates":[-50.69262,-24.04011]}},{"type":"Feature","properties":{"nome":"SE Foz do Iguaçu Norte","tensao":"230/138","ano":"2009","planejada":false},"geometry":{"type":"Point","coordinates":[-54.54451,-25.48795]}},{"type":"Feature","properties":{"nome":"SE Umuarama Sul","tensao":"230/138","ano":"2014","planejada":false},"geometry":{"type":"Point","coordinates":[-53.28677,-23.79267]}},{"type":"Feature","properties":{"nome":"SE Cascavel Norte","tensao":"230/138","ano":"2014","planejada":false},"geometry":{"type":"Point","coordinates":[-53.4481,-24.88369]}},{"type":"Feature","properties":{"nome":"SE Paranavaí Norte","tensao":"230/138","ano":"2023","planejada":false},"geometry":{"type":"Point","coordinates":[-52.44759,-23.03386]}},{"type":"Feature","properties":{"nome":"SE Londrina Sul","tensao":"230/138","ano":"2021","planejada":false},"geometry":{"type":"Point","coordinates":[-51.23614,-23.391]}},{"type":"Feature","properties":{"nome":"SE Baixo Iguaçu","tensao":"230","ano":"2019","planejada":false},"geometry":{"type":"Point","coordinates":[-53.67758,-25.50836]}},{"type":"Feature","properties":{"nome":"SE Vega do Sul","tensao":"230","ano":"-","planejada":false},"geometry":{"type":"Point","coordinates":[-48.63015,-26.29222]}},{"type":"Feature","properties":{"nome":"SE Klabin Monte Alegre","tensao":"230/34,5","ano":"-","planejada":false},"geometry":{"type":"Point","coordinates":[-50.60165,-24.29154]}},{"type":"Feature","properties":{"nome":"SE Ponta Grossa","tensao":"525/230","ano":"2021","planejada":false},"geometry":{"type":"Point","coordinates":[-50.32258,-25.09082]}},{"type":"Feature","properties":{"nome":"SE Guarapuava Oeste","tensao":"230/138","ano":"2022","planejada":false},"geometry":{"type":"Point","coordinates":[-51.59824,-25.43237]}},{"type":"Feature","properties":{"nome":"SE Irati Norte","tensao":"230/138","ano":"2023","planejada":false},"geometry":{"type":"Point","coordinates":[-50.66651,-25.3682]}},{"type":"Feature","properties":{"nome":"SE Jaraguá do Sul","tensao":"230/138","ano":"2025","planejada":false},"geometry":{"type":"Point","coordinates":[-49.16445,-26.43634]}},{"type":"Feature","properties":{"nome":"SE Cimentos Portland","tensao":"230","ano":"-","planejada":false},"geometry":{"type":"Point","coordinates":[-49.31784,-25.20081]}},{"type":"Feature","properties":{"nome":"SE Curitiba Norte","tensao":"230/138","ano":"2016","planejada":false},"geometry":{"type":"Point","coordinates":[-49.31784,-25.23455]}},{"type":"Feature","properties":{"nome":"SE União da Vitória Norte","tensao":"230","ano":"2021","planejada":false},"geometry":{"type":"Point","coordinates":[-51.14545,-26.13416]}},{"type":"Feature","properties":{"nome":"SE Castro Norte","tensao":"230","ano":"2022","planejada":false},"geometry":{"type":"Point","coordinates":[-50.05812,-24.77565]}},{"type":"Feature","properties":{"nome":"SE Medianeira Norte","tensao":"230","ano":"2019","planejada":false},"geometry":{"type":"Point","coordinates":[-54.09523,-25.27185]}},{"type":"Feature","properties":{"nome":"SE Curitiba Centro","tensao":"230","ano":"2019","planejada":false},"geometry":{"type":"Point","coordinates":[-49.25319,-25.43699]}},{"type":"Feature","properties":{"nome":"SE Klabin Celulose","tensao":"230/34,5","ano":"2015","planejada":false},"geometry":{"type":"Point","coordinates":[-50.73509,-24.25268]}},{"type":"Feature","properties":{"nome":"SE Rosana","tensao":"230/138","ano":"-","planejada":false},"geometry":{"type":"Point","coordinates":[-52.87564,-22.60064]}},{"type":"Feature","properties":{"nome":"SE Bracell","tensao":"440","ano":"2021","planejada":false},"geometry":{"type":"Point","coordinates":[-48.80846,-22.5388]}},{"type":"Feature","properties":{"nome":"SE Joinville Sul","tensao":"525/230/138","ano":"2025","planejada":true},"geometry":{"type":"Point","coordinates":[-48.94787,-26.39026]}},{"type":"Feature","properties":{"nome":"SE Joinville Norte 2","tensao":"230/138","ano":"2034","planejada":true},"geometry":{"type":"Point","coordinates":[-48.87547,-26.23136]}},{"type":"Feature","properties":{"nome":"SE Curitiba Oeste","tensao":"525/230","ano":"2033","planejada":true},"geometry":{"type":"Point","coordinates":[-49.82619,-25.63002]}},{"type":"Feature","properties":{"nome":"SE Curitiba Sul","tensao":"230","ano":"2037","planejada":true},"geometry":{"type":"Point","coordinates":[-49.12738,-25.62879]}},{"type":"Feature","properties":{"nome":"SE Litorânea","tensao":"525","ano":"2027","planejada":true},"geometry":{"type":"Point","coordinates":[-48.61443,-25.58716]}},{"type":"Feature","properties":{"nome":"SE Barigui 2","tensao":"230","ano":"2027","planejada":true},"geometry":{"type":"Point","coordinates":[-49.34367,-25.47678]}},{"type":"Feature","properties":{"nome":"SE Iguaçu","tensao":"525/230","ano":"-","planejada":true},"geometry":{"type":"Point","coordinates":[-54.47977,-25.46901]}},{"type":"Feature","properties":{"nome":"SE Iguatemi 2","tensao":"230","ano":"2024","planejada":true},"geometry":{"type":"Point","coordinates":[-54.49628,-23.67844]}},{"type":"Feature","properties":{"nome":"SE Palmas 2","tensao":"230","ano":" ","planejada":true},"geometry":{"type":"Point","coordinates":[-52.0698,-26.42982]}},{"type":"Feature","properties":{"nome":"SE Itaporanga 2","tensao":"600/500","ano":" ","planejada":true},"geometry":{"type":"Point","coordinates":[-49.3712,-23.68991]}}]}